{
"type": "FeatureCollection",
"name": "aoi_wgs84",
"crs": { "type": "name", "properties": { "name": "urn:ogc:def:crs:OGC:1.3:CRS84" } },
"features": [
{ "type": "Feature", "properties": { "study_area_id": "SA-TN-ERODE-BHAVANISAGAR-01", "name": "Bhavanisagar Dam & Lower Bhavani River Corridor", "min_lon": 76.95, "min_lat": 11.36, "max_lon": 77.42, "max_lat": 11.58 }, "geometry": { "type": "Polygon", "coordinates": [ [ [ 77.42, 11.36 ], [ 77.42, 11.58 ], [ 76.95, 11.58 ], [ 76.95, 11.36 ], [ 77.42, 11.36 ] ] ] } }
]
}
