{
"type": "FeatureCollection",
"name": "bhavani_river_raw",
"crs": { "type": "name", "properties": { "name": "urn:ogc:def:crs:OGC:1.3:CRS84" } },
"features": [
{ "type": "Feature", "properties": { "osm_id": 25679848, "name": "Bhavani", "name_en": "Bhavani River", "waterway": "river" }, "geometry": { "type": "LineString", "coordinates": [ [ 76.5372836, 11.0654582 ], [ 76.5376616, 11.0658652 ], [ 76.5384701, 11.0671275 ], [ 76.5427766, 11.0689987 ], [ 76.5456696, 11.0695795 ], [ 76.5470668, 11.0699989 ], [ 76.5492036, 11.0713378 ], [ 76.5515048, 11.0702892 ], [ 76.5535924, 11.0689019 ], [ 76.5548745, 11.0681922 ], [ 76.555532, 11.0683212 ], [ 76.5563703, 11.0692246 ], [ 76.5573565, 11.069886 ], [ 76.5579482, 11.0708377 ], [ 76.5576359, 11.0726283 ], [ 76.5580773, 11.074396 ], [ 76.5578333, 11.074883 ], [ 76.5577689, 11.0752831 ], [ 76.5578011, 11.0757727 ], [ 76.5579154, 11.0759997 ], [ 76.5593192, 11.077073 ], [ 76.5596413, 11.0772741 ], [ 76.5613282, 11.0771494 ], [ 76.5618136, 11.0769519 ], [ 76.5624145, 11.0767124 ], [ 76.5628061, 11.0766835 ], [ 76.5629945, 11.076532 ], [ 76.5632191, 11.0762702 ], [ 76.5639648, 11.0757753 ], [ 76.5641873, 11.0756761 ], [ 76.564697, 11.0754489 ], [ 76.5653542, 11.0756174 ], [ 76.5656787, 11.0758174 ], [ 76.5658423, 11.0760596 ], [ 76.5659367, 11.0764514 ], [ 76.5666929, 11.0770482 ], [ 76.5675992, 11.0778101 ], [ 76.5677942, 11.078129 ], [ 76.5679092, 11.079113 ], [ 76.5680078, 11.0798066 ], [ 76.5682214, 11.080108 ], [ 76.5685174, 11.0802744 ], [ 76.568723, 11.0803317 ], [ 76.5687873, 11.0803124 ], [ 76.5689242, 11.0802712 ], [ 76.5693051, 11.0800422 ], [ 76.5698981, 11.0797582 ], [ 76.5707481, 11.079621 ], [ 76.5719256, 11.0795342 ], [ 76.5730011, 11.078913 ], [ 76.5735295, 11.0789524 ], [ 76.5738487, 11.079013 ], [ 76.5739775, 11.0789893 ], [ 76.5740848, 11.0788787 ], [ 76.5741974, 11.0787603 ], [ 76.5744147, 11.0787761 ], [ 76.5747258, 11.078913 ], [ 76.5749833, 11.0791288 ], [ 76.5754539, 11.079355 ], [ 76.5761313, 11.0795973 ], [ 76.5765658, 11.0801712 ], [ 76.5767321, 11.0806686 ], [ 76.5767853, 11.0812907 ], [ 76.5773771, 11.0823553 ], [ 76.5774609, 11.0831179 ], [ 76.5774222, 11.0832306 ], [ 76.5772376, 11.0837685 ], [ 76.5771634, 11.0839845 ], [ 76.5767525, 11.0842587 ], [ 76.5765658, 11.084788 ], [ 76.5766374, 11.0850653 ], [ 76.5774026, 11.0855092 ], [ 76.5783307, 11.0862541 ], [ 76.5790537, 11.0866138 ], [ 76.5810755, 11.0872267 ], [ 76.5822918, 11.0873719 ], [ 76.5841328, 11.0871138 ], [ 76.5848303, 11.0868294 ], [ 76.5853985, 11.0865977 ], [ 76.5859902, 11.0866944 ], [ 76.5866313, 11.0872267 ], [ 76.5867299, 11.0882914 ], [ 76.5864317, 11.0890871 ], [ 76.5865162, 11.0898076 ], [ 76.5868778, 11.0917432 ], [ 76.5883152, 11.0934839 ], [ 76.5884229, 11.0936143 ], [ 76.5896557, 11.0937918 ], [ 76.5908721, 11.0934692 ], [ 76.5921049, 11.0931466 ], [ 76.5930254, 11.0936305 ], [ 76.5930747, 11.0951144 ], [ 76.5931036, 11.0954173 ], [ 76.5932391, 11.0968404 ], [ 76.5927459, 11.0984372 ], [ 76.5926966, 11.1004212 ], [ 76.5924665, 11.1025503 ], [ 76.592306, 11.1029701 ], [ 76.5917361, 11.1044603 ], [ 76.5907406, 11.1068246 ], [ 76.5909214, 11.1075666 ], [ 76.5922528, 11.1085343 ], [ 76.5935021, 11.1095343 ], [ 76.594599, 11.1097957 ], [ 76.5946527, 11.1098085 ], [ 76.5955617, 11.1095092 ], [ 76.5961485, 11.1090989 ], [ 76.5968483, 11.1084654 ], [ 76.5973774, 11.1083505 ], [ 76.5978251, 11.1085343 ], [ 76.5984004, 11.1089214 ], [ 76.5986911, 11.1099862 ], [ 76.5990081, 11.1104649 ], [ 76.5992512, 11.110832 ], [ 76.5994171, 11.1119957 ], [ 76.5997902, 11.1129963 ], [ 76.6008567, 11.1138471 ], [ 76.6019911, 11.1130614 ], [ 76.6024465, 11.1127821 ], [ 76.6028514, 11.1125338 ], [ 76.6046526, 11.1127184 ], [ 76.6068839, 11.1132724 ], [ 76.6079055, 11.1138263 ], [ 76.6082281, 11.1150925 ], [ 76.6088575, 11.1164114 ], [ 76.6092504, 11.117725 ], [ 76.6097873, 11.119445 ], [ 76.6106476, 11.1203156 ], [ 76.6119918, 11.1206057 ], [ 76.6134166, 11.122505 ], [ 76.614008, 11.1236657 ], [ 76.614707, 11.1240613 ], [ 76.6158361, 11.1240877 ], [ 76.6166426, 11.1234546 ], [ 76.6173253, 11.1224087 ], [ 76.618175, 11.1211069 ], [ 76.6192368, 11.1209042 ], [ 76.6201913, 11.1210805 ], [ 76.6226108, 11.1231908 ], [ 76.6240308, 11.1244839 ], [ 76.6240906, 11.1246849 ], [ 76.6241616, 11.1249232 ], [ 76.6251916, 11.1256496 ], [ 76.6256636, 11.1258812 ], [ 76.6267043, 11.1273392 ], [ 76.6268273, 11.1278813 ], [ 76.6269122, 11.1282555 ], [ 76.6271925, 11.1286182 ], [ 76.6276538, 11.1288762 ], [ 76.6280615, 11.1288814 ], [ 76.6289037, 11.128734 ], [ 76.6297299, 11.1283235 ], [ 76.6303307, 11.1282972 ], [ 76.6326857, 11.1282919 ], [ 76.6330773, 11.1284709 ], [ 76.6334367, 11.1288183 ], [ 76.6336191, 11.1293288 ], [ 76.6336177, 11.1295532 ], [ 76.6337746, 11.1306552 ], [ 76.6343701, 11.1312447 ], [ 76.634987, 11.1315184 ], [ 76.6355073, 11.1316132 ], [ 76.6361063, 11.1314472 ], [ 76.6373967, 11.1300755 ], [ 76.6381574, 11.1298131 ], [ 76.6388494, 11.1290551 ], [ 76.6396818, 11.1286776 ], [ 76.6402495, 11.1287498 ], [ 76.6408378, 11.128915 ], [ 76.6415799, 11.1297289 ], [ 76.6423362, 11.1301815 ], [ 76.6426659, 11.1306822 ], [ 76.6434199, 11.1320764 ], [ 76.6439509, 11.1332554 ], [ 76.6442567, 11.1335659 ], [ 76.6454315, 11.1347818 ], [ 76.6455495, 11.1351502 ], [ 76.6455495, 11.1364924 ], [ 76.645748, 11.1369398 ], [ 76.6472899, 11.137514 ], [ 76.6485161, 11.1384135 ], [ 76.6487253, 11.1389557 ], [ 76.6486878, 11.1392813 ], [ 76.6477738, 11.14031 ], [ 76.6475826, 11.1412084 ], [ 76.64772, 11.141919 ], [ 76.64828, 11.1428979 ], [ 76.6491544, 11.1434558 ], [ 76.650002, 11.1447927 ], [ 76.6521478, 11.1459769 ], [ 76.652711, 11.145998 ], [ 76.6537571, 11.1456927 ], [ 76.654889, 11.1455085 ], [ 76.6556722, 11.1456769 ], [ 76.65645, 11.146719 ], [ 76.657425, 11.1475108 ], [ 76.6588338, 11.1485498 ], [ 76.6593107, 11.1491501 ], [ 76.6603025, 11.1496662 ], [ 76.6615411, 11.1491033 ], [ 76.6630509, 11.1489798 ], [ 76.6644427, 11.1485299 ], [ 76.6661353, 11.1493308 ], [ 76.6676407, 11.1510188 ], [ 76.6676676, 11.1517574 ], [ 76.6669418, 11.1521266 ], [ 76.6664847, 11.1527333 ], [ 76.6665654, 11.1548697 ], [ 76.6671059, 11.1555763 ], [ 76.6677752, 11.1560303 ], [ 76.6684283, 11.1563337 ], [ 76.6692814, 11.15673 ], [ 76.6699955, 11.1566982 ], [ 76.6719313, 11.1566122 ], [ 76.671969, 11.1566105 ], [ 76.6746305, 11.1575337 ], [ 76.6784479, 11.1620175 ], [ 76.6785823, 11.1635208 ], [ 76.6794095, 11.1643086 ], [ 76.6819966, 11.1652615 ], [ 76.6872926, 11.1622549 ], [ 76.68854, 11.1627977 ], [ 76.6901493, 11.1627661 ], [ 76.6914153, 11.1629898 ], [ 76.6918035, 11.1634356 ], [ 76.6923952, 11.1644388 ], [ 76.6927373, 11.1664249 ], [ 76.6927976, 11.1700151 ], [ 76.6928477, 11.1720544 ], [ 76.6937125, 11.1727996 ], [ 76.6944962, 11.173193 ], [ 76.69546, 11.1744875 ], [ 76.6967235, 11.1751996 ], [ 76.700541, 11.1751205 ], [ 76.7012646, 11.1754826 ], [ 76.701465, 11.1762077 ], [ 76.7011862, 11.1767293 ], [ 76.7003528, 11.1773095 ], [ 76.699858, 11.1788392 ], [ 76.6997076, 11.1803688 ], [ 76.6998053, 11.1810858 ], [ 76.7003528, 11.1814237 ], [ 76.701073, 11.181678 ], [ 76.7018314, 11.1815819 ], [ 76.7023655, 11.1813837 ], [ 76.7031729, 11.181084 ], [ 76.7045444, 11.1802288 ], [ 76.7061327, 11.1788918 ], [ 76.7069936, 11.1787808 ], [ 76.7075993, 11.1792509 ], [ 76.7080392, 11.1799213 ], [ 76.7081437, 11.1805223 ], [ 76.7084716, 11.1810545 ], [ 76.7094517, 11.1830088 ], [ 76.7096708, 11.1841431 ], [ 76.709762, 11.1846149 ], [ 76.7096436, 11.1859932 ], [ 76.7097675, 11.1872464 ], [ 76.7112907, 11.1877638 ], [ 76.7128267, 11.1880434 ], [ 76.7145742, 11.1869621 ], [ 76.7160591, 11.1859489 ], [ 76.7180959, 11.1858017 ], [ 76.7200584, 11.1867775 ], [ 76.7207574, 11.1882807 ], [ 76.72108, 11.1902323 ], [ 76.7232689, 11.1918428 ], [ 76.7246732, 11.1919312 ], [ 76.7253901, 11.1912562 ], [ 76.7258602, 11.190953 ], [ 76.7268902, 11.1909162 ], [ 76.727333, 11.1909346 ], [ 76.7278435, 11.1909726 ], [ 76.7290156, 11.1905779 ], [ 76.7290951, 11.1905721 ], [ 76.7298431, 11.1905175 ], [ 76.7299246, 11.1905115 ], [ 76.7307594, 11.1904505 ], [ 76.7317359, 11.1911001 ], [ 76.732532, 11.1918564 ], [ 76.7332666, 11.1931619 ], [ 76.7335291, 11.1947052 ], [ 76.7336835, 11.1957008 ], [ 76.73412, 11.1964859 ], [ 76.7347336, 11.196883 ], [ 76.7353409, 11.1970071 ], [ 76.736293, 11.1972212 ], [ 76.7378346, 11.1979247 ], [ 76.7394703, 11.1994178 ], [ 76.741762, 11.2009365 ], [ 76.742335, 11.2016444 ], [ 76.7421765, 11.2023936 ], [ 76.7420813, 11.2032619 ], [ 76.7415565, 11.2046047 ], [ 76.7420638, 11.2053598 ], [ 76.7432753, 11.2052525 ], [ 76.7450422, 11.2050766 ], [ 76.7461181, 11.2057373 ], [ 76.7468102, 11.2059579 ], [ 76.7480348, 11.2066615 ], [ 76.749081, 11.2078862 ], [ 76.7507236, 11.211206 ], [ 76.7537362, 11.2133072 ], [ 76.7555967, 11.2145419 ], [ 76.7568143, 11.2154301 ], [ 76.7582541, 11.2170645 ], [ 76.7593291, 11.2189093 ], [ 76.7611722, 11.2194083 ], [ 76.7625594, 11.2204176 ], [ 76.7636032, 11.2224408 ], [ 76.7643617, 11.2244134 ], [ 76.7650301, 11.2248188 ], [ 76.7659748, 11.2248253 ], [ 76.7673853, 11.2259477 ], [ 76.7677586, 11.227144 ], [ 76.7682379, 11.2276899 ], [ 76.7685841, 11.2282919 ], [ 76.769418, 11.2290142 ], [ 76.7698354, 11.2294742 ], [ 76.7703095, 11.229833 ], [ 76.7707424, 11.2304093 ], [ 76.7709897, 11.2309349 ], [ 76.7718297, 11.2321784 ], [ 76.7826199, 11.237696 ], [ 76.790073, 11.2444562 ], [ 76.7923069, 11.2461447 ], [ 76.7952274, 11.2478332 ], [ 76.7965231, 11.2491965 ], [ 76.8044937, 11.2590675 ], [ 76.8056523, 11.2598341 ], [ 76.8086503, 11.2628699 ], [ 76.8160317, 11.2643851 ], [ 76.8215249, 11.2659003 ], [ 76.827533, 11.2669103 ], [ 76.8313096, 11.269604 ], [ 76.837661, 11.272971 ], [ 76.8395637, 11.27455 ], [ 76.8404531, 11.2745584 ], [ 76.8407509, 11.2731394 ], [ 76.8412073, 11.2726361 ], [ 76.8433259, 11.2722976 ], [ 76.8464158, 11.2738128 ], [ 76.8523766, 11.2735657 ], [ 76.8544839, 11.2743178 ], [ 76.8562005, 11.2781898 ], [ 76.8580887, 11.2797049 ], [ 76.8583882, 11.2799321 ], [ 76.8635819, 11.2825668 ], [ 76.8662131, 11.2811998 ], [ 76.8710979, 11.2818521 ], [ 76.8743966, 11.2844186 ], [ 76.8762788, 11.2844551 ], [ 76.8788598, 11.2830718 ], [ 76.8809304, 11.2825372 ], [ 76.883083, 11.2828089 ], [ 76.8854149, 11.2823766 ], [ 76.887207, 11.2826353 ], [ 76.8882895, 11.2825194 ], [ 76.889055, 11.2834888 ], [ 76.8899877, 11.284589 ], [ 76.8911356, 11.28736 ], [ 76.8924562, 11.2900225 ], [ 76.8930104, 11.291822 ], [ 76.893085, 11.2928643 ], [ 76.8925307, 11.2935986 ], [ 76.8917164, 11.295251 ], [ 76.8916505, 11.2962659 ], [ 76.892346, 11.2988496 ], [ 76.8964146, 11.3056536 ], [ 76.8999741, 11.307649 ], [ 76.9015982, 11.3076704 ], [ 76.903578, 11.3067861 ], [ 76.9042135, 11.3068788 ], [ 76.9049534, 11.3076177 ], [ 76.9068856, 11.3082056 ], [ 76.9103563, 11.3090571 ], [ 76.915252, 11.3093322 ], [ 76.9163001, 11.3094464 ], [ 76.9174481, 11.3091308 ], [ 76.9184137, 11.3085942 ], [ 76.9193364, 11.3077842 ], [ 76.9200123, 11.3075317 ], [ 76.9207452, 11.3074806 ], [ 76.9237305, 11.308152 ], [ 76.9270966, 11.3081539 ], [ 76.9308252, 11.3102924 ], [ 76.9312187, 11.3106528 ], [ 76.9323166, 11.311051 ], [ 76.9336402, 11.3113689 ], [ 76.9343805, 11.3112952 ], [ 76.9367194, 11.3109796 ], [ 76.9379285, 11.3110015 ], [ 76.9385793, 11.3118239 ], [ 76.9394292, 11.3150251 ], [ 76.9395913, 11.3169562 ], [ 76.9421018, 11.3176918 ], [ 76.9466318, 11.317029 ], [ 76.9485725, 11.3188948 ], [ 76.9485121, 11.3216346 ], [ 76.948211, 11.3234714 ], [ 76.9483679, 11.3240485 ], [ 76.9488302, 11.3243991 ], [ 76.9495843, 11.324818 ], [ 76.9505219, 11.324711 ], [ 76.9523436, 11.3237328 ], [ 76.9525115, 11.3222435 ], [ 76.9552491, 11.3192634 ], [ 76.9566956, 11.3190685 ], [ 76.9607423, 11.32061 ], [ 76.9627247, 11.3220316 ], [ 76.9638322, 11.3241447 ], [ 76.9633357, 11.3255699 ], [ 76.9628004, 11.3286481 ], [ 76.9629131, 11.3307982 ], [ 76.9627193, 11.3341996 ], [ 76.9661353, 11.33696 ], [ 76.9661519, 11.3382365 ], [ 76.9701836, 11.3384515 ], [ 76.9724095, 11.3403378 ], [ 76.9752538, 11.3400756 ], [ 76.9784373, 11.3377665 ], [ 76.9828087, 11.3370123 ], [ 76.983508, 11.3362566 ], [ 76.9837525, 11.3357993 ], [ 76.9837908, 11.3353395 ], [ 76.9840363, 11.3347618 ], [ 76.9845201, 11.3340069 ], [ 76.9842597, 11.3317075 ], [ 76.982532, 11.3302357 ], [ 76.9808988, 11.3300269 ], [ 76.9799209, 11.3288169 ], [ 76.9798574, 11.3269867 ], [ 76.9810929, 11.3264605 ], [ 76.9837449, 11.3263329 ], [ 76.9860941, 11.3260468 ], [ 76.986447, 11.3258398 ], [ 76.9866809, 11.3253983 ], [ 76.9863663, 11.3243178 ], [ 76.9844374, 11.3201167 ], [ 76.9841414, 11.3187942 ], [ 76.9848164, 11.3182299 ], [ 76.9895457, 11.3189733 ], [ 76.9924521, 11.3202327 ], [ 76.9932573, 11.3199191 ], [ 76.9934906, 11.3191771 ], [ 76.9932157, 11.3174814 ], [ 76.9927095, 11.3162413 ], [ 76.9927658, 11.315258 ], [ 76.9930782, 11.314347 ], [ 76.994106, 11.3128992 ], [ 76.9944687, 11.3126935 ], [ 76.9951751, 11.312339 ], [ 76.9955514, 11.3124615 ], [ 76.9959522, 11.3127599 ], [ 76.9977796, 11.3152408 ], [ 76.9982731, 11.3154609 ], [ 76.9988279, 11.3155566 ], [ 77.0007214, 11.315603 ], [ 77.0013852, 11.3160005 ], [ 77.0019349, 11.3167153 ], [ 77.0025272, 11.3181181 ], [ 77.0027688, 11.3191307 ], [ 77.0027993, 11.3201719 ], [ 77.0026987, 11.3210885 ], [ 77.0024027, 11.3222753 ], [ 76.9998575, 11.3252648 ], [ 76.9994788, 11.3267894 ], [ 76.999751, 11.3288433 ], [ 77.0004138, 11.3297339 ], [ 77.003112, 11.3319879 ], [ 77.0033956, 11.3326282 ], [ 77.0035169, 11.3339881 ], [ 77.0033842, 11.3350397 ], [ 77.0024256, 11.3371631 ], [ 77.002338, 11.3378856 ], [ 77.0024382, 11.3383935 ], [ 77.0027817, 11.3387267 ], [ 77.0031712, 11.3388456 ], [ 77.0036322, 11.3388355 ], [ 77.0039641, 11.3386251 ], [ 77.0048747, 11.3379871 ], [ 77.0058694, 11.337604 ], [ 77.0065018, 11.3374505 ], [ 77.0070883, 11.337662 ], [ 77.0072784, 11.3380523 ], [ 77.0071737, 11.3387286 ], [ 77.0070343, 11.3394881 ], [ 77.0064611, 11.3408182 ], [ 77.0052146, 11.3431931 ], [ 77.0055025, 11.3440323 ], [ 77.0063783, 11.3446705 ], [ 77.0070908, 11.3446789 ], [ 77.0085203, 11.3440787 ], [ 77.0098669, 11.3426301 ], [ 77.011418, 11.3402273 ], [ 77.012544, 11.3397971 ], [ 77.0139299, 11.3406188 ], [ 77.0147919, 11.3412546 ], [ 77.0161084, 11.3432973 ], [ 77.0160315, 11.3445623 ], [ 77.0152002, 11.3475593 ], [ 77.0139573, 11.3480451 ], [ 77.0118946, 11.3481054 ], [ 77.0108674, 11.3487183 ], [ 77.0102876, 11.3518525 ], [ 77.0093761, 11.3564036 ], [ 77.0094336, 11.3592341 ], [ 77.0113619, 11.3625885 ], [ 77.0118583, 11.3649983 ], [ 77.0141289, 11.3704288 ], [ 77.0165322, 11.3712703 ], [ 77.0192788, 11.3697556 ], [ 77.024257, 11.3719434 ], [ 77.0250392, 11.3726123 ], [ 77.0253101, 11.3732118 ], [ 77.0252913, 11.3743635 ], [ 77.0250285, 11.376362 ], [ 77.0245242, 11.3782657 ], [ 77.0246744, 11.3797856 ], [ 77.0254469, 11.3813002 ], [ 77.0268845, 11.3836982 ], [ 77.0286011, 11.385318 ], [ 77.0315408, 11.3861594 ], [ 77.0328712, 11.3866011 ], [ 77.0339441, 11.3880315 ], [ 77.0361113, 11.3926172 ], [ 77.0395231, 11.3964245 ], [ 77.0432782, 11.3996217 ], [ 77.0449519, 11.4038075 ], [ 77.0440077, 11.4081405 ], [ 77.0427417, 11.4126417 ], [ 77.0439863, 11.4176055 ], [ 77.0483636, 11.4221907 ], [ 77.0538139, 11.4233685 ], [ 77.0581913, 11.4227375 ], [ 77.0624828, 11.423705 ], [ 77.0667314, 11.4262289 ], [ 77.0693492, 11.4294259 ], [ 77.0698856, 11.4344315 ], [ 77.069199, 11.4388271 ], [ 77.0707225, 11.4433488 ], [ 77.0747565, 11.446882 ], [ 77.0793914, 11.4514247 ], [ 77.0869445, 11.4553784 ], [ 77.0970725, 11.4605097 ], [ 77.102909, 11.4625286 ], [ 77.1107252, 11.465549 ], [ 77.1141124, 11.4698068 ] ] } },
{ "type": "Feature", "properties": { "osm_id": 34499680, "name": "Moyar", "name_en": "Bhavani River", "waterway": "river" }, "geometry": { "type": "LineString", "coordinates": [ [ 76.5919947, 11.5012006 ], [ 76.5919018, 11.5028449 ], [ 76.5898176, 11.5031394 ], [ 76.5906225, 11.5066496 ], [ 76.5884757, 11.5077209 ], [ 76.58564, 11.5099287 ], [ 76.5837221, 11.5126286 ], [ 76.5785644, 11.512662 ], [ 76.574467, 11.5157097 ], [ 76.5719737, 11.5154354 ], [ 76.5693376, 11.5178764 ], [ 76.5664504, 11.5192084 ], [ 76.5640385, 11.5172322 ], [ 76.5602406, 11.5160872 ], [ 76.5573857, 11.5132087 ], [ 76.5525974, 11.5113164 ], [ 76.5477823, 11.5062974 ], [ 76.5418763, 11.505874 ], [ 76.5384703, 11.5111982 ], [ 76.53475, 11.514321 ], [ 76.5337395, 11.5183846 ], [ 76.5334835, 11.5189446 ], [ 76.5318141, 11.5206582 ], [ 76.5306966, 11.5221782 ], [ 76.5304379, 11.5229128 ], [ 76.5304457, 11.5232727 ], [ 76.5305279, 11.5235896 ], [ 76.5306765, 11.5238909 ], [ 76.5307, 11.5242861 ], [ 76.5304112, 11.5262087 ], [ 76.5315152, 11.5294886 ], [ 76.5304522, 11.5321294 ], [ 76.5304745, 11.5326476 ], [ 76.5336097, 11.5357131 ], [ 76.5339257, 11.5362181 ], [ 76.5340725, 11.5365214 ], [ 76.5344625, 11.5369956 ], [ 76.5350046, 11.5373245 ], [ 76.5353781, 11.5375077 ], [ 76.535754, 11.537673 ], [ 76.5364822, 11.5378023 ], [ 76.5371002, 11.5379908 ], [ 76.5383001, 11.5385385 ], [ 76.539364, 11.5388782 ], [ 76.5399189, 11.5398876 ], [ 76.5404283, 11.5401939 ], [ 76.5407497, 11.5413184 ], [ 76.5412866, 11.5411434 ], [ 76.5418297, 11.5407343 ], [ 76.5423407, 11.540559 ], [ 76.5428663, 11.5397182 ], [ 76.5433377, 11.5390871 ], [ 76.5443938, 11.5388162 ], [ 76.5452762, 11.5390866 ], [ 76.5457889, 11.5388031 ], [ 76.5465189, 11.537802 ], [ 76.54772, 11.5365392 ], [ 76.5487286, 11.5383882 ], [ 76.5533902, 11.5368198 ], [ 76.5568835, 11.5429819 ], [ 76.5629968, 11.5408007 ], [ 76.5623874, 11.5450139 ], [ 76.5623638, 11.5510055 ], [ 76.5658743, 11.5502129 ], [ 76.5664065, 11.5528093 ], [ 76.5639141, 11.5543099 ], [ 76.5619637, 11.5527851 ], [ 76.561745, 11.5556159 ], [ 76.5655288, 11.560883 ], [ 76.5649098, 11.5633637 ], [ 76.5619497, 11.5616388 ], [ 76.5625291, 11.565386 ], [ 76.55898, 11.5682166 ], [ 76.5570563, 11.5653156 ], [ 76.5566359, 11.5689636 ], [ 76.5586828, 11.5729254 ], [ 76.5629614, 11.5729361 ], [ 76.5656376, 11.5736511 ], [ 76.5695302, 11.5753989 ], [ 76.5738284, 11.5769879 ], [ 76.5784326, 11.57905 ], [ 76.580265, 11.5788612 ], [ 76.5807903, 11.5788933 ], [ 76.5810907, 11.579051 ], [ 76.5816523, 11.5792264 ], [ 76.5824747, 11.5795765 ], [ 76.5837729, 11.5804383 ], [ 76.5848083, 11.5800607 ], [ 76.5865297, 11.5794175 ], [ 76.5870554, 11.5797458 ], [ 76.586485, 11.5813427 ], [ 76.5872919, 11.582099 ], [ 76.5876353, 11.5828873 ], [ 76.5875816, 11.58315 ], [ 76.5875924, 11.5833602 ], [ 76.5878284, 11.5837491 ], [ 76.5880322, 11.5839593 ], [ 76.5887082, 11.5842956 ], [ 76.5889656, 11.5843902 ], [ 76.5900278, 11.5845374 ], [ 76.591047, 11.5843902 ], [ 76.5912616, 11.5842956 ], [ 76.591841, 11.5839173 ], [ 76.5920126, 11.5837701 ], [ 76.5920985, 11.5835704 ], [ 76.5922379, 11.5833918 ], [ 76.5924418, 11.5833392 ], [ 76.5928709, 11.5833918 ], [ 76.5941584, 11.5837281 ], [ 76.5950092, 11.5840616 ], [ 76.5955865, 11.5843307 ], [ 76.5959126, 11.5845531 ], [ 76.5960841, 11.5848921 ], [ 76.5961943, 11.5850743 ], [ 76.5963122, 11.5852311 ], [ 76.5968067, 11.5854847 ], [ 76.5971348, 11.5857835 ], [ 76.5975123, 11.5861733 ], [ 76.598922, 11.5870178 ], [ 76.6001773, 11.5874067 ], [ 76.6003704, 11.5875118 ], [ 76.6016793, 11.5886784 ], [ 76.6023177, 11.5897242 ], [ 76.6030312, 11.590649 ], [ 76.6034013, 11.5914268 ], [ 76.6036105, 11.591616 ], [ 76.6037232, 11.5918051 ], [ 76.6040611, 11.5920731 ], [ 76.6041577, 11.5923832 ], [ 76.6045332, 11.5931609 ], [ 76.6047263, 11.593986 ], [ 76.6045546, 11.5941857 ], [ 76.6045439, 11.5944064 ], [ 76.604898, 11.5947742 ], [ 76.6050053, 11.5952787 ], [ 76.6052413, 11.5956886 ], [ 76.6057777, 11.5961195 ], [ 76.6061854, 11.5963927 ], [ 76.6064215, 11.5965188 ], [ 76.606679, 11.5965924 ], [ 76.6069901, 11.596645 ], [ 76.6072047, 11.596666 ], [ 76.6078377, 11.596645 ], [ 76.6082561, 11.5967606 ], [ 76.6086852, 11.5968131 ], [ 76.6088998, 11.5968972 ], [ 76.6092968, 11.5970759 ], [ 76.6099727, 11.597717 ], [ 76.6104448, 11.5979587 ], [ 76.6121828, 11.5980323 ], [ 76.6130412, 11.5979061 ], [ 76.6134596, 11.59778 ], [ 76.6136795, 11.597759 ], [ 76.6139102, 11.5978799 ], [ 76.6139853, 11.5979639 ], [ 76.6140336, 11.5982162 ], [ 76.6137385, 11.5991778 ], [ 76.613642, 11.5993775 ], [ 76.6135454, 11.5998084 ], [ 76.6133523, 11.5999555 ], [ 76.6132235, 11.6001447 ], [ 76.6128588, 11.6009329 ], [ 76.6128373, 11.6011431 ], [ 76.6129339, 11.6013323 ], [ 76.6130304, 11.6017632 ], [ 76.6130197, 11.6019734 ], [ 76.6129124, 11.6021731 ], [ 76.6129017, 11.6023938 ], [ 76.612985, 11.6027158 ], [ 76.6129875, 11.6035919 ], [ 76.6128909, 11.6038546 ], [ 76.6129339, 11.6040753 ], [ 76.6129017, 11.6042855 ], [ 76.6130412, 11.6044537 ], [ 76.6132343, 11.6045377 ], [ 76.614747, 11.6047269 ], [ 76.61538, 11.6048635 ], [ 76.6157555, 11.6050527 ], [ 76.6161847, 11.6060301 ], [ 76.6161525, 11.6064505 ], [ 76.6159487, 11.607102 ], [ 76.61641, 11.6078692 ], [ 76.6172039, 11.608195 ], [ 76.6181373, 11.6084262 ], [ 76.6187918, 11.60871 ], [ 76.6196179, 11.6093931 ], [ 76.6199505, 11.6096138 ], [ 76.6207015, 11.6100026 ], [ 76.6218495, 11.6104125 ], [ 76.6241562, 11.6110325 ], [ 76.6255939, 11.6116631 ], [ 76.6269028, 11.6124513 ], [ 76.6281044, 11.6130293 ], [ 76.6284263, 11.6131554 ], [ 76.6291988, 11.6133236 ], [ 76.6306901, 11.6133971 ], [ 76.6309154, 11.6134497 ], [ 76.6317737, 11.6133025 ], [ 76.6335654, 11.6128191 ], [ 76.634016, 11.6127981 ], [ 76.6342628, 11.6128507 ], [ 76.6344345, 11.6129873 ], [ 76.6347241, 11.6135653 ], [ 76.6348743, 11.6137124 ], [ 76.6350996, 11.6137755 ], [ 76.6364193, 11.6137439 ], [ 76.6372883, 11.6138175 ], [ 76.6377175, 11.6137439 ], [ 76.6394448, 11.613292 ], [ 76.6423845, 11.6131029 ], [ 76.6428351, 11.6130819 ], [ 76.643039, 11.6130924 ], [ 76.6442084, 11.6134287 ], [ 76.6450667, 11.6135127 ], [ 76.6456997, 11.6134917 ], [ 76.6463542, 11.6136283 ], [ 76.6483712, 11.6133025 ], [ 76.6488111, 11.6131134 ], [ 76.6491437, 11.6130819 ], [ 76.6496158, 11.6131029 ], [ 76.6504848, 11.6132605 ], [ 76.6513431, 11.6135127 ], [ 76.6538966, 11.6144165 ], [ 76.6543901, 11.6145006 ], [ 76.6550875, 11.6145952 ], [ 76.6555381, 11.6146057 ], [ 76.6559994, 11.6145952 ], [ 76.6568684, 11.614448 ], [ 76.6572976, 11.6144796 ], [ 76.6575122, 11.6145006 ], [ 76.6581559, 11.6147318 ], [ 76.6583705, 11.6147738 ], [ 76.6590357, 11.6148474 ], [ 76.6606021, 11.6151101 ], [ 76.6636813, 11.6152993 ], [ 76.6651833, 11.6155725 ], [ 76.6659772, 11.615583 ], [ 76.6664386, 11.615541 ], [ 76.666857, 11.6154779 ], [ 76.6679621, 11.6151417 ], [ 76.6684341, 11.6151311 ], [ 76.6691637, 11.6152783 ], [ 76.6697645, 11.615562 ], [ 76.6707086, 11.6157617 ], [ 76.6709125, 11.6157932 ], [ 76.6723502, 11.6157722 ], [ 76.6725647, 11.6157512 ], [ 76.6803861, 11.6145952 ], [ 76.6828, 11.6141012 ], [ 76.6831863, 11.6139226 ], [ 76.6836262, 11.613807 ], [ 76.6840446, 11.613765 ], [ 76.6853213, 11.6139436 ], [ 76.6872203, 11.6147213 ], [ 76.6883039, 11.614921 ], [ 76.6889691, 11.614963 ], [ 76.6896129, 11.6148789 ], [ 76.6900635, 11.6147948 ], [ 76.6909003, 11.6145111 ], [ 76.6921663, 11.6142274 ], [ 76.692337, 11.6142194 ], [ 76.6926169, 11.6142063 ], [ 76.6935611, 11.6145006 ], [ 76.6948485, 11.6147003 ], [ 76.6954815, 11.6148894 ], [ 76.696533, 11.6151311 ], [ 76.6976488, 11.6150471 ], [ 76.6987002, 11.6152257 ], [ 76.700685, 11.6154149 ], [ 76.7010927, 11.615562 ], [ 76.7015004, 11.6156251 ], [ 76.7023587, 11.6156881 ], [ 76.7031956, 11.615583 ], [ 76.7036247, 11.615478 ], [ 76.7044186, 11.6150996 ], [ 76.7051697, 11.6146582 ], [ 76.7060065, 11.6145111 ], [ 76.7064357, 11.6145111 ], [ 76.7072725, 11.6148474 ], [ 76.7081094, 11.6150786 ], [ 76.7149114, 11.614406 ], [ 76.7169285, 11.6146162 ], [ 76.7183661, 11.6145321 ], [ 76.7187953, 11.6145531 ], [ 76.7195463, 11.6144901 ], [ 76.7205781, 11.6145354 ], [ 76.7210054, 11.6145952 ], [ 76.7223358, 11.6145742 ], [ 76.7231941, 11.6147003 ], [ 76.7236018, 11.6148264 ], [ 76.7243528, 11.6151837 ], [ 76.7264557, 11.6151206 ], [ 76.7305326, 11.6144901 ], [ 76.7313695, 11.614427 ], [ 76.7325711, 11.6144901 ], [ 76.7343521, 11.6148684 ], [ 76.7358541, 11.6150366 ], [ 76.7364335, 11.6150576 ], [ 76.739974, 11.6144691 ], [ 76.7415995, 11.6139227 ], [ 76.7420339, 11.6138385 ], [ 76.7441153, 11.6138385 ], [ 76.7450655, 11.6138725 ], [ 76.7455101, 11.6139016 ], [ 76.7459392, 11.6140067 ], [ 76.7479563, 11.6139436 ], [ 76.7488944, 11.6141617 ], [ 76.7492223, 11.6142379 ], [ 76.74963, 11.614385 ], [ 76.7504024, 11.6147844 ], [ 76.7525053, 11.6154359 ], [ 76.7532563, 11.6158773 ], [ 76.7540931, 11.6165078 ], [ 76.7543936, 11.6168231 ], [ 76.7557668, 11.6174537 ], [ 76.756196, 11.6177479 ], [ 76.7571187, 11.617895 ], [ 76.7575478, 11.617853 ], [ 76.7581701, 11.6176849 ], [ 76.759758, 11.6169913 ], [ 76.7601013, 11.616718 ], [ 76.7604017, 11.6164028 ], [ 76.7606807, 11.6160454 ], [ 76.7608952, 11.6156671 ], [ 76.7617965, 11.6147423 ], [ 76.7621398, 11.6145111 ], [ 76.7623601, 11.6145243 ], [ 76.7627191, 11.6143009 ], [ 76.7635345, 11.6141748 ], [ 76.7665386, 11.6134812 ], [ 76.7675686, 11.6136283 ], [ 76.7679763, 11.6137965 ], [ 76.7682767, 11.6141118 ], [ 76.7687702, 11.6144691 ], [ 76.7695641, 11.6149105 ], [ 76.769611, 11.6150215 ], [ 76.7700362, 11.6150156 ], [ 76.7704868, 11.6149315 ], [ 76.7707857, 11.61478 ], [ 76.7712164, 11.6147844 ], [ 76.7716026, 11.6146372 ], [ 76.7719888, 11.614406 ], [ 76.7726274, 11.6136578 ], [ 76.7729759, 11.6134392 ], [ 76.7742848, 11.612052 ], [ 76.77495, 11.6117157 ], [ 76.7758298, 11.6115475 ], [ 76.7775464, 11.6116316 ], [ 76.7780185, 11.6117157 ], [ 76.7793917, 11.6116316 ], [ 76.7798424, 11.6116736 ], [ 76.7811084, 11.6116106 ], [ 76.784606, 11.6111902 ], [ 76.7855286, 11.6113373 ], [ 76.7863655, 11.6115685 ], [ 76.7879534, 11.6121571 ], [ 76.78864, 11.6123462 ], [ 76.7890906, 11.6124303 ], [ 76.7895627, 11.6124933 ], [ 76.7901166, 11.6124504 ], [ 76.7905283, 11.6125144 ], [ 76.790936, 11.6124723 ], [ 76.791451, 11.6123672 ], [ 76.7926955, 11.6119889 ], [ 76.7930817, 11.6118418 ], [ 76.7934465, 11.6115896 ], [ 76.7937684, 11.6112743 ], [ 76.7940259, 11.610938 ], [ 76.7946911, 11.6093616 ], [ 76.7952358, 11.6090269 ], [ 76.7956567, 11.6088992 ], [ 76.7964291, 11.6084788 ], [ 76.8009495, 11.6075496 ], [ 76.8019438, 11.607617 ], [ 76.8072867, 11.6084788 ], [ 76.8085098, 11.6084788 ], [ 76.8093896, 11.6083737 ], [ 76.811192, 11.6079323 ], [ 76.8154835, 11.605326 ], [ 76.8165564, 11.6049686 ], [ 76.8169641, 11.6048635 ], [ 76.8172641, 11.6048648 ], [ 76.8186593, 11.6051578 ], [ 76.8192172, 11.6054941 ], [ 76.8204188, 11.6066502 ], [ 76.82102, 11.6071376 ], [ 76.8212771, 11.607554 ], [ 76.8220067, 11.6079323 ], [ 76.8224358, 11.6080584 ], [ 76.8230581, 11.6080374 ], [ 76.8239808, 11.6078482 ], [ 76.824367, 11.6076801 ], [ 76.8247747, 11.6074489 ], [ 76.8250966, 11.6071756 ], [ 76.8260522, 11.6062853 ], [ 76.8311476, 11.6014584 ], [ 76.8319201, 11.6010591 ], [ 76.8334007, 11.6001973 ], [ 76.8344092, 11.5993775 ], [ 76.8377781, 11.597738 ], [ 76.8387268, 11.5970943 ], [ 76.8392801, 11.5968762 ], [ 76.8397307, 11.5968552 ], [ 76.8401384, 11.5967501 ], [ 76.8437218, 11.5961825 ], [ 76.8446016, 11.5959723 ], [ 76.8451381, 11.5956991 ], [ 76.8456745, 11.5950685 ], [ 76.8460822, 11.5946691 ], [ 76.8465328, 11.5941016 ], [ 76.847198, 11.5936391 ], [ 76.8476003, 11.5930664 ], [ 76.8480724, 11.5921625 ], [ 76.8485155, 11.5915824 ], [ 76.8477614, 11.5892384 ], [ 76.8463547, 11.5863261 ], [ 76.8460792, 11.5845787 ], [ 76.8466883, 11.5827461 ], [ 76.8478605, 11.5812931 ], [ 76.8481095, 11.5809845 ], [ 76.8506473, 11.5784415 ], [ 76.852605, 11.5772339 ], [ 76.8556359, 11.5770208 ], [ 76.8585798, 11.577305 ], [ 76.8620167, 11.577717 ], [ 76.8659757, 11.578612 ], [ 76.8687456, 11.5790098 ], [ 76.8708338, 11.5796491 ], [ 76.8726176, 11.5809845 ], [ 76.8739952, 11.5809419 ], [ 76.8752859, 11.5797059 ], [ 76.8769681, 11.5780153 ], [ 76.8795059, 11.5758559 ], [ 76.8821598, 11.5736112 ], [ 76.8869164, 11.5730003 ], [ 76.8899182, 11.5723325 ], [ 76.892108, 11.5723325 ], [ 76.8940948, 11.5737959 ], [ 76.8971257, 11.574563 ], [ 76.8988224, 11.5753586 ], [ 76.9002145, 11.5768077 ], [ 76.9015052, 11.5780579 ], [ 76.9037385, 11.579919 ], [ 76.9053482, 11.580672 ], [ 76.9070739, 11.5806435 ], [ 76.9095247, 11.5793081 ], [ 76.9118595, 11.5751455 ], [ 76.9131324, 11.5715252 ], [ 76.9150209, 11.5666225 ], [ 76.9161666, 11.5640923 ], [ 76.9172252, 11.5637514 ], [ 76.9182258, 11.5642202 ], [ 76.9184724, 11.5656125 ], [ 76.9183838, 11.5663435 ], [ 76.9181368, 11.5675475 ], [ 76.9187624, 11.5710397 ], [ 76.9191249, 11.5743499 ], [ 76.9194601, 11.5757455 ], [ 76.919531, 11.5760406 ], [ 76.9201111, 11.5784273 ], [ 76.9223733, 11.5783847 ], [ 76.9250707, 11.5778732 ], [ 76.9277535, 11.5762821 ], [ 76.9301753, 11.5747903 ], [ 76.9316545, 11.574421 ], [ 76.9343374, 11.5759553 ], [ 76.9378323, 11.5785125 ], [ 76.9395145, 11.5792797 ], [ 76.9411532, 11.5787256 ], [ 76.9427484, 11.5758985 ], [ 76.9438216, 11.5743357 ], [ 76.9452282, 11.5731992 ], [ 76.9474615, 11.5726735 ], [ 76.9504344, 11.5727872 ], [ 76.9531462, 11.5727445 ], [ 76.9543354, 11.5717501 ], [ 76.9549155, 11.5704146 ], [ 76.9556261, 11.5693633 ], [ 76.9576708, 11.5694059 ], [ 76.9594835, 11.5705851 ], [ 76.9606002, 11.5715654 ], [ 76.9616733, 11.5711107 ], [ 76.9630075, 11.5691928 ], [ 76.9640951, 11.5671469 ], [ 76.9663719, 11.5653568 ], [ 76.9676481, 11.5645328 ], [ 76.9694608, 11.5642202 ], [ 76.9703889, 11.5645612 ], [ 76.9713895, 11.5652716 ], [ 76.9722742, 11.5658541 ], [ 76.9734488, 11.5657688 ], [ 76.9739419, 11.5651011 ], [ 76.9737678, 11.5626574 ], [ 76.9734678, 11.5600546 ], [ 76.973279, 11.5568169 ], [ 76.9745509, 11.5548147 ], [ 76.9767407, 11.5536212 ], [ 76.978945, 11.5534365 ], [ 76.9807142, 11.5542322 ], [ 76.9824544, 11.5554541 ], [ 76.9841802, 11.5556388 ], [ 76.9862278, 11.5543618 ], [ 76.9876311, 11.5534866 ], [ 76.9892363, 11.552469 ], [ 76.9912004, 11.5508604 ], [ 76.9924235, 11.5483692 ], [ 76.9930565, 11.5471288 ], [ 76.9934428, 11.5463299 ], [ 76.9941616, 11.545962 ], [ 76.994698, 11.5457833 ], [ 76.9955349, 11.5457097 ], [ 76.9965112, 11.5460145 ], [ 76.9979703, 11.5464035 ], [ 76.9985711, 11.5465822 ], [ 76.9996118, 11.5463299 ], [ 77.0004058, 11.5459094 ], [ 77.0012426, 11.5455205 ], [ 77.0017791, 11.5451736 ], [ 77.002337, 11.5449634 ], [ 77.003485, 11.5451105 ], [ 77.0042789, 11.5454469 ], [ 77.0054376, 11.5457307 ], [ 77.006253, 11.5458674 ], [ 77.007122, 11.5456677 ], [ 77.0076477, 11.5453418 ], [ 77.0078194, 11.544627 ], [ 77.0075834, 11.5438912 ], [ 77.0074332, 11.5434076 ], [ 77.0068753, 11.5430817 ], [ 77.0064676, 11.5423775 ], [ 77.0060433, 11.5412752 ], [ 77.0056629, 11.5392764 ], [ 77.0052659, 11.5378363 ], [ 77.0052767, 11.5359651 ], [ 77.007122, 11.5334527 ], [ 77.0080984, 11.5319285 ], [ 77.0086992, 11.5304988 ], [ 77.0090961, 11.5295632 ], [ 77.0095682, 11.5287432 ], [ 77.0095369, 11.5276756 ], [ 77.0083773, 11.5268089 ], [ 77.0070362, 11.5258313 ], [ 77.0065749, 11.5249272 ], [ 77.0061672, 11.5240442 ], [ 77.006489, 11.5234344 ], [ 77.0070147, 11.5232557 ], [ 77.0074654, 11.5232557 ], [ 77.0079911, 11.5233398 ], [ 77.0083866, 11.5234782 ], [ 77.0085919, 11.5235501 ], [ 77.0103192, 11.5245172 ], [ 77.0126259, 11.5253582 ], [ 77.0143318, 11.5257577 ], [ 77.0146322, 11.5257367 ], [ 77.014879, 11.5255369 ], [ 77.014997, 11.5251059 ], [ 77.0158553, 11.5239601 ], [ 77.0167565, 11.5232767 ], [ 77.0181084, 11.5216052 ], [ 77.0191169, 11.5200073 ], [ 77.019707, 11.5185986 ], [ 77.0203829, 11.5177471 ], [ 77.0210588, 11.5175368 ], [ 77.0221639, 11.5181255 ], [ 77.0230329, 11.5192083 ], [ 77.0236015, 11.5200389 ], [ 77.0246637, 11.5209009 ], [ 77.0255542, 11.5214686 ], [ 77.0266592, 11.5221624 ], [ 77.0272922, 11.5223306 ], [ 77.0277965, 11.5221098 ], [ 77.0279574, 11.5216893 ], [ 77.0280433, 11.5211111 ], [ 77.0282256, 11.5208273 ], [ 77.0283437, 11.5204068 ], [ 77.0281184, 11.5196289 ], [ 77.0279896, 11.5186512 ], [ 77.0275068, 11.5176209 ], [ 77.0272386, 11.5162332 ], [ 77.026816, 11.5150005 ], [ 77.026906, 11.5132896 ], [ 77.0269275, 11.5116496 ], [ 77.0274317, 11.5108611 ], [ 77.0284617, 11.5102829 ], [ 77.0293414, 11.5103355 ], [ 77.0305753, 11.5109347 ], [ 77.0331824, 11.5120806 ], [ 77.0338261, 11.512396 ], [ 77.0355749, 11.5121858 ], [ 77.0364362, 11.5118484 ], [ 77.0375061, 11.511145 ], [ 77.0382464, 11.5108611 ], [ 77.0387506, 11.5109768 ], [ 77.0390832, 11.5109873 ], [ 77.0399737, 11.510367 ], [ 77.0425916, 11.5081382 ], [ 77.0469278, 11.5049155 ], [ 77.0500438, 11.5047304 ], [ 77.0507991, 11.503065 ], [ 77.0505159, 11.5016771 ], [ 77.0490995, 11.4989938 ], [ 77.0484386, 11.4964956 ], [ 77.0492756, 11.4955116 ], [ 77.0497584, 11.4952488 ], [ 77.0507347, 11.4947652 ], [ 77.053138, 11.495049 ], [ 77.0552087, 11.4957009 ], [ 77.0560563, 11.4955116 ], [ 77.0569038, 11.4951752 ], [ 77.0575476, 11.4948072 ], [ 77.0580304, 11.4943026 ], [ 77.057966, 11.4940187 ], [ 77.0578372, 11.4937243 ], [ 77.0578158, 11.4933143 ], [ 77.0579553, 11.4930094 ], [ 77.0585668, 11.4920316 ], [ 77.0596933, 11.4904966 ], [ 77.0606911, 11.4887408 ], [ 77.0617747, 11.487027 ], [ 77.0626867, 11.4860072 ], [ 77.0639956, 11.4852291 ], [ 77.0651007, 11.4849663 ], [ 77.0666563, 11.4840726 ], [ 77.0675146, 11.4843354 ], [ 77.0678687, 11.4848401 ], [ 77.068094, 11.485513 ], [ 77.0682013, 11.4856497 ], [ 77.068491, 11.4857443 ], [ 77.0693064, 11.4858074 ], [ 77.0702183, 11.4853974 ], [ 77.0710981, 11.4847665 ], [ 77.07304, 11.4834838 ], [ 77.0745098, 11.4824009 ], [ 77.075808, 11.4815387 ], [ 77.0770097, 11.4808658 ], [ 77.0780182, 11.4808237 ], [ 77.0787585, 11.4807081 ], [ 77.0793164, 11.4802875 ], [ 77.0795631, 11.4792887 ], [ 77.0792842, 11.4784265 ], [ 77.0791018, 11.4775538 ], [ 77.0790803, 11.4766601 ], [ 77.0792627, 11.4757453 ], [ 77.0800245, 11.4749568 ], [ 77.0805824, 11.4748832 ], [ 77.0812905, 11.4751671 ], [ 77.0823634, 11.4759136 ], [ 77.0831573, 11.4761764 ], [ 77.0838439, 11.4759556 ], [ 77.0841765, 11.4753353 ], [ 77.0844018, 11.4747255 ], [ 77.0848739, 11.4741051 ], [ 77.0862794, 11.473632 ], [ 77.0872664, 11.4734848 ], [ 77.0877707, 11.4735478 ], [ 77.087996, 11.4742313 ], [ 77.0880711, 11.4753773 ], [ 77.0882642, 11.4766601 ], [ 77.0889079, 11.4772279 ], [ 77.0905924, 11.4774066 ], [ 77.1107252, 11.465549 ] ] } },
{ "type": "Feature", "properties": { "osm_id": 70237216, "name": "Bhavani", "name_en": "Bhavani River", "waterway": "river" }, "geometry": { "type": "LineString", "coordinates": [ [ 77.1141124, 11.4698068 ], [ 77.1151337, 11.4728553 ], [ 77.115477, 11.475212 ], [ 77.1143911, 11.4769007 ], [ 77.1136358, 11.4794916 ], [ 77.1137302, 11.48199 ], [ 77.1145913, 11.483452 ], [ 77.1158958, 11.4832893 ], [ 77.1178296, 11.4842368 ], [ 77.1199446, 11.4845329 ], [ 77.1216366, 11.4827563 ], [ 77.1239934, 11.4816311 ], [ 77.125625, 11.4812758 ], [ 77.1281026, 11.4826971 ], [ 77.1302177, 11.4851843 ], [ 77.1306407, 11.4865464 ], [ 77.132514, 11.48779 ], [ 77.1336708, 11.4881591 ], [ 77.1351943, 11.4875903 ], [ 77.1375951, 11.4860245 ], [ 77.1384966, 11.4860726 ], [ 77.1408458, 11.4868436 ], [ 77.1421828, 11.4864872 ], [ 77.1430743, 11.4863982 ], [ 77.1445115, 11.485111 ], [ 77.1447816, 11.4842383 ], [ 77.1457108, 11.4811224 ], [ 77.1467246, 11.4798893 ], [ 77.1480445, 11.4792623 ], [ 77.148959, 11.4795517 ], [ 77.1505597, 11.4808857 ], [ 77.152522, 11.481398 ], [ 77.1542323, 11.4810051 ], [ 77.1569881, 11.4780778 ], [ 77.158378, 11.4774264 ], [ 77.1601909, 11.4769526 ], [ 77.1617965, 11.4771265 ], [ 77.1638397, 11.4794334 ], [ 77.1674233, 11.4832499 ], [ 77.1685882, 11.4836855 ], [ 77.1707057, 11.4864279 ], [ 77.1734288, 11.4886105 ], [ 77.1751467, 11.4894715 ], [ 77.1795284, 11.4892113 ], [ 77.1833412, 11.4880728 ], [ 77.1852238, 11.4885653 ], [ 77.1858735, 11.4892113 ], [ 77.1873239, 11.4915799 ], [ 77.1893785, 11.4944816 ], [ 77.1922791, 11.4952514 ], [ 77.1952402, 11.4943632 ], [ 77.1992285, 11.4934749 ], [ 77.2027838, 11.4920684 ], [ 77.2046254, 11.4920735 ], [ 77.2057947, 11.4928622 ], [ 77.2066879, 11.4939744 ], [ 77.2080881, 11.4955838 ], [ 77.2110858, 11.4950357 ], [ 77.2131404, 11.4939106 ], [ 77.216041, 11.4921932 ], [ 77.2178539, 11.491305 ], [ 77.2194855, 11.4916603 ], [ 77.2226278, 11.4935552 ], [ 77.2257702, 11.49622 ], [ 77.2269788, 11.4969899 ], [ 77.2270392, 11.4979966 ], [ 77.2258911, 11.498944 ], [ 77.2254076, 11.5011351 ], [ 77.225468, 11.5037998 ], [ 77.2269773, 11.5061585 ], [ 77.2285695, 11.506691 ], [ 77.2298548, 11.5063766 ], [ 77.2324801, 11.504715 ], [ 77.2351368, 11.5027931 ], [ 77.2373123, 11.5009574 ], [ 77.2381139, 11.5007167 ], [ 77.2389072, 11.5009113 ], [ 77.2410546, 11.5012383 ], [ 77.2467699, 11.5037841 ], [ 77.247645, 11.5038873 ], [ 77.248623, 11.5038921 ], [ 77.2489775, 11.50363 ], [ 77.2494587, 11.5028523 ], [ 77.2509694, 11.5006613 ], [ 77.2539593, 11.4983622 ], [ 77.2541118, 11.4976413 ], [ 77.2546184, 11.4955637 ], [ 77.2545843, 11.4944927 ], [ 77.2546735, 11.4933269 ], [ 77.2555645, 11.4920313 ], [ 77.2583201, 11.4888467 ], [ 77.2591275, 11.4868635 ], [ 77.2605787, 11.4840504 ], [ 77.2598346, 11.4811587 ], [ 77.2593971, 11.4805836 ], [ 77.2589707, 11.4799931 ], [ 77.2582412, 11.4789102 ], [ 77.2569215, 11.4775118 ], [ 77.2562563, 11.4770281 ], [ 77.2556616, 11.4764482 ], [ 77.255133, 11.4750305 ], [ 77.2545815, 11.4732958 ], [ 77.2546577, 11.4726331 ], [ 77.2550547, 11.4705933 ], [ 77.2554088, 11.470015 ], [ 77.2559345, 11.4695103 ], [ 77.2561812, 11.4687742 ], [ 77.2562563, 11.4679751 ], [ 77.2561276, 11.4667449 ], [ 77.2563207, 11.4657776 ], [ 77.256664, 11.4649154 ], [ 77.2574365, 11.4642109 ], [ 77.2582304, 11.4636851 ], [ 77.2588634, 11.4634328 ], [ 77.2595715, 11.4625285 ], [ 77.2602689, 11.4612562 ], [ 77.2606122, 11.4604781 ], [ 77.2608805, 11.4595212 ], [ 77.2610628, 11.4585118 ], [ 77.2610414, 11.4576706 ], [ 77.261256, 11.457271 ], [ 77.2616851, 11.456882 ], [ 77.2624508, 11.4563153 ], [ 77.2635949, 11.4556938 ], [ 77.2645068, 11.4553257 ], [ 77.2651613, 11.4553783 ], [ 77.2659659, 11.4555465 ], [ 77.2681761, 11.4572395 ], [ 77.2693884, 11.4579966 ], [ 77.2703648, 11.4582489 ], [ 77.2707081, 11.4582069 ], [ 77.2716629, 11.4578178 ], [ 77.2722638, 11.4574077 ], [ 77.2742808, 11.4555886 ], [ 77.2753537, 11.4555255 ], [ 77.2776604, 11.4560092 ], [ 77.2786689, 11.45623 ], [ 77.279892, 11.4571659 ], [ 77.2815013, 11.4587536 ], [ 77.2820806, 11.4592163 ], [ 77.2825098, 11.4593425 ], [ 77.2841835, 11.4592058 ], [ 77.2863614, 11.4589008 ], [ 77.2877777, 11.4584066 ], [ 77.2888183, 11.4581227 ], [ 77.2890544, 11.457965 ], [ 77.2896123, 11.4565875 ], [ 77.2901916, 11.4553468 ], [ 77.291125, 11.4548631 ], [ 77.2917044, 11.4548526 ], [ 77.2922087, 11.4549787 ], [ 77.2929275, 11.4553257 ], [ 77.2934854, 11.4560197 ], [ 77.2940433, 11.4570397 ], [ 77.2939145, 11.4578704 ], [ 77.2936034, 11.4593214 ], [ 77.2937, 11.4613508 ], [ 77.2941506, 11.4625811 ], [ 77.2951108, 11.4643476 ], [ 77.2957438, 11.4661245 ], [ 77.2959208, 11.4670656 ], [ 77.295953, 11.4688636 ], [ 77.2959155, 11.4698152 ], [ 77.2959005, 11.470856 ], [ 77.2959101, 11.4723702 ], [ 77.2964696, 11.4731876 ], [ 77.2970226, 11.4753952 ], [ 77.2990939, 11.4762186 ], [ 77.3007459, 11.4751555 ], [ 77.3019529, 11.4744218 ], [ 77.3029268, 11.4729906 ], [ 77.3047829, 11.4724018 ], [ 77.3054159, 11.4725279 ], [ 77.30636, 11.4726857 ], [ 77.3075616, 11.4734427 ], [ 77.3094284, 11.4757874 ], [ 77.310555, 11.4772174 ], [ 77.3114777, 11.4792992 ], [ 77.3134625, 11.4799826 ], [ 77.3174858, 11.4798354 ], [ 77.3205633, 11.4790151 ], [ 77.3226866, 11.4785474 ], [ 77.3240143, 11.4780716 ], [ 77.3250577, 11.4776931 ], [ 77.3254305, 11.4774933 ], [ 77.3257819, 11.4772936 ], [ 77.3259535, 11.4771464 ], [ 77.3260474, 11.4771017 ], [ 77.3263961, 11.4770701 ], [ 77.3269325, 11.4769755 ], [ 77.3277962, 11.4768125 ], [ 77.3281503, 11.4767311 ], [ 77.3284265, 11.4765944 ], [ 77.3286331, 11.4764524 ], [ 77.3287404, 11.476229 ], [ 77.3288128, 11.4758741 ], [ 77.3288181, 11.4754115 ], [ 77.3288262, 11.4749752 ], [ 77.3288906, 11.4747018 ], [ 77.3291373, 11.4743942 ], [ 77.3293063, 11.4742076 ], [ 77.3294565, 11.4741156 ], [ 77.3295692, 11.4740473 ], [ 77.3296952, 11.4738817 ], [ 77.3299044, 11.4733849 ], [ 77.3299929, 11.4730326 ], [ 77.3300466, 11.4728486 ], [ 77.3300493, 11.4724333 ], [ 77.3300895, 11.47206 ], [ 77.3302022, 11.4712846 ], [ 77.3302504, 11.4709508 ], [ 77.3303309, 11.470793 ], [ 77.3304623, 11.4707115 ], [ 77.3305535, 11.4706695 ], [ 77.3305964, 11.4705827 ], [ 77.3307064, 11.4703856 ], [ 77.3309237, 11.4701911 ], [ 77.3311302, 11.4700465 ], [ 77.3312697, 11.4699335 ], [ 77.3314065, 11.4698704 ], [ 77.3315486, 11.4698599 ], [ 77.3317793, 11.469923 ], [ 77.3321092, 11.470057 ], [ 77.332989, 11.4704119 ], [ 77.3334932, 11.4706458 ], [ 77.3336434, 11.4707667 ], [ 77.3339707, 11.4711242 ], [ 77.3343435, 11.4718944 ], [ 77.3344964, 11.472244 ], [ 77.3345286, 11.4725674 ], [ 77.3345527, 11.4727224 ], [ 77.3346144, 11.4728986 ], [ 77.3346975, 11.4729958 ], [ 77.3347619, 11.4730957 ], [ 77.3347834, 11.4732429 ], [ 77.334719, 11.4734427 ], [ 77.3346037, 11.4741288 ], [ 77.334424, 11.4748621 ], [ 77.3343194, 11.4750908 ], [ 77.3342067, 11.4755272 ], [ 77.3341477, 11.4758032 ], [ 77.3341665, 11.4761922 ], [ 77.3342603, 11.4768993 ], [ 77.334373, 11.477312 ], [ 77.3344803, 11.4777299 ], [ 77.334609, 11.4780611 ], [ 77.3349443, 11.4785448 ], [ 77.3353681, 11.4789864 ], [ 77.3357409, 11.4792834 ], [ 77.3361433, 11.4794937 ], [ 77.3363525, 11.4795594 ], [ 77.3365188, 11.4797171 ], [ 77.3365912, 11.4799195 ], [ 77.3367065, 11.4801403 ], [ 77.3369989, 11.4804478 ], [ 77.3373046, 11.4806108 ], [ 77.3374709, 11.4806634 ], [ 77.3376319, 11.4806792 ], [ 77.3378009, 11.4806371 ], [ 77.338053, 11.4806029 ], [ 77.338517, 11.4806056 ], [ 77.3389918, 11.480666 ], [ 77.3394504, 11.4808264 ], [ 77.3401558, 11.4810314 ], [ 77.3405609, 11.4811102 ], [ 77.3411724, 11.4810971 ], [ 77.3417169, 11.4810577 ], [ 77.3421085, 11.4809762 ], [ 77.3422855, 11.4808763 ], [ 77.3424143, 11.48085 ], [ 77.342661, 11.4808579 ], [ 77.3429668, 11.4808605 ], [ 77.3433262, 11.4807633 ], [ 77.3441711, 11.480411 ], [ 77.3447907, 11.4802034 ], [ 77.3455229, 11.4798906 ], [ 77.3458984, 11.4796987 ], [ 77.3460942, 11.4795226 ], [ 77.346164, 11.4793255 ], [ 77.3462176, 11.4789837 ], [ 77.346274, 11.4787735 ], [ 77.3463276, 11.478642 ], [ 77.3464838, 11.4785198 ], [ 77.3470773, 11.4781252 ], [ 77.3478615, 11.4780836 ], [ 77.3489636, 11.478229 ], [ 77.3502247, 11.4790287 ], [ 77.3512526, 11.4794026 ], [ 77.3524395, 11.4798699 ], [ 77.3530012, 11.4806592 ], [ 77.3535523, 11.481677 ], [ 77.3550041, 11.4822585 ], [ 77.356297, 11.4833386 ], [ 77.3579713, 11.4842213 ], [ 77.3589887, 11.4853014 ], [ 77.3600696, 11.4858726 ], [ 77.3605995, 11.4859141 ], [ 77.3614049, 11.4859764 ], [ 77.3623904, 11.4853741 ], [ 77.3634926, 11.4850833 ], [ 77.3642342, 11.4848558 ], [ 77.3650142, 11.4843706 ], [ 77.3657738, 11.483706 ], [ 77.366547, 11.4829682 ], [ 77.3673676, 11.4820377 ], [ 77.3681204, 11.4814927 ], [ 77.3686766, 11.4807881 ], [ 77.3693006, 11.4802697 ], [ 77.3701077, 11.4793325 ], [ 77.3709351, 11.4789736 ], [ 77.3716065, 11.4785283 ], [ 77.3723729, 11.4784685 ], [ 77.3731326, 11.4783555 ], [ 77.3742449, 11.4784153 ], [ 77.3753029, 11.4788872 ], [ 77.375859, 11.4790667 ], [ 77.3768628, 11.4796383 ], [ 77.3775817, 11.4799307 ], [ 77.3788839, 11.4806751 ], [ 77.3798267, 11.4808945 ], [ 77.3808508, 11.4806685 ], [ 77.3815697, 11.4796117 ], [ 77.382092, 11.4787676 ], [ 77.3822819, 11.4777506 ], [ 77.3828109, 11.4772189 ], [ 77.3844725, 11.4765808 ], [ 77.3855306, 11.4760823 ], [ 77.3861546, 11.4759161 ], [ 77.3866497, 11.4759427 ], [ 77.3872533, 11.4763415 ], [ 77.3877213, 11.4766672 ], [ 77.3882774, 11.4765409 ], [ 77.3888268, 11.4763216 ], [ 77.3893558, 11.4764146 ], [ 77.389722, 11.4768001 ], [ 77.3906037, 11.477857 ], [ 77.391282, 11.4786213 ], [ 77.3924485, 11.479851 ], [ 77.3931607, 11.480715 ], [ 77.393398, 11.4813597 ], [ 77.393866, 11.4819446 ], [ 77.3946731, 11.4822637 ], [ 77.3956226, 11.4821573 ], [ 77.3966332, 11.4819047 ], [ 77.3976709, 11.4815724 ], [ 77.3984373, 11.4814328 ], [ 77.3993122, 11.4815325 ], [ 77.4000718, 11.4817652 ], [ 77.4011502, 11.4824963 ], [ 77.4019641, 11.4828552 ], [ 77.4027169, 11.4833603 ], [ 77.4031917, 11.4838256 ], [ 77.4038835, 11.4845833 ], [ 77.4047312, 11.4851084 ], [ 77.4050297, 11.4856002 ], [ 77.4051111, 11.4863446 ], [ 77.4054909, 11.4871023 ], [ 77.4059385, 11.488066 ], [ 77.4059792, 11.4893554 ], [ 77.4058435, 11.4903856 ], [ 77.4054502, 11.4915421 ], [ 77.4044871, 11.4935094 ], [ 77.4039174, 11.4948054 ], [ 77.4035918, 11.4959021 ], [ 77.4038292, 11.4970452 ], [ 77.4043582, 11.4976832 ], [ 77.4049076, 11.4979956 ], [ 77.4066506, 11.4980488 ], [ 77.4079935, 11.4977098 ], [ 77.408882, 11.497537 ], [ 77.4096009, 11.49765 ], [ 77.4105708, 11.4977696 ], [ 77.4116899, 11.4977364 ], [ 77.4126462, 11.4973443 ], [ 77.4136906, 11.4970718 ], [ 77.4146944, 11.497105 ], [ 77.4158135, 11.4977298 ], [ 77.4167291, 11.4987134 ], [ 77.4168444, 11.4995575 ], [ 77.417292, 11.5003085 ], [ 77.418011, 11.5007538 ], [ 77.4194488, 11.501332 ], [ 77.4206289, 11.5015181 ], [ 77.4211444, 11.5014915 ], [ 77.421999, 11.501312 ], [ 77.4229213, 11.5007072 ], [ 77.423586, 11.4999429 ], [ 77.423959, 11.4990922 ], [ 77.4244881, 11.4982083 ], [ 77.4245898, 11.4974506 ], [ 77.4244541, 11.4968126 ], [ 77.4248407, 11.4959552 ], [ 77.4254715, 11.4954767 ], [ 77.4262514, 11.4949982 ], [ 77.4272417, 11.494513 ], [ 77.4283947, 11.4939946 ], [ 77.4293035, 11.4937287 ], [ 77.4304429, 11.4938284 ], [ 77.4312568, 11.4938417 ], [ 77.432091, 11.4938949 ], [ 77.4329727, 11.4943867 ], [ 77.4332508, 11.4952441 ], [ 77.4334407, 11.4963407 ], [ 77.4336034, 11.4972313 ], [ 77.4340172, 11.4982947 ], [ 77.4344105, 11.4988463 ], [ 77.4350277, 11.4992252 ], [ 77.4358959, 11.4993647 ], [ 77.4366623, 11.4994844 ], [ 77.4374965, 11.4997037 ], [ 77.4381951, 11.5002553 ], [ 77.4391988, 11.5007936 ], [ 77.4399856, 11.5011525 ], [ 77.4404129, 11.501445 ], [ 77.4408537, 11.5021229 ], [ 77.4414641, 11.5026545 ], [ 77.4421695, 11.5028473 ], [ 77.4434106, 11.5032261 ], [ 77.444333, 11.5036382 ], [ 77.4452372, 11.5041781 ], [ 77.4458052, 11.5046267 ], [ 77.4463647, 11.5047679 ], [ 77.4471956, 11.5046766 ], [ 77.4480434, 11.504552 ], [ 77.448552, 11.5041781 ], [ 77.4488233, 11.5034969 ], [ 77.4490353, 11.5025997 ], [ 77.449315, 11.5014948 ], [ 77.449315, 11.5006889 ], [ 77.4497305, 11.4998 ], [ 77.4502476, 11.4994345 ], [ 77.4510615, 11.4993431 ], [ 77.452028, 11.4988945 ], [ 77.4530029, 11.4986452 ], [ 77.4538083, 11.4986619 ], [ 77.4547239, 11.4989775 ], [ 77.4556141, 11.4995425 ], [ 77.4563686, 11.4998831 ], [ 77.457547, 11.5000659 ], [ 77.4588526, 11.4998 ], [ 77.4599463, 11.4997335 ], [ 77.4614977, 11.4991022 ], [ 77.4623709, 11.4984542 ], [ 77.4630831, 11.4981135 ], [ 77.4635409, 11.4981385 ], [ 77.4645158, 11.498936 ], [ 77.4652619, 11.4997751 ], [ 77.4657027, 11.5013286 ], [ 77.4662623, 11.5024668 ], [ 77.4666184, 11.5037544 ], [ 77.4672203, 11.505067 ], [ 77.4677968, 11.5064461 ], [ 77.4682207, 11.507119 ], [ 77.4686785, 11.5074014 ], [ 77.4690769, 11.5079082 ], [ 77.4699671, 11.5084565 ], [ 77.4707386, 11.5088054 ], [ 77.4714846, 11.5089715 ], [ 77.4721544, 11.5085977 ], [ 77.4723748, 11.5079248 ], [ 77.4729937, 11.5077836 ], [ 77.4738415, 11.5079746 ], [ 77.4746384, 11.508066 ], [ 77.4757236, 11.5086642 ], [ 77.4766985, 11.509038 ], [ 77.4779363, 11.5098853 ], [ 77.4789367, 11.5106524 ], [ 77.4797777, 11.5117955 ], [ 77.4803085, 11.5130216 ], [ 77.4805119, 11.5143259 ], [ 77.4807493, 11.5158876 ], [ 77.4811393, 11.5167848 ], [ 77.482021, 11.5175158 ], [ 77.4830383, 11.5178481 ], [ 77.4840896, 11.518222 ], [ 77.4850052, 11.5192188 ], [ 77.4854121, 11.520091 ], [ 77.4860649, 11.5210214 ], [ 77.4865227, 11.5212457 ], [ 77.4869042, 11.5213454 ], [ 77.4875146, 11.5220349 ], [ 77.4884726, 11.5226745 ], [ 77.4891339, 11.5230733 ], [ 77.4902858, 11.5237129 ], [ 77.4911601, 11.5243878 ], [ 77.4919284, 11.5250498 ], [ 77.4930411, 11.5252056 ], [ 77.4954653, 11.5249979 ], [ 77.4969357, 11.5248292 ], [ 77.4987372, 11.5250887 ], [ 77.5000221, 11.5248032 ], [ 77.501413, 11.5243489 ], [ 77.5030424, 11.5241932 ], [ 77.5047777, 11.5239336 ], [ 77.506354, 11.5231158 ], [ 77.5084603, 11.522363 ], [ 77.5102353, 11.5212987 ], [ 77.5107254, 11.5205199 ], [ 77.5104075, 11.5191181 ], [ 77.5102883, 11.5177292 ], [ 77.510328, 11.5161457 ], [ 77.5109506, 11.5150943 ], [ 77.5117189, 11.5142246 ], [ 77.5127389, 11.5138872 ], [ 77.5138914, 11.5140429 ], [ 77.5152558, 11.5152241 ], [ 77.5166997, 11.5172879 ], [ 77.5178786, 11.5186378 ], [ 77.5192828, 11.519793 ], [ 77.52123, 11.5207276 ], [ 77.5231243, 11.5221683 ], [ 77.524396, 11.5229211 ], [ 77.5255219, 11.5229471 ], [ 77.5265154, 11.5220904 ], [ 77.527297, 11.5207795 ], [ 77.5276414, 11.519845 ], [ 77.5280256, 11.5182874 ], [ 77.5281315, 11.5170283 ], [ 77.5280918, 11.515302 ], [ 77.5280102, 11.5141701 ], [ 77.5283944, 11.5131058 ], [ 77.5293879, 11.5121193 ], [ 77.5303681, 11.5112626 ], [ 77.5308582, 11.5101852 ], [ 77.5310702, 11.5087184 ], [ 77.5310967, 11.5071868 ], [ 77.5310304, 11.5060704 ], [ 77.530633, 11.5046556 ], [ 77.5307258, 11.5026955 ], [ 77.5309377, 11.5017349 ], [ 77.5319577, 11.5009561 ], [ 77.5327438, 11.5003038 ], [ 77.5333814, 11.4994531 ], [ 77.5339375, 11.4984562 ], [ 77.5341952, 11.4974725 ], [ 77.5343987, 11.4965155 ], [ 77.5345886, 11.4953125 ], [ 77.5344801, 11.4945548 ], [ 77.5347378, 11.493199 ], [ 77.5357755, 11.4916504 ], [ 77.5365826, 11.490906 ], [ 77.5375389, 11.4906069 ], [ 77.5385156, 11.4900619 ], [ 77.5391734, 11.4893308 ], [ 77.5395465, 11.4887725 ], [ 77.5402043, 11.488274 ], [ 77.5409843, 11.4879683 ], [ 77.5417304, 11.4879018 ], [ 77.5426799, 11.487955 ], [ 77.543487, 11.4879683 ], [ 77.5442669, 11.487955 ], [ 77.5455861, 11.48807 ], [ 77.5465606, 11.4877353 ], [ 77.5477426, 11.4860776 ], [ 77.5486974, 11.4844111 ], [ 77.5491493, 11.4824884 ], [ 77.5490408, 11.4806208 ], [ 77.5492781, 11.4787753 ], [ 77.5500332, 11.4775506 ], [ 77.5513523, 11.4766014 ], [ 77.5533967, 11.4761575 ], [ 77.5544176, 11.4757345 ], [ 77.5560221, 11.47457 ], [ 77.5569908, 11.4740599 ], [ 77.5580691, 11.4739021 ], [ 77.5596784, 11.4742176 ], [ 77.5611536, 11.4746066 ], [ 77.5626585, 11.4746902 ] ] } },
{ "type": "Feature", "properties": { "osm_id": 130074937, "name": "Bhavani River", "name_en": "Bhavani River", "waterway": "river" }, "geometry": { "type": "LineString", "coordinates": [ [ 77.4202739, 11.6343964 ], [ 77.411188, 11.6341162 ], [ 77.4053615, 11.6321908 ], [ 77.3984688, 11.6326438 ], [ 77.3940302, 11.6334167 ], [ 77.3904792, 11.6318709 ], [ 77.3871256, 11.6249148 ], [ 77.3798193, 11.6214019 ], [ 77.3782454, 11.6203137 ], [ 77.3770419, 11.617956 ], [ 77.375931, 11.6158704 ], [ 77.3763013, 11.6132406 ], [ 77.3761162, 11.6103388 ], [ 77.3757458, 11.6090692 ], [ 77.3751904, 11.6041722 ], [ 77.3763013, 11.6014516 ], [ 77.3768568, 11.5983683 ], [ 77.375283, 11.5956477 ], [ 77.3737091, 11.5931991 ], [ 77.3728759, 11.5892994 ], [ 77.3736166, 11.5881205 ], [ 77.3758384, 11.5861253 ], [ 77.3750978, 11.5833138 ], [ 77.3722279, 11.5807744 ], [ 77.3707393, 11.576988 ], [ 77.370206, 11.5743179 ], [ 77.3708578, 11.57188 ], [ 77.372339, 11.5687456 ], [ 77.3729315, 11.5674685 ] ] } },
{ "type": "Feature", "properties": { "osm_id": 131609170, "name": "Bhavani River", "name_en": "Bhavani River", "waterway": "river" }, "geometry": { "type": "LineString", "coordinates": [ [ 77.3729315, 11.5674685 ], [ 77.3732547, 11.5615215 ], [ 77.3732858, 11.5598781 ], [ 77.3726179, 11.5585694 ], [ 77.3717672, 11.5580076 ], [ 77.3705348, 11.5556857 ], [ 77.37044, 11.5538281 ], [ 77.3695395, 11.5507631 ], [ 77.3683071, 11.5493235 ], [ 77.3665533, 11.5478838 ], [ 77.3659371, 11.5464906 ], [ 77.3657001, 11.5448652 ], [ 77.3654157, 11.5440757 ], [ 77.3642307, 11.5421252 ], [ 77.3632353, 11.5395245 ], [ 77.3633301, 11.5382241 ], [ 77.3635671, 11.5359484 ], [ 77.3640885, 11.5331619 ], [ 77.3640411, 11.5315364 ], [ 77.3647047, 11.5296787 ], [ 77.3658897, 11.5288891 ], [ 77.3657001, 11.5274958 ], [ 77.3653683, 11.5253594 ], [ 77.3658897, 11.5227585 ], [ 77.3659371, 11.5199254 ], [ 77.3655579, 11.5187178 ], [ 77.3655105, 11.5174638 ], [ 77.3656527, 11.5153273 ], [ 77.3651787, 11.5148629 ], [ 77.3646099, 11.5140733 ], [ 77.3647521, 11.512587 ], [ 77.3645151, 11.5112401 ], [ 77.3638989, 11.5094287 ], [ 77.3643729, 11.5080817 ], [ 77.3647047, 11.506549 ], [ 77.3640411, 11.5040873 ], [ 77.3631405, 11.5017184 ], [ 77.3634249, 11.4980026 ], [ 77.3636145, 11.4964233 ], [ 77.3627507, 11.4946354 ], [ 77.3618097, 11.49314 ], [ 77.3614112, 11.4919602 ], [ 77.3614282, 11.4909633 ], [ 77.361797, 11.4901408 ], [ 77.3622845, 11.4891335 ], [ 77.3621997, 11.4886869 ], [ 77.3616698, 11.4880327 ], [ 77.3608114, 11.4873888 ], [ 77.3602816, 11.4871811 ], [ 77.3599954, 11.4868488 ], [ 77.360165, 11.4864022 ], [ 77.3600696, 11.4858726 ] ] } },
{ "type": "Feature", "properties": { "osm_id": 204433053, "name": "Bhavani River", "name_en": "Bhavani River", "waterway": "river" }, "geometry": { "type": "LineString", "coordinates": [ [ 77.3326349, 11.6181683 ], [ 77.3325169, 11.6178845 ], [ 77.3323399, 11.617627 ], [ 77.3322004, 11.6175587 ], [ 77.3320717, 11.6174747 ], [ 77.3320556, 11.6173223 ], [ 77.3321038, 11.6170385 ], [ 77.3321199, 11.6167022 ], [ 77.3320341, 11.6163344 ], [ 77.3318732, 11.6161926 ], [ 77.331621, 11.616161 ], [ 77.3313528, 11.6161768 ], [ 77.331031, 11.6161715 ], [ 77.3307198, 11.6159771 ], [ 77.3302585, 11.6153886 ], [ 77.3296148, 11.6140855 ], [ 77.3294645, 11.6135443 ], [ 77.3294967, 11.6133078 ], [ 77.329545, 11.6131134 ], [ 77.3296952, 11.6126878 ], [ 77.3296201, 11.6124776 ], [ 77.3294216, 11.6122253 ], [ 77.3290461, 11.6118628 ], [ 77.328558, 11.6114424 ], [ 77.3282361, 11.6110168 ], [ 77.3280108, 11.6109222 ], [ 77.3277372, 11.6107961 ], [ 77.3274368, 11.6101813 ], [ 77.3272115, 11.6100499 ], [ 77.3269486, 11.6097714 ], [ 77.3269379, 11.6094299 ], [ 77.3269647, 11.6091041 ], [ 77.3267609, 11.6084945 ], [ 77.3259455, 11.6074383 ], [ 77.3246366, 11.60541 ], [ 77.3242342, 11.6047742 ], [ 77.3239338, 11.6043748 ], [ 77.32373, 11.6041962 ], [ 77.323274, 11.6041594 ], [ 77.322877, 11.6038966 ], [ 77.3217881, 11.6030086 ], [ 77.3212302, 11.6027091 ], [ 77.320624, 11.6025041 ], [ 77.3200983, 11.6023044 ], [ 77.3198998, 11.602131 ], [ 77.3198086, 11.6018946 ], [ 77.3196638, 11.6011799 ], [ 77.3193097, 11.6000922 ], [ 77.3189986, 11.5994984 ], [ 77.3186552, 11.5991042 ], [ 77.3182797, 11.5989203 ], [ 77.3178667, 11.5986418 ], [ 77.3175019, 11.5980638 ], [ 77.3167509, 11.5973491 ], [ 77.316429, 11.5968131 ], [ 77.3163432, 11.5964768 ], [ 77.3162842, 11.5959671 ], [ 77.3159248, 11.5953838 ], [ 77.3156029, 11.5949949 ], [ 77.3154527, 11.5949108 ], [ 77.3152059, 11.5949056 ], [ 77.3149431, 11.5948688 ], [ 77.314707, 11.5947111 ], [ 77.3146212, 11.5945482 ], [ 77.3146427, 11.5942802 ], [ 77.3147017, 11.5938493 ], [ 77.3146695, 11.593718 ], [ 77.3145515, 11.5936339 ], [ 77.3143262, 11.5936023 ], [ 77.3141277, 11.5934237 ], [ 77.3140687, 11.5932503 ], [ 77.3140418, 11.5931241 ], [ 77.3140633, 11.592956 ], [ 77.3141652, 11.5927248 ], [ 77.3143798, 11.5924515 ], [ 77.3145729, 11.5921204 ], [ 77.3147446, 11.5914951 ], [ 77.3147553, 11.5909328 ], [ 77.3146588, 11.5905177 ], [ 77.3145086, 11.5901288 ], [ 77.3145568, 11.5897977 ], [ 77.3146427, 11.5893826 ], [ 77.3145032, 11.5889674 ], [ 77.3143262, 11.5887309 ], [ 77.3140687, 11.5885102 ], [ 77.3136181, 11.5881634 ], [ 77.3131567, 11.5875433 ], [ 77.3130977, 11.5871544 ], [ 77.3131353, 11.5868023 ], [ 77.3132265, 11.5865553 ], [ 77.3132318, 11.5862138 ], [ 77.3130977, 11.5857776 ], [ 77.3128831, 11.5852573 ], [ 77.3124218, 11.584427 ], [ 77.3120785, 11.5837386 ], [ 77.3120785, 11.5833918 ], [ 77.3121858, 11.5831237 ], [ 77.312293, 11.5827611 ], [ 77.3123628, 11.5821726 ], [ 77.3122662, 11.5811898 ], [ 77.3122609, 11.5805277 ], [ 77.3122716, 11.5801756 ], [ 77.3122609, 11.5796711 ], [ 77.312175, 11.5791876 ], [ 77.3118746, 11.5783783 ], [ 77.3113865, 11.5773955 ], [ 77.3111719, 11.5767649 ], [ 77.31107, 11.5763235 ], [ 77.3110753, 11.5759976 ], [ 77.3111504, 11.5756928 ], [ 77.3114347, 11.5752987 ], [ 77.3118907, 11.5746102 ], [ 77.3122233, 11.5737484 ], [ 77.3125184, 11.5730757 ], [ 77.3127061, 11.5727919 ], [ 77.3128724, 11.5726605 ], [ 77.312969, 11.5725396 ], [ 77.3130226, 11.5723872 ], [ 77.3130441, 11.5722453 ], [ 77.3129958, 11.5716147 ], [ 77.3128509, 11.5709578 ], [ 77.3126686, 11.570201 ], [ 77.3125774, 11.5693549 ], [ 77.3125881, 11.5685928 ], [ 77.3126417, 11.5680725 ], [ 77.31269, 11.5677152 ], [ 77.31269, 11.567526 ], [ 77.3126686, 11.5673368 ], [ 77.3124701, 11.5669268 ], [ 77.3122716, 11.5664065 ], [ 77.3120356, 11.5659336 ], [ 77.3118478, 11.5656971 ], [ 77.3117244, 11.5654816 ], [ 77.3115742, 11.5650296 ], [ 77.3113918, 11.5643516 ], [ 77.3110592, 11.562097 ], [ 77.3107534, 11.5597098 ], [ 77.310608, 11.5593161 ], [ 77.3105442, 11.5591434 ], [ 77.3100346, 11.5578295 ], [ 77.3096967, 11.5572934 ], [ 77.3094445, 11.55712 ], [ 77.3089188, 11.5567678 ], [ 77.3082429, 11.5563526 ], [ 77.3078111, 11.5561082 ], [ 77.3069876, 11.5557692 ], [ 77.3065209, 11.5555459 ], [ 77.3063761, 11.5554329 ], [ 77.306242, 11.555199 ], [ 77.3057538, 11.5545394 ], [ 77.3055714, 11.5541452 ], [ 77.3055017, 11.5535408 ], [ 77.3053193, 11.5531677 ], [ 77.3049331, 11.5526053 ], [ 77.3045361, 11.5522427 ], [ 77.3042518, 11.5521481 ], [ 77.3039836, 11.5521901 ], [ 77.3035866, 11.5522795 ], [ 77.3033398, 11.5522847 ], [ 77.3030662, 11.5522584 ], [ 77.3026961, 11.5520797 ], [ 77.3023957, 11.5517118 ], [ 77.3019397, 11.5509392 ], [ 77.3017681, 11.5503558 ], [ 77.3017251, 11.549783 ], [ 77.3018378, 11.5491523 ], [ 77.3020363, 11.5485952 ], [ 77.3024118, 11.5477385 ], [ 77.3025835, 11.5472707 ], [ 77.3026639, 11.546887 ], [ 77.3027283, 11.5461459 ], [ 77.3026103, 11.5445219 ], [ 77.3024708, 11.5431028 ], [ 77.3024118, 11.5425509 ], [ 77.3024332, 11.5422355 ], [ 77.3026049, 11.5414629 ], [ 77.3027176, 11.54089 ], [ 77.3027122, 11.5405536 ], [ 77.3026478, 11.5402015 ], [ 77.3025513, 11.5400175 ], [ 77.3024654, 11.5398283 ], [ 77.3024601, 11.5396286 ], [ 77.3024869, 11.5391608 ], [ 77.3024654, 11.5386142 ], [ 77.3023313, 11.5381832 ], [ 77.3022401, 11.537994 ], [ 77.3019612, 11.5378258 ], [ 77.3009527, 11.5374894 ], [ 77.2996116, 11.5370374 ], [ 77.2981873, 11.5364618 ], [ 77.298021, 11.536362 ], [ 77.2979352, 11.5362963 ], [ 77.2978708, 11.5361517 ], [ 77.297852, 11.535973 ], [ 77.2979808, 11.5355 ], [ 77.2982919, 11.5348351 ], [ 77.2986191, 11.5342201 ], [ 77.2995901, 11.5327116 ], [ 77.299794, 11.53196 ], [ 77.2995365, 11.5314922 ], [ 77.2997993, 11.5301414 ], [ 77.2996008, 11.5294213 ], [ 77.298882, 11.5280652 ], [ 77.2985494, 11.5270612 ], [ 77.2981578, 11.5256421 ], [ 77.2980773, 11.525127 ], [ 77.2980612, 11.5248011 ], [ 77.2980881, 11.5238181 ], [ 77.2981364, 11.5231322 ], [ 77.2982141, 11.5224752 ], [ 77.2982812, 11.5219627 ], [ 77.2984019, 11.5213792 ], [ 77.2986165, 11.5208036 ], [ 77.2989169, 11.5201466 ], [ 77.2991288, 11.5198706 ], [ 77.2993621, 11.5195553 ], [ 77.2997671, 11.5191978 ], [ 77.3004323, 11.5187248 ], [ 77.300722, 11.5184619 ], [ 77.3008025, 11.518249 ], [ 77.3008507, 11.517981 ], [ 77.3008239, 11.5176157 ], [ 77.3007247, 11.5171636 ], [ 77.3005423, 11.516249 ], [ 77.3004779, 11.5157707 ], [ 77.3004752, 11.5155709 ], [ 77.3005664, 11.5151478 ], [ 77.30073, 11.5139335 ], [ 77.3008561, 11.5133106 ], [ 77.30084, 11.5128402 ], [ 77.3006737, 11.5117416 ], [ 77.3005182, 11.5111791 ], [ 77.3003814, 11.5108795 ], [ 77.3002285, 11.5106614 ], [ 77.299979, 11.510501 ], [ 77.2996733, 11.5104196 ], [ 77.2993782, 11.510346 ], [ 77.298941, 11.5103696 ], [ 77.2983804, 11.5104432 ], [ 77.2974846, 11.5106351 ], [ 77.2969267, 11.5106982 ], [ 77.2967094, 11.5106561 ], [ 77.2965217, 11.5105615 ], [ 77.2963017, 11.510346 ], [ 77.2962427, 11.5101988 ], [ 77.29624, 11.5098965 ], [ 77.2963366, 11.509547 ], [ 77.2966424, 11.5087375 ], [ 77.296696, 11.5083353 ], [ 77.2966638, 11.5081251 ], [ 77.296578, 11.5079279 ], [ 77.2963205, 11.5075652 ], [ 77.2958055, 11.5071447 ], [ 77.2955641, 11.5068924 ], [ 77.2955292, 11.5067768 ], [ 77.2955534, 11.5066112 ], [ 77.2955856, 11.506485 ], [ 77.2957116, 11.5060513 ], [ 77.2958645, 11.5055125 ], [ 77.2958645, 11.5053102 ], [ 77.2958028, 11.5050631 ], [ 77.2950304, 11.5028054 ], [ 77.2950062, 11.5023664 ], [ 77.295025, 11.5019354 ], [ 77.2951859, 11.5014649 ], [ 77.2953254, 11.5012809 ], [ 77.2956553, 11.5011548 ], [ 77.2961917, 11.5010601 ], [ 77.2965726, 11.5009103 ], [ 77.2968945, 11.5006028 ], [ 77.2970098, 11.5003925 ], [ 77.297034, 11.500085 ], [ 77.2969186, 11.4997854 ], [ 77.2965404, 11.4992466 ], [ 77.2959879, 11.4986788 ], [ 77.2955963, 11.4983713 ], [ 77.2953898, 11.498119 ], [ 77.2950947, 11.4974567 ], [ 77.295076, 11.4972727 ], [ 77.2951055, 11.497044 ], [ 77.2953013, 11.4966944 ], [ 77.2954702, 11.4965209 ], [ 77.2955909, 11.4963422 ], [ 77.2956473, 11.4962423 ], [ 77.2958323, 11.496011 ], [ 77.2962481, 11.4955379 ], [ 77.2965002, 11.4952146 ], [ 77.296645, 11.4949649 ], [ 77.296688, 11.4944287 ], [ 77.296747, 11.4939083 ], [ 77.2967684, 11.4933222 ], [ 77.2970313, 11.4923733 ], [ 77.2972673, 11.49164 ], [ 77.2974256, 11.4912404 ], [ 77.2976455, 11.4909329 ], [ 77.2979915, 11.4906622 ], [ 77.299118, 11.4899998 ], [ 77.2996196, 11.4897764 ], [ 77.3003197, 11.4896108 ], [ 77.3013899, 11.4895398 ], [ 77.3024493, 11.4893322 ], [ 77.302908, 11.4890667 ], [ 77.303592, 11.4884149 ], [ 77.3039085, 11.4879917 ], [ 77.3039997, 11.4877183 ], [ 77.3040372, 11.487324 ], [ 77.3040265, 11.4868825 ], [ 77.3040935, 11.4865828 ], [ 77.3043457, 11.486291 ], [ 77.3048043, 11.4860545 ], [ 77.3063225, 11.485513 ], [ 77.3073578, 11.4852291 ], [ 77.308597, 11.4850294 ] ] } },
{ "type": "Feature", "properties": { "osm_id": 820194028, "name": "Bhavani River", "name_en": "Bhavani River", "waterway": "river" }, "geometry": { "type": "LineString", "coordinates": [ [ 77.1378958, 11.6112007 ], [ 77.1381533, 11.6108171 ], [ 77.1387166, 11.610423 ], [ 77.1391779, 11.6097346 ], [ 77.1393549, 11.6090568 ], [ 77.1393067, 11.6079113 ], [ 77.1393442, 11.6071966 ], [ 77.1396768, 11.6068603 ], [ 77.1399987, 11.6065398 ], [ 77.1403259, 11.6062455 ], [ 77.1404815, 11.6059513 ], [ 77.1404976, 11.6056675 ], [ 77.1401113, 11.605079 ], [ 77.1400148, 11.6048373 ], [ 77.1398914, 11.6045325 ], [ 77.1399397, 11.6041541 ], [ 77.1401006, 11.6035761 ], [ 77.140004, 11.6028825 ], [ 77.1400684, 11.6025724 ], [ 77.1402025, 11.6022099 ], [ 77.1401113, 11.6018683 ], [ 77.1397895, 11.6012692 ], [ 77.13965, 11.6004442 ], [ 77.1396393, 11.5997664 ], [ 77.1399075, 11.5992566 ], [ 77.140224, 11.5987312 ], [ 77.1407175, 11.5980323 ], [ 77.1412969, 11.5971757 ], [ 77.1414041, 11.5966607 ], [ 77.1414578, 11.5962719 ], [ 77.1413881, 11.5958672 ], [ 77.1412003, 11.5956413 ], [ 77.140857, 11.5952839 ], [ 77.1405405, 11.5948635 ], [ 77.1405083, 11.5941278 ], [ 77.1407443, 11.5935078 ], [ 77.1410018, 11.5928614 ], [ 77.1412378, 11.5922623 ], [ 77.1414417, 11.5917263 ], [ 77.1415114, 11.5910905 ], [ 77.1415222, 11.5905912 ], [ 77.1413666, 11.5901656 ], [ 77.1414524, 11.5897504 ], [ 77.1416885, 11.5895612 ], [ 77.1418869, 11.5894982 ], [ 77.1419889, 11.5893878 ], [ 77.1420425, 11.5890778 ], [ 77.1422678, 11.5875591 ], [ 77.1422732, 11.5871176 ], [ 77.1424127, 11.5868234 ], [ 77.1425736, 11.5866184 ], [ 77.142874, 11.5864818 ], [ 77.1434426, 11.586198 ], [ 77.1441722, 11.5857513 ], [ 77.1449178, 11.5849105 ], [ 77.1454489, 11.5842378 ], [ 77.1458298, 11.5837701 ], [ 77.1467256, 11.5831185 ], [ 77.1468651, 11.582882 ], [ 77.1468437, 11.582593 ], [ 77.1467793, 11.5821988 ], [ 77.1467417, 11.5818888 ], [ 77.1466881, 11.5814421 ], [ 77.146731, 11.58109 ], [ 77.1470582, 11.5807747 ], [ 77.1475303, 11.5802176 ], [ 77.1478522, 11.5793032 ], [ 77.1480238, 11.5791403 ], [ 77.1482545, 11.5789458 ], [ 77.1483618, 11.5787251 ], [ 77.1483833, 11.5784466 ], [ 77.1482813, 11.5781365 ], [ 77.1483082, 11.5776215 ], [ 77.1484691, 11.5766651 ], [ 77.1486407, 11.5762814 ], [ 77.1489143, 11.5759293 ], [ 77.149204, 11.5755142 ], [ 77.1490323, 11.5748835 ], [ 77.1488982, 11.5745945 ], [ 77.1487749, 11.5743054 ], [ 77.1485978, 11.5738272 ], [ 77.1485764, 11.5734698 ], [ 77.1486407, 11.5731598 ], [ 77.1488124, 11.5730652 ], [ 77.1492255, 11.5730021 ], [ 77.1496546, 11.5728812 ], [ 77.150175, 11.5723557 ], [ 77.1504325, 11.5717723 ], [ 77.1507597, 11.5710103 ], [ 77.1510118, 11.5698016 ], [ 77.1511245, 11.5694495 ], [ 77.1512961, 11.5692865 ], [ 77.1515053, 11.5692025 ], [ 77.1517789, 11.5691289 ], [ 77.152133, 11.5690868 ], [ 77.1525299, 11.5690395 ], [ 77.1529967, 11.5689239 ], [ 77.1533668, 11.5687768 ], [ 77.1536028, 11.5685455 ], [ 77.1538281, 11.5680305 ], [ 77.153871, 11.5674471 ], [ 77.1537745, 11.5666168 ], [ 77.1537745, 11.5660702 ], [ 77.1539462, 11.5654816 ], [ 77.154268, 11.5647563 ], [ 77.1545899, 11.5644515 ], [ 77.1548474, 11.5641887 ], [ 77.1549868, 11.5638103 ], [ 77.1549332, 11.5630746 ], [ 77.1553194, 11.5627697 ], [ 77.1556198, 11.5623703 ], [ 77.1557379, 11.5620865 ], [ 77.1555877, 11.5616556 ], [ 77.1554696, 11.56113 ], [ 77.1555555, 11.5605939 ], [ 77.1557486, 11.5599948 ], [ 77.1557057, 11.5591539 ], [ 77.1560115, 11.5571068 ], [ 77.1559927, 11.5568782 ], [ 77.1560222, 11.5564709 ], [ 77.1561804, 11.5561161 ], [ 77.1562394, 11.5558402 ], [ 77.1562716, 11.5552227 ], [ 77.1562824, 11.5548101 ], [ 77.1563306, 11.5546156 ], [ 77.1564057, 11.5544763 ], [ 77.156513, 11.5544001 ], [ 77.1567062, 11.5543397 ], [ 77.1569261, 11.5543082 ], [ 77.1571594, 11.5542083 ], [ 77.1573928, 11.5539849 ], [ 77.1575859, 11.5537011 ], [ 77.1576557, 11.5535408 ], [ 77.1577951, 11.553278 ], [ 77.1579427, 11.5529811 ], [ 77.1578783, 11.5526053 ], [ 77.1577013, 11.5522978 ], [ 77.1576074, 11.5521665 ], [ 77.1573928, 11.5519378 ], [ 77.1572185, 11.5517355 ], [ 77.1570522, 11.5515121 ], [ 77.1570682, 11.5512546 ], [ 77.1574035, 11.551139 ], [ 77.1577495, 11.5510207 ], [ 77.1578944, 11.550884 ], [ 77.1578327, 11.5506843 ], [ 77.157779, 11.5506029 ], [ 77.1576744, 11.5504452 ], [ 77.1575886, 11.5503322 ], [ 77.1574733, 11.5501535 ], [ 77.157492, 11.5499801 ], [ 77.1575269, 11.5497593 ], [ 77.1577603, 11.5496227 ], [ 77.1579829, 11.5494755 ], [ 77.1581572, 11.5492731 ], [ 77.1582028, 11.5489394 ], [ 77.1581867, 11.5486477 ], [ 77.1580499, 11.5484296 ], [ 77.1578836, 11.5483034 ], [ 77.1576798, 11.5481274 ], [ 77.1577764, 11.5477647 ], [ 77.1578729, 11.5465454 ], [ 77.1581572, 11.5446112 ], [ 77.1582109, 11.5444798 ], [ 77.1585005, 11.5443327 ], [ 77.1588814, 11.5442591 ], [ 77.1592569, 11.544238 ], [ 77.1596324, 11.5442748 ], [ 77.160024, 11.5442328 ], [ 77.1601099, 11.5440226 ], [ 77.1603137, 11.543723 ], [ 77.1605498, 11.5436336 ], [ 77.1608555, 11.5435653 ], [ 77.1611077, 11.5435285 ], [ 77.1614724, 11.5434444 ], [ 77.161805, 11.5433708 ], [ 77.1623093, 11.5432184 ], [ 77.1628243, 11.5431606 ], [ 77.1633071, 11.5429398 ], [ 77.1638918, 11.5427769 ], [ 77.1642995, 11.5425824 ], [ 77.1644711, 11.5423091 ], [ 77.1646482, 11.5420358 ], [ 77.1652543, 11.5420726 ], [ 77.1656406, 11.5420831 ], [ 77.1659678, 11.5421357 ], [ 77.1662521, 11.5422461 ], [ 77.1666276, 11.542409 ], [ 77.1669441, 11.5424773 ], [ 77.1673304, 11.5423827 ], [ 77.1681029, 11.5419833 ], [ 77.1682316, 11.5416574 ], [ 77.1682316, 11.5414524 ], [ 77.168178, 11.541074 ], [ 77.1682155, 11.5408269 ], [ 77.1684033, 11.5406588 ], [ 77.16865, 11.5405747 ], [ 77.1689343, 11.5402856 ], [ 77.168988, 11.5398125 ], [ 77.1690416, 11.5394446 ], [ 77.1691328, 11.5391135 ], [ 77.1693581, 11.5389768 ], [ 77.1696263, 11.5389033 ], [ 77.1699107, 11.5388665 ], [ 77.1702272, 11.5388034 ], [ 77.1708494, 11.538919 ], [ 77.1714771, 11.5389926 ], [ 77.1717668, 11.538877 ], [ 77.171874, 11.5385932 ], [ 77.1719813, 11.5382883 ], [ 77.1721584, 11.5380518 ], [ 77.1724319, 11.5380255 ], [ 77.1727592, 11.5380623 ], [ 77.173081, 11.5381674 ], [ 77.1733761, 11.5381779 ], [ 77.1739662, 11.5380465 ], [ 77.1742773, 11.5379887 ], [ 77.1745509, 11.5378153 ], [ 77.1746904, 11.5375367 ], [ 77.1748835, 11.5372266 ], [ 77.175082, 11.5372266 ], [ 77.1754789, 11.5372529 ], [ 77.1758115, 11.5373422 ], [ 77.1760958, 11.5373265 ], [ 77.1762621, 11.5370742 ], [ 77.1765143, 11.5367378 ], [ 77.1767664, 11.5365433 ], [ 77.1771634, 11.5364014 ], [ 77.1776998, 11.5362858 ], [ 77.1779197, 11.5363331 ], [ 77.1779841, 11.536496 ], [ 77.1780646, 11.5368534 ], [ 77.1782792, 11.5369638 ], [ 77.1784884, 11.5368797 ], [ 77.1786815, 11.5367168 ], [ 77.178939, 11.5364277 ], [ 77.1789283, 11.5362174 ], [ 77.1787834, 11.5359231 ], [ 77.1787405, 11.5356445 ], [ 77.1789068, 11.5354816 ], [ 77.1791696, 11.5353239 ], [ 77.179395, 11.5350558 ], [ 77.1796364, 11.5346406 ], [ 77.1798402, 11.5343778 ], [ 77.1800709, 11.534341 ], [ 77.1802801, 11.5344672 ], [ 77.1805215, 11.5346932 ], [ 77.1807843, 11.5347773 ], [ 77.1809667, 11.5347773 ], [ 77.1811384, 11.5345828 ], [ 77.1812993, 11.5342727 ], [ 77.1817338, 11.5338522 ], [ 77.182045, 11.5336262 ], [ 77.1822005, 11.5332688 ], [ 77.1823347, 11.532801 ], [ 77.1825653, 11.5327064 ], [ 77.1827906, 11.53278 ], [ 77.1830642, 11.5330112 ], [ 77.1832412, 11.5332372 ], [ 77.183429, 11.5335158 ], [ 77.1836704, 11.5335 ], [ 77.1838474, 11.5331636 ], [ 77.1839386, 11.5328167 ], [ 77.1838152, 11.5320756 ], [ 77.1837133, 11.5318549 ], [ 77.1833646, 11.5314817 ], [ 77.1830803, 11.5312872 ], [ 77.1828443, 11.5310875 ], [ 77.1827048, 11.5309035 ], [ 77.1827799, 11.5305619 ], [ 77.1832681, 11.5301414 ], [ 77.1836328, 11.5294003 ], [ 77.1837133, 11.5290376 ], [ 77.1836865, 11.5287222 ], [ 77.1836382, 11.5282807 ], [ 77.1835792, 11.5279811 ], [ 77.1835631, 11.5276815 ], [ 77.1837348, 11.527529 ], [ 77.1839601, 11.5274975 ], [ 77.1843195, 11.527466 ], [ 77.1848023, 11.5273083 ], [ 77.1852422, 11.527035 ], [ 77.185784, 11.5267248 ], [ 77.1864599, 11.5263464 ], [ 77.1866262, 11.5259417 ], [ 77.1866369, 11.5255317 ], [ 77.1864974, 11.5251375 ], [ 77.1864599, 11.5249535 ], [ 77.1866316, 11.5242334 ], [ 77.1866423, 11.5237919 ], [ 77.186594, 11.5234397 ], [ 77.186535, 11.5230928 ], [ 77.1864921, 11.5227564 ], [ 77.1866369, 11.5224988 ], [ 77.1868676, 11.5222833 ], [ 77.1871895, 11.5221939 ], [ 77.1874309, 11.522257 ], [ 77.1876186, 11.5223621 ], [ 77.1878493, 11.5225198 ], [ 77.1880853, 11.5227196 ], [ 77.1883213, 11.52283 ], [ 77.1885467, 11.5228037 ], [ 77.1887559, 11.5226407 ], [ 77.1888739, 11.522483 ], [ 77.1891797, 11.5221571 ], [ 77.1895444, 11.5217261 ], [ 77.1905422, 11.5210481 ], [ 77.1909553, 11.5207379 ], [ 77.1911967, 11.5206223 ], [ 77.1916205, 11.5204909 ], [ 77.1920496, 11.5204383 ], [ 77.1924573, 11.5203542 ], [ 77.1927255, 11.5202491 ], [ 77.1930259, 11.5200178 ], [ 77.1932137, 11.5197077 ], [ 77.1932781, 11.519366 ], [ 77.1933424, 11.5190086 ], [ 77.1934873, 11.5186459 ], [ 77.1937233, 11.5185092 ], [ 77.1941578, 11.5182044 ], [ 77.1944153, 11.5179363 ], [ 77.194646, 11.5176157 ], [ 77.1952254, 11.5174737 ], [ 77.1959442, 11.5174475 ], [ 77.1961212, 11.5171163 ], [ 77.196266, 11.516701 ], [ 77.1963519, 11.5155604 ], [ 77.1965396, 11.5150032 ], [ 77.1971941, 11.5144933 ], [ 77.1977949, 11.5138731 ], [ 77.1984065, 11.5132213 ], [ 77.1989483, 11.5129164 ], [ 77.1993667, 11.5129479 ], [ 77.1998066, 11.513011 ], [ 77.2002572, 11.5129164 ], [ 77.2005844, 11.5125905 ], [ 77.2007239, 11.5121805 ], [ 77.2007292, 11.5116706 ], [ 77.2013462, 11.511145 ], [ 77.2020489, 11.5105878 ], [ 77.2025746, 11.5100411 ], [ 77.2026551, 11.5096994 ], [ 77.2025263, 11.5092053 ], [ 77.2024566, 11.5085587 ], [ 77.2024727, 11.5079385 ], [ 77.2027194, 11.5071552 ], [ 77.2027409, 11.5066296 ], [ 77.2026068, 11.5060776 ], [ 77.2024351, 11.5058306 ], [ 77.202124, 11.5055047 ], [ 77.201888, 11.5051682 ], [ 77.2017753, 11.5045374 ], [ 77.2019309, 11.5039539 ], [ 77.2021978, 11.503402 ], [ 77.202462, 11.5029552 ], [ 77.202934, 11.5022035 ], [ 77.203272, 11.5014518 ], [ 77.2038138, 11.500863 ], [ 77.2045541, 11.5000693 ], [ 77.2051549, 11.4994963 ], [ 77.2056913, 11.4991598 ], [ 77.206217, 11.4990021 ], [ 77.2065175, 11.4988655 ], [ 77.2066301, 11.498713 ], [ 77.2064906, 11.4984712 ], [ 77.2061473, 11.4982504 ], [ 77.2059005, 11.4979771 ], [ 77.2058952, 11.4974882 ], [ 77.2064799, 11.4966997 ], [ 77.2068125, 11.4964526 ], [ 77.2072202, 11.4962686 ], [ 77.2076601, 11.4959795 ], [ 77.2079068, 11.4957903 ], [ 77.2080881, 11.4955838 ] ] } }
]
}
