{
  "type": "FeatureCollection",
  "features": [
    {
      "type": "Feature",
      "geometry": {
        "type": "Polygon",
        "coordinates": [
          [
            [
              77.07435779404395,
              11.521465402448003
            ],
            [
              77.0756419697992,
              11.506197478732668
            ],
            [
              77.08685662733232,
              11.493801132474774
            ],
            [
              77.08852881261666,
              11.488245103573231
            ],
            [
              77.10344888699825,
              11.486724566291139
            ],
            [
              77.10416685901235,
              11.475001640343544
            ],
            [
              77.1050185507017,
              11.471683998077046
            ],
            [
              77.1083316616143,
              11.470832364545954
            ],
            [
              77.10748438352586,
              11.467519255351927
            ],
            [
              77.10416685901235,
              11.466667576568732
            ],
            [
              77.10416685901235,
              11.462498261826601
            ],
            [
              77.10767166322944,
              11.461602024540124
            ],
            [
              77.10890236368562,
              11.447787733426761
            ],
            [
              77.1130671772823,
              11.442414519182718
            ],
            [
              77.11193458989413,
              11.431124004556343
            ],
            [
              77.10776534687196,
              11.425746354169751
            ],
            [
              77.10890236368562,
              11.422790020545452
            ],
            [
              77.11193458989413,
              11.41887934974875
            ],
            [
              77.11250088492712,
              11.39999952062493
            ],
            [
              77.11474830352427,
              11.400530138999054
            ],
            [
              77.11858307590114,
              11.403638159688972
            ],
            [
              77.12308238313388,
              11.40469493157878
            ],
            [
              77.13525126106683,
              11.416136967011973
            ],
            [
              77.13974599084108,
              11.417198298563978
            ],
            [
              77.14775006172111,
              11.424471054597268
            ],
            [
              77.16474818483853,
              11.425527886105746
            ],
            [
              77.17290835582621,
              11.432943359387275
            ],
            [
              77.17816561129634,
              11.428684943339894
            ],
            [
              77.18256228867644,
              11.430053899263308
            ],
            [
              77.18333374810767,
              11.43333128056058
            ],
            [
              77.18368595733206,
              11.435757041554169
            ],
            [
              77.19131549667169,
              11.44340883188433
            ],
            [
              77.19202004216442,
              11.456589967489492
            ],
            [
              77.19548032630608,
              11.460076964530032
            ],
            [
              77.19583258720056,
              11.462498315430794
            ],
            [
              77.19526624943536,
              11.477208817657981
            ],
            [
              77.19223412489708,
              11.48112390762635
            ],
            [
              77.19095874763156,
              11.490777918509298
            ],
            [
              77.18749850703168,
              11.49166525112477
            ],
            [
              77.18749850703168,
              11.49583453633512
            ],
            [
              77.18414530187282,
              11.496869009735718
            ],
            [
              77.18267820095151,
              11.506291150273183
            ],
            [
              77.17889243525835,
              11.511704487408545
            ],
            [
              77.15906731809184,
              11.513256253235442
            ],
            [
              77.1576760870797,
              11.535453636101257
            ],
            [
              77.15482222226105,
              11.53954262968092
            ],
            [
              77.15351124880044,
              11.547956927038454
            ],
            [
              77.15065745975117,
              11.552045968957486
            ],
            [
              77.14934644047273,
              11.556291007154583
            ],
            [
              77.14232337274842,
              11.564544801099853
            ],
            [
              77.14090982659049,
              11.578113843605841
            ],
            [
              77.13537608525793,
              11.579821695669889
            ],
            [
              77.12295745831182,
              11.591009573917534
            ],
            [
              77.10938403411843,
              11.592427544822856
            ],
            [
              77.1083316616143,
              11.59583434773626
            ],
            [
              77.10591036199835,
              11.595482013448281
            ],
            [
              77.09825849843882,
              11.587852515188846
            ],
            [
              77.09340701363234,
              11.587147960887588
            ],
            [
              77.08992444865038,
              11.583687730947938
            ],
            [
              77.08333391487591,
              11.583335423092691
            ],
            [
              77.08397604436166,
              11.581199545466127
            ],
            [
              77.08814084522365,
              11.575322427434347
            ],
            [
              77.08685662733232,
              11.572865482622078
            ],
            [
              77.08397604436166,
              11.56880324830043
            ],
            [
              77.08269178195967,
              11.564531446974899
            ],
            [
              77.07852257680862,
              11.558654367315336
            ],
            [
              77.07981127481582,
              11.552032532511065
            ],
            [
              77.08689675934923,
              11.543756464920376
            ],
            [
              77.08397604436166,
              11.539636285907465
            ],
            [
              77.08269178195967,
              11.531199628692747
            ],
            [
              77.07435779404395,
              11.521465402448003
            ]
          ]
        ]
      },
      "id": "000c0000000000004572",
      "properties": {
        "COAST": 0,
        "DIST_MAIN": 399.7,
        "DIST_SINK": 399.7,
        "ENDO": 0,
        "HYBAS_ID": 4121595750,
        "MAIN_BAS": 4120028760,
        "NEXT_DOWN": 4121595720,
        "NEXT_SINK": 4120028760,
        "ORDER": 2,
        "PFAF_ID": 453804030300,
        "SORT": 90867,
        "SUB_AREA": 161.8,
        "UP_AREA": 4257.7
      }
    }
  ]
}