{
"type": "FeatureCollection",
"name": "bhavani_river",
"crs": { "type": "name", "properties": { "name": "urn:ogc:def:crs:OGC:1.3:CRS84" } },
"features": [
{ "type": "Feature", "properties": { "river_name": "Bhavani River Mainstem", "reach_type": "DOWNSTREAM_MAINSTEM", "source_osm_id": 70237216, "flow_direction": "WEST_TO_EAST_DOWNSTREAM", "length_km": 51.732, "start_distance_from_dam_m": 115.79, "verification_level": "SECONDARY_VERIFIED" }, "geometry": { "type": "LineString", "coordinates": [ [ 77.11411240000001, 11.4698068 ], [ 77.1151337, 11.4728553 ], [ 77.115477, 11.475212 ], [ 77.1143911, 11.4769007 ], [ 77.113635800000011, 11.4794916 ], [ 77.1137302, 11.48199 ], [ 77.1145913, 11.483452 ], [ 77.1158958, 11.4832893 ], [ 77.1178296, 11.4842368 ], [ 77.1199446, 11.4845329 ], [ 77.1216366, 11.4827563 ], [ 77.1239934, 11.4816311 ], [ 77.125625, 11.4812758 ], [ 77.12810260000002, 11.4826971 ], [ 77.1302177, 11.4851843 ], [ 77.130640700000015, 11.4865464 ], [ 77.132514, 11.48779 ], [ 77.1336708, 11.4881591 ], [ 77.1351943, 11.4875903 ], [ 77.1375951, 11.4860245 ], [ 77.1384966, 11.4860726 ], [ 77.1408458, 11.4868436 ], [ 77.1421828, 11.4864872 ], [ 77.1430743, 11.4863982 ], [ 77.1445115, 11.485111 ], [ 77.144781600000016, 11.4842383 ], [ 77.1457108, 11.4811224 ], [ 77.1467246, 11.4798893 ], [ 77.1480445, 11.4792623 ], [ 77.148959, 11.4795517 ], [ 77.1505597, 11.4808857 ], [ 77.152522, 11.481398 ], [ 77.1542323, 11.4810051 ], [ 77.1569881, 11.4780778 ], [ 77.158378, 11.4774264 ], [ 77.1601909, 11.4769526 ], [ 77.1617965, 11.4771265 ], [ 77.1638397, 11.4794334 ], [ 77.16742330000001, 11.4832499 ], [ 77.1685882, 11.4836855 ], [ 77.1707057, 11.4864279 ], [ 77.1734288, 11.4886105 ], [ 77.1751467, 11.4894715 ], [ 77.1795284, 11.4892113 ], [ 77.183341200000015, 11.4880728 ], [ 77.1852238, 11.4885653 ], [ 77.1858735, 11.4892113 ], [ 77.1873239, 11.4915799 ], [ 77.1893785, 11.4944816 ], [ 77.1922791, 11.4952514 ], [ 77.1952402, 11.4943632 ], [ 77.1992285, 11.4934749 ], [ 77.2027838, 11.4920684 ], [ 77.2046254, 11.4920735 ], [ 77.2057947, 11.4928622 ], [ 77.2066879, 11.4939744 ], [ 77.2080881, 11.4955838 ], [ 77.2110858, 11.4950357 ], [ 77.2131404, 11.4939106 ], [ 77.216041, 11.4921932 ], [ 77.2178539, 11.491305 ], [ 77.2194855, 11.4916603 ], [ 77.2226278, 11.4935552 ], [ 77.2257702, 11.49622 ], [ 77.2269788, 11.4969899 ], [ 77.2270392, 11.4979966 ], [ 77.2258911, 11.498944 ], [ 77.2254076, 11.5011351 ], [ 77.225468, 11.5037998 ], [ 77.2269773, 11.5061585 ], [ 77.2285695, 11.506691 ], [ 77.2298548, 11.5063766 ], [ 77.2324801, 11.504715 ], [ 77.2351368, 11.5027931 ], [ 77.2373123, 11.5009574 ], [ 77.2381139, 11.5007167 ], [ 77.2389072, 11.5009113 ], [ 77.2410546, 11.5012383 ], [ 77.2467699, 11.5037841 ], [ 77.247645, 11.5038873 ], [ 77.248623, 11.5038921 ], [ 77.2489775, 11.50363 ], [ 77.2494587, 11.5028523 ], [ 77.250969400000017, 11.5006613 ], [ 77.2539593, 11.4983622 ], [ 77.2541118, 11.4976413 ], [ 77.2546184, 11.4955637 ], [ 77.2545843, 11.4944927 ], [ 77.2546735, 11.4933269 ], [ 77.2555645, 11.4920313 ], [ 77.2583201, 11.4888467 ], [ 77.2591275, 11.4868635 ], [ 77.2605787, 11.4840504 ], [ 77.2598346, 11.4811587 ], [ 77.259397100000015, 11.4805836 ], [ 77.2589707, 11.4799931 ], [ 77.2582412, 11.4789102 ], [ 77.2569215, 11.4775118 ], [ 77.2562563, 11.4770281 ], [ 77.2556616, 11.4764482 ], [ 77.255133, 11.4750305 ], [ 77.2545815, 11.4732958 ], [ 77.2546577, 11.4726331 ], [ 77.2550547, 11.4705933 ], [ 77.2554088, 11.470015 ], [ 77.2559345, 11.4695103 ], [ 77.2561812, 11.4687742 ], [ 77.2562563, 11.4679751 ], [ 77.256127600000013, 11.4667449 ], [ 77.2563207, 11.4657776 ], [ 77.256664, 11.4649154 ], [ 77.2574365, 11.4642109 ], [ 77.2582304, 11.4636851 ], [ 77.2588634, 11.4634328 ], [ 77.2595715, 11.4625285 ], [ 77.2602689, 11.4612562 ], [ 77.2606122, 11.4604781 ], [ 77.2608805, 11.4595212 ], [ 77.261062800000019, 11.4585118 ], [ 77.2610414, 11.4576706 ], [ 77.261256, 11.457271 ], [ 77.2616851, 11.456882 ], [ 77.2624508, 11.4563153 ], [ 77.2635949, 11.4556938 ], [ 77.2645068, 11.4553257 ], [ 77.265161300000017, 11.4553783 ], [ 77.2659659, 11.4555465 ], [ 77.2681761, 11.4572395 ], [ 77.269388400000011, 11.4579966 ], [ 77.2703648, 11.4582489 ], [ 77.2707081, 11.4582069 ], [ 77.27166290000001, 11.4578178 ], [ 77.2722638, 11.4574077 ], [ 77.2742808, 11.4555886 ], [ 77.2753537, 11.4555255 ], [ 77.2776604, 11.4560092 ], [ 77.2786689, 11.45623 ], [ 77.279892, 11.4571659 ], [ 77.2815013, 11.4587536 ], [ 77.282080600000015, 11.4592163 ], [ 77.2825098, 11.4593425 ], [ 77.284183500000012, 11.4592058 ], [ 77.2863614, 11.4589008 ], [ 77.2877777, 11.4584066 ], [ 77.2888183, 11.4581227 ], [ 77.289054400000012, 11.457965 ], [ 77.2896123, 11.4565875 ], [ 77.2901916, 11.4553468 ], [ 77.291125, 11.4548631 ], [ 77.2917044, 11.4548526 ], [ 77.2922087, 11.4549787 ], [ 77.292927500000019, 11.4553257 ], [ 77.2934854, 11.4560197 ], [ 77.2940433, 11.4570397 ], [ 77.2939145, 11.4578704 ], [ 77.2936034, 11.4593214 ], [ 77.2937, 11.4613508 ], [ 77.2941506, 11.4625811 ], [ 77.2951108, 11.4643476 ], [ 77.2957438, 11.4661245 ], [ 77.2959208, 11.4670656 ], [ 77.295953, 11.4688636 ], [ 77.2959155, 11.4698152 ], [ 77.2959005, 11.470856 ], [ 77.2959101, 11.4723702 ], [ 77.2964696, 11.4731876 ], [ 77.2970226, 11.4753952 ], [ 77.2990939, 11.4762186 ], [ 77.3007459, 11.4751555 ], [ 77.3019529, 11.4744218 ], [ 77.3029268, 11.4729906 ], [ 77.3047829, 11.4724018 ], [ 77.3054159, 11.4725279 ], [ 77.30636, 11.4726857 ], [ 77.3075616, 11.4734427 ], [ 77.3094284, 11.4757874 ], [ 77.310555, 11.4772174 ], [ 77.3114777, 11.4792992 ], [ 77.3134625, 11.4799826 ], [ 77.3174858, 11.4798354 ], [ 77.3205633, 11.4790151 ], [ 77.3226866, 11.4785474 ], [ 77.3240143, 11.4780716 ], [ 77.3250577, 11.4776931 ], [ 77.3254305, 11.4774933 ], [ 77.3257819, 11.4772936 ], [ 77.3259535, 11.4771464 ], [ 77.3260474, 11.4771017 ], [ 77.3263961, 11.4770701 ], [ 77.3269325, 11.4769755 ], [ 77.3277962, 11.4768125 ], [ 77.3281503, 11.4767311 ], [ 77.3284265, 11.4765944 ], [ 77.3286331, 11.4764524 ], [ 77.328740400000015, 11.476229 ], [ 77.3288128, 11.4758741 ], [ 77.3288181, 11.4754115 ], [ 77.3288262, 11.4749752 ], [ 77.3288906, 11.4747018 ], [ 77.3291373, 11.4743942 ], [ 77.3293063, 11.4742076 ], [ 77.3294565, 11.4741156 ], [ 77.3295692, 11.4740473 ], [ 77.3296952, 11.4738817 ], [ 77.3299044, 11.4733849 ], [ 77.3299929, 11.4730326 ], [ 77.3300466, 11.4728486 ], [ 77.3300493, 11.4724333 ], [ 77.3300895, 11.47206 ], [ 77.3302022, 11.4712846 ], [ 77.3302504, 11.4709508 ], [ 77.3303309, 11.470793 ], [ 77.3304623, 11.4707115 ], [ 77.3305535, 11.4706695 ], [ 77.3305964, 11.4705827 ], [ 77.3307064, 11.4703856 ], [ 77.3309237, 11.4701911 ], [ 77.3311302, 11.4700465 ], [ 77.3312697, 11.4699335 ], [ 77.3314065, 11.4698704 ], [ 77.3315486, 11.4698599 ], [ 77.3317793, 11.469923 ], [ 77.3321092, 11.470057 ], [ 77.332989, 11.4704119 ], [ 77.3334932, 11.4706458 ], [ 77.3336434, 11.4707667 ], [ 77.3339707, 11.4711242 ], [ 77.3343435, 11.4718944 ], [ 77.3344964, 11.472244 ], [ 77.3345286, 11.4725674 ], [ 77.3345527, 11.4727224 ], [ 77.3346144, 11.4728986 ], [ 77.3346975, 11.4729958 ], [ 77.3347619, 11.4730957 ], [ 77.3347834, 11.4732429 ], [ 77.334719, 11.4734427 ], [ 77.3346037, 11.4741288 ], [ 77.334424, 11.4748621 ], [ 77.3343194, 11.4750908 ], [ 77.3342067, 11.4755272 ], [ 77.3341477, 11.4758032 ], [ 77.3341665, 11.4761922 ], [ 77.3342603, 11.4768993 ], [ 77.334373, 11.477312 ], [ 77.3344803, 11.4777299 ], [ 77.334609, 11.4780611 ], [ 77.3349443, 11.4785448 ], [ 77.3353681, 11.4789864 ], [ 77.3357409, 11.4792834 ], [ 77.3361433, 11.4794937 ], [ 77.3363525, 11.4795594 ], [ 77.3365188, 11.4797171 ], [ 77.3365912, 11.4799195 ], [ 77.3367065, 11.4801403 ], [ 77.3369989, 11.4804478 ], [ 77.3373046, 11.4806108 ], [ 77.3374709, 11.4806634 ], [ 77.3376319, 11.4806792 ], [ 77.3378009, 11.4806371 ], [ 77.338053, 11.4806029 ], [ 77.338517, 11.4806056 ], [ 77.3389918, 11.480666 ], [ 77.3394504, 11.4808264 ], [ 77.3401558, 11.4810314 ], [ 77.3405609, 11.4811102 ], [ 77.3411724, 11.4810971 ], [ 77.3417169, 11.4810577 ], [ 77.3421085, 11.4809762 ], [ 77.3422855, 11.4808763 ], [ 77.3424143, 11.48085 ], [ 77.342661, 11.4808579 ], [ 77.3429668, 11.4808605 ], [ 77.3433262, 11.4807633 ], [ 77.3441711, 11.480411 ], [ 77.3447907, 11.4802034 ], [ 77.3455229, 11.4798906 ], [ 77.34589840000001, 11.4796987 ], [ 77.3460942, 11.4795226 ], [ 77.346164, 11.4793255 ], [ 77.3462176, 11.4789837 ], [ 77.346274, 11.4787735 ], [ 77.3463276, 11.478642 ], [ 77.3464838, 11.4785198 ], [ 77.3470773, 11.4781252 ], [ 77.3478615, 11.4780836 ], [ 77.3489636, 11.478229 ], [ 77.3502247, 11.4790287 ], [ 77.3512526, 11.4794026 ], [ 77.3524395, 11.4798699 ], [ 77.3530012, 11.4806592 ], [ 77.3535523, 11.481677 ], [ 77.3550041, 11.4822585 ], [ 77.356297, 11.4833386 ], [ 77.3579713, 11.4842213 ], [ 77.3589887, 11.4853014 ], [ 77.3600696, 11.4858726 ], [ 77.360599500000021, 11.4859141 ], [ 77.3614049, 11.4859764 ], [ 77.3623904, 11.4853741 ], [ 77.3634926, 11.4850833 ], [ 77.3642342, 11.4848558 ], [ 77.3650142, 11.4843706 ], [ 77.3657738, 11.483706 ], [ 77.366547, 11.4829682 ], [ 77.3673676, 11.4820377 ], [ 77.3681204, 11.4814927 ], [ 77.3686766, 11.4807881 ], [ 77.3693006, 11.4802697 ], [ 77.3701077, 11.4793325 ], [ 77.3709351, 11.4789736 ], [ 77.3716065, 11.4785283 ], [ 77.3723729, 11.4784685 ], [ 77.3731326, 11.4783555 ], [ 77.3742449, 11.4784153 ], [ 77.3753029, 11.4788872 ], [ 77.375859, 11.4790667 ], [ 77.3768628, 11.4796383 ], [ 77.3775817, 11.4799307 ], [ 77.378883900000019, 11.4806751 ], [ 77.3798267, 11.4808945 ], [ 77.3808508, 11.4806685 ], [ 77.3815697, 11.4796117 ], [ 77.382092, 11.4787676 ], [ 77.3822819, 11.4777506 ], [ 77.3828109, 11.4772189 ], [ 77.3844725, 11.4765808 ], [ 77.3855306, 11.4760823 ], [ 77.3861546, 11.4759161 ], [ 77.3866497, 11.4759427 ], [ 77.3872533, 11.4763415 ], [ 77.3877213, 11.4766672 ], [ 77.3882774, 11.4765409 ], [ 77.3888268, 11.4763216 ], [ 77.3893558, 11.4764146 ], [ 77.389722, 11.4768001 ], [ 77.3906037, 11.477857 ], [ 77.391282, 11.4786213 ], [ 77.392448500000015, 11.479851 ], [ 77.3931607, 11.480715 ], [ 77.393398, 11.4813597 ], [ 77.393866, 11.4819446 ], [ 77.3946731, 11.4822637 ], [ 77.3956226, 11.4821573 ], [ 77.3966332, 11.4819047 ], [ 77.3976709, 11.4815724 ], [ 77.3984373, 11.4814328 ], [ 77.3993122, 11.4815325 ], [ 77.4000718, 11.4817652 ], [ 77.4011502, 11.4824963 ], [ 77.4019641, 11.4828552 ], [ 77.4027169, 11.4833603 ], [ 77.4031917, 11.4838256 ], [ 77.4038835, 11.4845833 ], [ 77.404731200000015, 11.4851084 ], [ 77.4050297, 11.4856002 ], [ 77.4051111, 11.4863446 ], [ 77.4054909, 11.4871023 ], [ 77.4059385, 11.488066 ], [ 77.4059792, 11.4893554 ], [ 77.4058435, 11.4903856 ], [ 77.4054502, 11.4915421 ], [ 77.4044871, 11.4935094 ], [ 77.4039174, 11.4948054 ], [ 77.4035918, 11.4959021 ], [ 77.4038292, 11.4970452 ], [ 77.4043582, 11.4976832 ], [ 77.4049076, 11.4979956 ], [ 77.4066506, 11.4980488 ], [ 77.4079935, 11.4977098 ], [ 77.408882, 11.497537 ], [ 77.4096009, 11.49765 ], [ 77.4105708, 11.4977696 ], [ 77.4116899, 11.4977364 ], [ 77.4126462, 11.4973443 ], [ 77.4136906, 11.4970718 ], [ 77.414694400000016, 11.497105 ], [ 77.4158135, 11.4977298 ], [ 77.4167291, 11.4987134 ], [ 77.4168444, 11.4995575 ], [ 77.417292, 11.5003085 ], [ 77.418011, 11.5007538 ], [ 77.4194488, 11.501332 ], [ 77.42023450693317, 11.501455905382961 ] ] } }
]
}
