{
"type": "FeatureCollection",
"name": "critical_facilities",
"crs": { "type": "name", "properties": { "name": "urn:ogc:def:crs:OGC:1.3:CRS84" } },
"features": [
{ "type": "Feature", "properties": { "osm_id": 4878919825, "name": "Arulmighu Masan Badrakaliamman Thirukovil", "category": "community_assembly", "facility_type": "place_of_worship", "hazard_class": "H6", "hazard_code": 6, "x_utm": 743695.8, "y_utm": 1272874.1, "longitude": 77.234123851349338, "latitude": 11.50597277829576 }, "geometry": { "type": "Point", "coordinates": [ 77.234123851349338, 11.50597277829576 ] } },
{ "type": "Feature", "properties": { "osm_id": 6914280112, "name": "Holy Cross Hospital, Erode", "category": "healthcare", "facility_type": "hospital", "hazard_class": "H5", "hazard_code": 5, "x_utm": 733154.7, "y_utm": 1271311.6, "longitude": 77.137427895259918, "latitude": 11.492577178510134 }, "geometry": { "type": "Point", "coordinates": [ 77.137427895259918, 11.492577178510134 ] } },
{ "type": "Feature", "properties": { "osm_id": 6914880511, "name": "Vijaya Hospital", "category": "healthcare", "facility_type": "hospital", "hazard_class": "H6", "hazard_code": 6, "x_utm": 745221.4, "y_utm": 1272797.3, "longitude": 77.248097061572224, "latitude": 11.505171139558527 }, "geometry": { "type": "Point", "coordinates": [ 77.248097061572224, 11.505171139558527 ] } },
{ "type": "Feature", "properties": { "osm_id": 6927339310, "name": "Amudha Poly Clinic & Hospital", "category": "healthcare", "facility_type": "hospital", "hazard_class": "H6", "hazard_code": 6, "x_utm": 745062.3, "y_utm": 1272815.6, "longitude": 77.246640587205633, "latitude": 11.505347765253843 }, "geometry": { "type": "Point", "coordinates": [ 77.246640587205633, 11.505347765253843 ] } },
{ "type": "Feature", "properties": { "osm_id": 6933800596, "name": "Emmanuvel Hospital", "category": "healthcare", "facility_type": "hospital", "hazard_class": "H6", "hazard_code": 6, "x_utm": 745105.9, "y_utm": 1272925.9, "longitude": 77.247047991784456, "latitude": 11.506341430101244 }, "geometry": { "type": "Point", "coordinates": [ 77.247047991784456, 11.506341430101244 ] } },
{ "type": "Feature", "properties": { "osm_id": 6934188961, "name": "Shyamala Hospital", "category": "healthcare", "facility_type": "hospital", "hazard_class": "H6", "hazard_code": 6, "x_utm": 744174.9, "y_utm": 1272640.8, "longitude": 77.238497082736586, "latitude": 11.503830778173525 }, "geometry": { "type": "Point", "coordinates": [ 77.238497082736586, 11.503830778173525 ] } },
{ "type": "Feature", "properties": { "osm_id": 6934347088, "name": "Anush Hospital", "category": "healthcare", "facility_type": "hospital", "hazard_class": "H6", "hazard_code": 6, "x_utm": 744882.4, "y_utm": 1272272.5, "longitude": 77.24495331101717, "latitude": 11.500452641115039 }, "geometry": { "type": "Point", "coordinates": [ 77.24495331101717, 11.500452641115039 ] } },
{ "type": "Feature", "properties": { "osm_id": 6934773648, "name": "KGR Surgical Nursing Home", "category": "healthcare", "facility_type": "clinic", "hazard_class": "H6", "hazard_code": 6, "x_utm": 744923.8, "y_utm": 1272782.7, "longitude": 77.24536919294988, "latitude": 11.505060248463092 }, "geometry": { "type": "Point", "coordinates": [ 77.24536919294988, 11.505060248463092 ] } },
{ "type": "Feature", "properties": { "osm_id": 6935170181, "name": "Pee Vee Hospital", "category": "healthcare", "facility_type": "hospital", "hazard_class": "H5", "hazard_code": 5, "x_utm": 744751.8, "y_utm": 1271788.3, "longitude": 77.243722028890957, "latitude": 11.496086279713738 }, "geometry": { "type": "Point", "coordinates": [ 77.243722028890957, 11.496086279713738 ] } },
{ "type": "Feature", "properties": { "osm_id": 6936696217, "name": "Udhayam Hospital", "category": "healthcare", "facility_type": "hospital", "hazard_class": "H6", "hazard_code": 6, "x_utm": 745076.7, "y_utm": 1272934.3, "longitude": 77.246781041966202, "latitude": 11.506419403670815 }, "geometry": { "type": "Point", "coordinates": [ 77.246781041966202, 11.506419403670815 ] } },
{ "type": "Feature", "properties": { "osm_id": 7843519086, "name": "Assisi Hospital", "category": "healthcare", "facility_type": "hospital", "hazard_class": "H5", "hazard_code": 5, "x_utm": 751460.6, "y_utm": 1268251.1, "longitude": 77.304929997776725, "latitude": 11.463643012178839 }, "geometry": { "type": "Point", "coordinates": [ 77.304929997776725, 11.463643012178839 ] } },
{ "type": "Feature", "properties": { "osm_id": 13895096201, "name": "Ondimuniappan temple", "category": "community_assembly", "facility_type": "place_of_worship", "hazard_class": "H4", "hazard_code": 4, "x_utm": 762809.4, "y_utm": 1272586.9, "longitude": 77.409224941845608, "latitude": 11.50198103250924 }, "geometry": { "type": "Point", "coordinates": [ 77.409224941845608, 11.50198103250924 ] } },
{ "type": "Feature", "properties": { "osm_id": 1236850097, "name": "Saratha International School", "category": "education", "facility_type": "school", "hazard_class": "H6", "hazard_code": 6, "x_utm": 751290.7, "y_utm": 1267198.9, "longitude": 77.30329651910435, "latitude": 11.454147214885827 }, "geometry": { "type": "Point", "coordinates": [ 77.30329651910435, 11.454147214885827 ] } }
]
}
