{
  "type": "FeatureCollection",
  "name": "dam_point",
  "crs": {
    "type": "name",
    "properties": {
      "name": "urn:ogc:def:crs:OGC:1.3:CRS84"
    }
  },
  "features": [
    {
      "type": "Feature",
      "properties": {
        "name": "Bhavanisagar Dam",
        "dam_name": "Bhavanisagar Dam",
        "river": "Bhavani River",
        "state": "Tamil Nadu",
        "district": "Erode",
        "scenario": "BHV_BASE",
        "classification": "HYPOTHETICAL BREACH SCREENING",
        "lat": 11.47083,
        "lon": 77.11389,
        "dam_type": "Earthen Dam with Masonry Spillway (Composite)",
        "crest_elevation_m": 282.0,
        "fsl_elevation_m": 280.416,
        "gross_storage_mcm": 928.0,
        "live_storage_mcm": 928.0,
        "source": "Tamil Nadu Water Resources Department / National Register of Large Dams",
        "real_gis": true
      },
      "geometry": {
        "type": "Point",
        "coordinates": [
          77.11389,
          11.47083
        ]
      }
    }
  ]
}