{
"type": "FeatureCollection",
"name": "inundation_extent",
"crs": { "type": "name", "properties": { "name": "urn:ogc:def:crs:OGC:1.3:CRS84" } },
"features": [
{ "type": "Feature", "properties": { "scenario_id": "BHV_BASE", "inundated_area_km2": 101.29, "max_depth_m": 22.0230712890625, "median_depth_m": 4.9076037406921387, "max_velocity_ms": 11.788994789123535, "classification": "2D_DFLOWFM_SCREENING_INUNDATION_MODEL" }, "geometry": { "type": "Polygon", "coordinates": [ [ [ 77.112024209975189, 11.470966302326593 ], [ 77.11203093010792, 11.47187005620602 ], [ 77.112037650805746, 11.47277381002575 ], [ 77.112044372068667, 11.473677563785765 ], [ 77.112051093896682, 11.474581317486075 ], [ 77.112057816289834, 11.475485071126668 ], [ 77.112064539248095, 11.47638882470754 ], [ 77.112071262771479, 11.47729257822869 ], [ 77.112077986860015, 11.478196331690111 ], [ 77.112084711513702, 11.479100085091797 ], [ 77.112091436732555, 11.480003838433749 ], [ 77.11209816251656, 11.480907591715958 ], [ 77.112104888865744, 11.481811344938418 ], [ 77.112111615780123, 11.482715098101128 ], [ 77.112118343259681, 11.483618851204081 ], [ 77.112125071304447, 11.484522604247278 ], [ 77.112131799914437, 11.485426357230708 ], [ 77.112138529089634, 11.48633011015437 ], [ 77.112145258830054, 11.487233863018256 ], [ 77.112151989135725, 11.488137615822366 ], [ 77.112158720006619, 11.489041368566694 ], [ 77.112165451442777, 11.489945121251234 ], [ 77.112172183444201, 11.490848873875979 ], [ 77.11217891601089, 11.491752626440933 ], [ 77.112185649142859, 11.492656378946084 ], [ 77.112192382840135, 11.493560131391432 ], [ 77.112199117102705, 11.494463883776969 ], [ 77.113115435537495, 11.494457240150837 ], [ 77.114031753406749, 11.494450593648253 ], [ 77.11402501331186, 11.493546842335125 ], [ 77.114018273782747, 11.492643090962178 ], [ 77.114934585254133, 11.492636442656247 ], [ 77.114927843375142, 11.49173269176004 ], [ 77.115844151364854, 11.49172604111491 ], [ 77.116760458788306, 11.491719387594051 ], [ 77.11675371164452, 11.490815637711814 ], [ 77.116746965067222, 11.489911887769761 ], [ 77.117663266093615, 11.489905232447651 ], [ 77.117670015586057, 11.490808981852464 ], [ 77.118586318960894, 11.490802323117634 ], [ 77.119502621768717, 11.490795661507324 ], [ 77.119509377658673, 11.49169940977715 ], [ 77.120425682814641, 11.491692744753436 ], [ 77.12043244218745, 11.492596492425493 ], [ 77.121348749691549, 11.492589823987919 ], [ 77.12135551254768, 11.493493571061967 ], [ 77.121362275971578, 11.494397318076174 ], [ 77.122278588739874, 11.494390645685867 ], [ 77.123194900940149, 11.494383970419189 ], [ 77.123188131684088, 11.493480224482036 ], [ 77.123181362996277, 11.492576478485029 ], [ 77.124097668796438, 11.49256980141973 ], [ 77.12410444040006, 11.493473546877865 ], [ 77.12502074854757, 11.493466866397577 ], [ 77.125937056126332, 11.49346018304117 ], [ 77.125930278691072, 11.492556438661472 ], [ 77.126846582785078, 11.492549752968529 ], [ 77.127762886309881, 11.492543064399721 ], [ 77.128679189265227, 11.492536372955055 ], [ 77.129595491650889, 11.492529678634542 ], [ 77.13051179346661, 11.492522981438185 ], [ 77.131428094712163, 11.492516281366003 ], [ 77.132344395387264, 11.492509578417993 ], [ 77.132351193232921, 11.493413319015856 ], [ 77.133267496253097, 11.493406612650839 ], [ 77.133274297585416, 11.494310352647622 ], [ 77.133281099488656, 11.495214092584513 ], [ 77.134197407770088, 11.495207382260606 ], [ 77.135113715480344, 11.495200669060203 ], [ 77.136030022619153, 11.495193952983318 ], [ 77.13602321196727, 11.494290214671409 ], [ 77.136939515618224, 11.494283496260172 ], [ 77.137855818697247, 11.494276774972695 ], [ 77.13784900278516, 11.493373037685366 ], [ 77.13784218744523, 11.492469300338129 ], [ 77.138758484120487, 11.4924625772596 ], [ 77.139674780223359, 11.49245585130531 ], [ 77.139681601394656, 11.493359587567145 ], [ 77.139688423138594, 11.49426332376907 ], [ 77.140604724500406, 11.494256593852937 ], [ 77.141521025289336, 11.494249861060599 ], [ 77.14152785343822, 11.495153596116269 ], [ 77.141534682160255, 11.496057331112018 ], [ 77.141541511455429, 11.496961066047842 ], [ 77.142457820420361, 11.496954328748744 ], [ 77.143374128811885, 11.496947588572766 ], [ 77.144290436629774, 11.496940845519918 ], [ 77.144283598584735, 11.496037112215365 ], [ 77.144276761113574, 11.495133378850879 ], [ 77.144269924216317, 11.49422964542646 ], [ 77.145186222711231, 11.494222901129397 ], [ 77.145179383471969, 11.493319168189259 ], [ 77.145172544806812, 11.492415435189189 ], [ 77.146088836896141, 11.492408689104849 ], [ 77.146095678476897, 11.49331242156048 ], [ 77.146102520632013, 11.494216153956176 ], [ 77.146109363361489, 11.495119886291933 ], [ 77.147025663624021, 11.495113135697881 ], [ 77.147032509844209, 11.49601686742902 ], [ 77.14611620666534, 11.496023618567753 ], [ 77.146123050543565, 11.496927350783627 ], [ 77.146129894996193, 11.49783108293955 ], [ 77.146136740023195, 11.498734815035521 ], [ 77.14705305195254, 11.498728062262721 ], [ 77.14796936330724, 11.498721306612618 ], [ 77.148885674087026, 11.498714548085221 ], [ 77.149801984291685, 11.498707786680534 ], [ 77.149795127596434, 11.497804056764725 ], [ 77.149788271476581, 11.496900326788948 ], [ 77.149781415932068, 11.495996596753209 ], [ 77.150697716810967, 11.495989834108093 ], [ 77.150690858925529, 11.495086104558004 ], [ 77.150684001615659, 11.494182374947959 ], [ 77.149767706569122, 11.494189136501854 ], [ 77.149760852750674, 11.493285406286251 ], [ 77.150677144881399, 11.493278645277957 ], [ 77.151593436436542, 11.493271881393792 ], [ 77.151600296086613, 11.494175610517953 ], [ 77.152516589981744, 11.494168843211849 ], [ 77.153432883300795, 11.494162073029651 ], [ 77.153426017819143, 11.493258344997855 ], [ 77.154342307646104, 11.493251572486104 ], [ 77.154335439825218, 11.492347844940875 ], [ 77.15432857258088, 11.491444117335694 ], [ 77.154321705913091, 11.490540389670555 ], [ 77.15523798641766, 11.490533615923239 ], [ 77.156154266345439, 11.490526839300776 ], [ 77.156147394424593, 11.489623112669424 ], [ 77.156140523080765, 11.48871938597812 ], [ 77.157056796602248, 11.488712607574957 ], [ 77.157049922921132, 11.487808881370917 ], [ 77.157043049817247, 11.486905155106932 ], [ 77.157959316933187, 11.486898374923987 ], [ 77.158875583471641, 11.486891591866858 ], [ 77.158882462403554, 11.487795317035737 ], [ 77.158889341913209, 11.488699042144667 ], [ 77.157973069546472, 11.488705826297137 ], [ 77.157979946719351, 11.489609551893782 ], [ 77.157063670860609, 11.489616333719047 ], [ 77.157070545696214, 11.490520059803186 ], [ 77.157077421109079, 11.491423785827365 ], [ 77.157993702797597, 11.491417002907207 ], [ 77.1589099839086, 11.491410217111698 ], [ 77.158916865729253, 11.492313941980777 ], [ 77.158923748127648, 11.493217666789882 ], [ 77.159840034491609, 11.493210877023204 ], [ 77.160756320277542, 11.493204084380729 ], [ 77.161672605485208, 11.493197288862477 ], [ 77.162588890114364, 11.493190490468447 ], [ 77.163505174164754, 11.49318368919865 ], [ 77.164421457636152, 11.493176885053099 ], [ 77.164414557745005, 11.492273163534996 ], [ 77.165330837721726, 11.492266357063009 ], [ 77.165323935494627, 11.491362636034225 ], [ 77.166240211976699, 11.491355827236269 ], [ 77.167156487879041, 11.491349015563046 ], [ 77.16716339593647, 11.492252735492512 ], [ 77.16807967417401, 11.492245920394026 ], [ 77.168086585726826, 11.493149639713483 ], [ 77.168093497859857, 11.494053358972927 ], [ 77.168100410573118, 11.494957078172353 ], [ 77.168107323866622, 11.49586079731176 ], [ 77.168114237740383, 11.496764516391144 ], [ 77.169030529977121, 11.496757695665934 ], [ 77.169037447347748, 11.497661414135022 ], [ 77.16995374192058, 11.497654589982689 ], [ 77.170870035912642, 11.497647762953498 ], [ 77.171786329323695, 11.497640933047457 ], [ 77.172702622153508, 11.497634100264575 ], [ 77.172695693116509, 11.496730383998836 ], [ 77.17361198244825, 11.496723548890541 ], [ 77.173605051076422, 11.495819833116167 ], [ 77.174521336910118, 11.495812995682927 ], [ 77.174514403203929, 11.494909280400149 ], [ 77.174507470079689, 11.49400556505733 ], [ 77.174500537537412, 11.493101849654471 ], [ 77.175416814041697, 11.493095011000493 ], [ 77.175409879166011, 11.492191296089464 ], [ 77.176326152172791, 11.492184455111941 ], [ 77.177242424597168, 11.492177611259015 ], [ 77.177235484473513, 11.491273897392368 ], [ 77.178151753400172, 11.491267051216601 ], [ 77.17906802174393, 11.491260202165678 ], [ 77.179074967697659, 11.492163914926973 ], [ 77.179081914234573, 11.493067627628225 ], [ 77.17816564006047, 11.493074477784733 ], [ 77.178172584265013, 11.493978190978723 ], [ 77.178179529052457, 11.494881904112665 ], [ 77.177263248464115, 11.494888752498683 ], [ 77.177270190918478, 11.495792466125138 ], [ 77.177277133955513, 11.496696179691533 ], [ 77.17636084695215, 11.496703026306143 ], [ 77.17636778765538, 11.497606740364816 ], [ 77.176374728941084, 11.498510454363428 ], [ 77.177291021777748, 11.498503606644125 ], [ 77.177297966562961, 11.499407320030313 ], [ 77.178214261733928, 11.499400468881406 ], [ 77.178221210019117, 11.500304181654929 ], [ 77.178228158887308, 11.501207894368367 ], [ 77.178235108338484, 11.502111607021716 ], [ 77.179151411678944, 11.50210475133709 ], [ 77.179158364631121, 11.503008463377512 ], [ 77.180074670306311, 11.503001604261891 ], [ 77.180990975398004, 11.502994742268116 ], [ 77.180984016609898, 11.502091031334048 ], [ 77.180977058405517, 11.501187320339877 ], [ 77.181893357077797, 11.501180456575009 ], [ 77.182809655166082, 11.50117358993246 ], [ 77.182802691710506, 11.500269879985462 ], [ 77.183718986297137, 11.500263011019234 ], [ 77.183725952670159, 11.501166720412247 ], [ 77.184642249589757, 11.50115984801438 ], [ 77.18555854592465, 11.501152972738863 ], [ 77.185551573716779, 11.50024926445451 ], [ 77.185544602093827, 11.49934555611005 ], [ 77.185537631055823, 11.498441847705481 ], [ 77.186453918054241, 11.498434971216355 ], [ 77.186446944684477, 11.497531263306351 ], [ 77.187363228181027, 11.497524384495193 ], [ 77.188279511092176, 11.497517502807341 ], [ 77.188286490295283, 11.49842120960731 ], [ 77.189202775537439, 11.498414324487408 ], [ 77.19011906019368, 11.498407436490599 ], [ 77.190112075157245, 11.497503730801592 ], [ 77.19102835631071, 11.497496840483711 ], [ 77.191021368944021, 11.49659313529042 ], [ 77.191937646594695, 11.496586242651942 ], [ 77.19285392365876, 11.496579347137043 ], [ 77.19377020013593, 11.496572448745734 ], [ 77.194686476026007, 11.496565547478022 ], [ 77.194693475058202, 11.497469250445688 ], [ 77.193777196251773, 11.497476152270151 ], [ 77.193784192954723, 11.498379855734443 ], [ 77.192867910644537, 11.498386755238801 ], [ 77.19287490501776, 11.499290459199489 ], [ 77.192881899977863, 11.500194163100041 ], [ 77.192888895524888, 11.501097866940452 ], [ 77.192895891658821, 11.502001570720722 ], [ 77.191979597092811, 11.502008469573417 ], [ 77.191986590895809, 11.502912173849847 ], [ 77.191070292825273, 11.502919070380811 ], [ 77.190153994168298, 11.502925964033722 ], [ 77.190160982721764, 11.50382966936194 ], [ 77.190167971861442, 11.504733374630007 ], [ 77.191084276354886, 11.504726479865388 ], [ 77.191091268999386, 11.505630184517445 ], [ 77.191098262230355, 11.506533889109345 ], [ 77.192014571974781, 11.506526990354031 ], [ 77.192021568711297, 11.507430694329669 ], [ 77.192937880788079, 11.507423792139056 ], [ 77.193854192277868, 11.507416887069249 ], [ 77.193847189703206, 11.506513184206501 ], [ 77.194763497686736, 11.506506276814298 ], [ 77.19567980508279, 11.506499366543153 ], [ 77.196596111891154, 11.50649245339307 ], [ 77.19658910114731, 11.505588752141211 ], [ 77.196582090991399, 11.50468505082917 ], [ 77.197498391374495, 11.50467813591513 ], [ 77.198414691169418, 11.504671218122633 ], [ 77.198407675764855, 11.503767517865604 ], [ 77.198400660948693, 11.502863817548398 ], [ 77.19839364672093, 11.501960117171018 ], [ 77.199309937173354, 11.501953198173892 ], [ 77.199302920616446, 11.501049498294273 ], [ 77.199295904648167, 11.500145798354488 ], [ 77.200212188677128, 11.500138877595949 ], [ 77.201128472117219, 11.500131953960137 ], [ 77.201135493920077, 11.50103565278337 ], [ 77.200219207562697, 11.501042576977571 ], [ 77.200226227037135, 11.501946276299027 ], [ 77.200233247100456, 11.502849975560302 ], [ 77.201149539293127, 11.502843050249304 ], [ 77.201156562863346, 11.503746748892 ], [ 77.20116358702272, 11.504650447474503 ], [ 77.200247288993765, 11.504657373902313 ], [ 77.20025431082378, 11.505561072983033 ], [ 77.200261333242707, 11.506464772003564 ], [ 77.200268356250561, 11.507368470963893 ], [ 77.201184663035733, 11.507361542860849 ], [ 77.201191689551763, 11.508265241202555 ], [ 77.201198716656961, 11.50916893948405 ], [ 77.20120574435137, 11.510072637705331 ], [ 77.201212772634989, 11.51097633586639 ], [ 77.201219801507818, 11.51188003396723 ], [ 77.202136122302392, 11.511873100191774 ], [ 77.203052442507513, 11.511866163536048 ], [ 77.203045407794278, 11.510962466552774 ], [ 77.203038373670765, 11.510058769509271 ], [ 77.203954687446029, 11.510051831091543 ], [ 77.20394765099249, 11.509148134546937 ], [ 77.2039406151289, 11.508244437942102 ], [ 77.203933579855217, 11.507340741277046 ], [ 77.204849884282226, 11.507333801657589 ], [ 77.204842846679497, 11.50643010549166 ], [ 77.205759147597391, 11.5064231635527 ], [ 77.205752107666115, 11.505519467886128 ], [ 77.205745068325243, 11.504615772159347 ], [ 77.206661362815595, 11.504608828461151 ], [ 77.207577656715344, 11.504601881884593 ], [ 77.207584701893111, 11.505505576491537 ], [ 77.207591747661752, 11.506409271038265 ], [ 77.206675447924894, 11.5064162187349 ], [ 77.206682491365484, 11.507319913781442 ], [ 77.206689535396734, 11.508223608767755 ], [ 77.207605840971695, 11.508216659951039 ], [ 77.208522145955754, 11.508209708255032 ], [ 77.209438450348685, 11.50820275367975 ], [ 77.210354754150188, 11.508195796225198 ], [ 77.21034769844232, 11.507292103480452 ], [ 77.210340643326063, 11.506388410675466 ], [ 77.211256940697922, 11.506381451463596 ], [ 77.211249883254638, 11.505477759159337 ], [ 77.211242826403193, 11.504574066794849 ], [ 77.211235770143617, 11.503670374370124 ], [ 77.211228714475865, 11.502766681885177 ], [ 77.212144999582776, 11.502759722039288 ], [ 77.21306128409762, 11.50275275931555 ], [ 77.213977568020169, 11.502745793713967 ], [ 77.213984632441608, 11.503649484514659 ], [ 77.213068345601187, 11.503656450677891 ], [ 77.213075407697062, 11.504560141980001 ], [ 77.21308247038526, 11.505463833221871 ], [ 77.213998763062193, 11.505456865935326 ], [ 77.214915055146534, 11.505449895770251 ], [ 77.214922124264319, 11.506353585828325 ], [ 77.215838418674423, 11.506346612222607 ], [ 77.216754712491436, 11.50633963573814 ], [ 77.217671005715133, 11.506332656374942 ], [ 77.217678084182268, 11.507236344685682 ], [ 77.21768516324299, 11.508140032936151 ], [ 77.218601461710989, 11.508133049568572 ], [ 77.218608544284606, 11.509036737195938 ], [ 77.21952484507807, 11.509029750386114 ], [ 77.220441145277434, 11.509022760696883 ], [ 77.220448234283978, 11.509926447137602 ], [ 77.220455323884863, 11.510830133518029 ], [ 77.220462414080089, 11.511733819838158 ], [ 77.220469504869698, 11.512637506097986 ], [ 77.221385816154296, 11.512630511275214 ], [ 77.222302126844284, 11.51262351357213 ], [ 77.223218436939419, 11.512616512988735 ], [ 77.224134746439432, 11.512609509525047 ], [ 77.224127643968856, 11.51170582552078 ], [ 77.225043949953289, 11.511698819741268 ], [ 77.225960255342159, 11.511691811081715 ], [ 77.225967363653169, 11.512595493956812 ], [ 77.22597447256004, 11.513499176771578 ], [ 77.225981582062744, 11.514402859526021 ], [ 77.225988692161309, 11.515306542220126 ], [ 77.226905008636621, 11.515299528420774 ], [ 77.226912122252244, 11.516203210489589 ], [ 77.227828441052608, 11.516196193244099 ], [ 77.227835558185774, 11.517099874687382 ], [ 77.227842675915326, 11.518003556070315 ], [ 77.227849794241237, 11.518907237392883 ], [ 77.227856913163563, 11.519810918655088 ], [ 77.228773243054675, 11.519803896266733 ], [ 77.22878036549578, 11.520707576903138 ], [ 77.229696697712612, 11.520700551067023 ], [ 77.230613029332559, 11.520693522348582 ], [ 77.231529360355353, 11.520686490747828 ], [ 77.23244569078075, 11.520679456264766 ], [ 77.23243855665018, 11.519775777892397 ], [ 77.232431423117248, 11.518872099459644 ], [ 77.23242429018191, 11.517968420966508 ], [ 77.233340611243378, 11.517961385300907 ], [ 77.233333475984054, 11.517057707313969 ], [ 77.234249793526061, 11.517050669333587 ], [ 77.234242655943234, 11.516146991853082 ], [ 77.235158969965809, 11.516139951558387 ], [ 77.235151830059962, 11.515236274584545 ], [ 77.236068140563134, 11.51522923197601 ], [ 77.23698445046773, 11.5152221864866 ], [ 77.237900759773538, 11.515215138116336 ], [ 77.237907908442637, 11.51611881338768 ], [ 77.237915057710794, 11.517022488598633 ], [ 77.238831372259924, 11.517015436211583 ], [ 77.238838525048706, 11.517919110794175 ], [ 77.23975484192006, 11.517912054957613 ], [ 77.240671158191844, 11.517904996239521 ], [ 77.240663999559985, 11.517001322793567 ], [ 77.241580312310433, 11.516994261762623 ], [ 77.241573151357088, 11.51609058882493 ], [ 77.241565991003796, 11.515186915826838 ], [ 77.240649684095658, 11.515193975720457 ], [ 77.239733376587736, 11.515201032733255 ], [ 77.239726222676069, 11.514297358537679 ], [ 77.240642527263176, 11.514290302093306 ], [ 77.241558831250515, 11.514283242768341 ], [ 77.241551672097259, 11.513379569649453 ], [ 77.242467972564057, 11.51337250801279 ], [ 77.243384272430589, 11.513365443495781 ], [ 77.244300571696613, 11.513358376098441 ], [ 77.245216870361901, 11.513351305820771 ], [ 77.246133168426198, 11.513344232662787 ], [ 77.247049465889262, 11.513337156624495 ], [ 77.247056642565596, 11.514240826326592 ], [ 77.247063819843433, 11.515144495968274 ], [ 77.247980122546224, 11.515137415909127 ], [ 77.24889642464727, 11.515130332969221 ], [ 77.249812726146331, 11.515123247148573 ], [ 77.250729027043178, 11.515116158447185 ], [ 77.250721838082498, 11.514212491088021 ], [ 77.250714649724287, 11.513308823668424 ], [ 77.251630944177506, 11.513301733228726 ], [ 77.252547238028029, 11.513294639908773 ], [ 77.2534635312756, 11.513287543708575 ], [ 77.25437982391999, 11.51328044462814 ], [ 77.254372624483494, 11.512376779434319 ], [ 77.255288913604275, 11.512369678045788 ], [ 77.256205202121379, 11.512362573777267 ], [ 77.256197997448496, 11.5114589096675 ], [ 77.256190793379503, 11.51055524549729 ], [ 77.257107075453149, 11.510548139493972 ], [ 77.258023356922649, 11.510541030611149 ], [ 77.258939637787762, 11.510533918848827 ], [ 77.259855918048245, 11.51052680420702 ], [ 77.260772197703844, 11.510519686685734 ], [ 77.26168847675433, 11.510512566284982 ], [ 77.261681255772913, 11.509608905493323 ], [ 77.261674035396851, 11.508705244641213 ], [ 77.261666815626157, 11.507801583728664 ], [ 77.261659596460774, 11.506897922755673 ], [ 77.260743329086282, 11.506905040861477 ], [ 77.259827061106705, 11.506912156088736 ], [ 77.258910792522286, 11.506919268437448 ], [ 77.257994523333281, 11.506926377907599 ], [ 77.25798731644683, 11.506022714580649 ], [ 77.257071049571877, 11.506029820599428 ], [ 77.257063846207956, 11.505126156639264 ], [ 77.257056643448109, 11.504222492618691 ], [ 77.25614038180521, 11.504229594614001 ], [ 77.25613318256714, 11.503325929960463 ], [ 77.25612598393289, 11.50242226524653 ], [ 77.257042239740642, 11.502415164396336 ], [ 77.257035038793006, 11.501511500194562 ], [ 77.257027838449417, 11.500607835932399 ], [ 77.25794408781897, 11.500600733350351 ], [ 77.257936885162721, 11.499697069600582 ], [ 77.257929683110731, 11.498793405790424 ], [ 77.257013439574365, 11.498800507226925 ], [ 77.257006241042859, 11.497896842783618 ], [ 77.256999043115371, 11.49699317827994 ], [ 77.256991845791902, 11.496089513715894 ], [ 77.25790808058035, 11.496082413997696 ], [ 77.257900880945371, 11.495178749946046 ], [ 77.258817112214118, 11.495171647925055 ], [ 77.258824314764553, 11.496075311403713 ], [ 77.259740548344283, 11.496068205933955 ], [ 77.26065678131927, 11.496061097588433 ], [ 77.261573013689301, 11.49605398636715 ], [ 77.261565802392482, 11.495150324608858 ], [ 77.261558591700862, 11.494246662790188 ], [ 77.261551381614439, 11.493343000911148 ], [ 77.261544172133213, 11.492439338971742 ], [ 77.262460392237728, 11.492432227170369 ], [ 77.26245318044721, 11.491528565744503 ], [ 77.262445969262117, 11.490624904258278 ], [ 77.263362182932553, 11.490617790730363 ], [ 77.263369397031852, 11.491521451642456 ], [ 77.263376611736831, 11.492425112494182 ], [ 77.264292830630239, 11.492417994943194 ], [ 77.265209048917754, 11.492410874517409 ], [ 77.265216270057749, 11.493314534159792 ], [ 77.26613249065376, 11.493307410284386 ], [ 77.26613971531485, 11.494211069291547 ], [ 77.266146940582345, 11.495114728238317 ], [ 77.266154166456289, 11.496018387124694 ], [ 77.267070395191325, 11.496011258649061 ], [ 77.2679866233197, 11.496004127297727 ], [ 77.267979391615, 11.49510046956174 ], [ 77.267972160517218, 11.494196811765351 ], [ 77.268888382208146, 11.494189678689414 ], [ 77.269804603291931, 11.494182542738271 ], [ 77.270720823768301, 11.494175403911917 ], [ 77.2707135845328, 11.493271747782439 ], [ 77.270706345904941, 11.492368091592555 ], [ 77.270699107884681, 11.491464435342277 ], [ 77.270691870472049, 11.490560779031606 ], [ 77.269775661653668, 11.490567915553976 ], [ 77.269768427762529, 11.489664258606931 ], [ 77.269761194478761, 11.488760601599504 ], [ 77.268844990880567, 11.488767734096095 ], [ 77.268837761117538, 11.487864076452547 ], [ 77.267921559825666, 11.487871205499806 ], [ 77.267914333582894, 11.486967547220376 ], [ 77.266998134597358, 11.486974672818755 ], [ 77.266081935005232, 11.486981795543763 ], [ 77.266074715195188, 11.486078136053655 ], [ 77.266990911874373, 11.486071013903693 ], [ 77.26698368975795, 11.485167354928276 ], [ 77.266976468248117, 11.484263695892514 ], [ 77.266060277394104, 11.484270816892398 ], [ 77.26514408593377, 11.484277935019598 ], [ 77.265136870854917, 11.483374274773654 ], [ 77.264220681700749, 11.483381389453585 ], [ 77.263304491940744, 11.483388501261043 ], [ 77.263297283291948, 11.482484839805872 ], [ 77.263290075248747, 11.48158117829038 ], [ 77.263282867811085, 11.480677516714575 ], [ 77.263275660978962, 11.479773855078459 ], [ 77.263268454752392, 11.47887019338204 ], [ 77.263261249131347, 11.477966531625315 ], [ 77.263254044115811, 11.477062869808298 ], [ 77.264170213496982, 11.477055762021104 ], [ 77.264163006176673, 11.476152100718105 ], [ 77.265079172041794, 11.476144990634602 ], [ 77.265995337300936, 11.476137877680493 ], [ 77.266911501953842, 11.476130761855782 ], [ 77.266904286509217, 11.475227102216795 ], [ 77.266897071671082, 11.474323442517518 ], [ 77.267813229897726, 11.47431632497268 ], [ 77.268729387517681, 11.47430920455772 ], [ 77.26964554453069, 11.474302081272651 ], [ 77.269652768098098, 11.475205739245546 ], [ 77.269659992272679, 11.476109397158133 ], [ 77.270576154498201, 11.476102269851109 ], [ 77.27056892741362, 11.475198612514449 ], [ 77.271485086121714, 11.475191482913031 ], [ 77.271492316116266, 11.47609513967353 ], [ 77.272408477126618, 11.476088006625403 ], [ 77.273324637529029, 11.476080870706738 ], [ 77.274240797323259, 11.476073731917547 ], [ 77.275156956509036, 11.476066590257833 ], [ 77.276073115086135, 11.476059445727611 ], [ 77.276065870541899, 11.475155791851398 ], [ 77.27605862660657, 11.474252137914855 ], [ 77.276974778755175, 11.474244991669231 ], [ 77.277890930294632, 11.474237842553578 ], [ 77.27788368114939, 11.473334189712032 ], [ 77.277876432613525, 11.472430536810156 ], [ 77.278792577725014, 11.472423385980498 ], [ 77.278785326889619, 11.471519733596299 ], [ 77.278778076663841, 11.470616081151775 ], [ 77.279694215348144, 11.470608928609035 ], [ 77.279701468482585, 11.471512580475329 ], [ 77.279708722226886, 11.472416232281297 ], [ 77.280624866118899, 11.472409075712557 ], [ 77.28063212338219, 11.473312726879717 ], [ 77.281548269573236, 11.473305566862743 ], [ 77.282464415153896, 11.473298403976017 ], [ 77.283380560123945, 11.47329123821955 ], [ 77.283387826725473, 11.474194887589563 ], [ 77.284303973994014, 11.474187718383957 ], [ 77.284311244115983, 11.475091367114205 ], [ 77.283395093937855, 11.475098536899214 ], [ 77.283402361761105, 11.476002186148508 ], [ 77.282486208062238, 11.476009353642494 ], [ 77.282493473586285, 11.476913003410603 ], [ 77.282500739720973, 11.477816653118342 ], [ 77.283416899240265, 11.477809484465991 ], [ 77.284333058148633, 11.47780231294275 ], [ 77.284340330715125, 11.478705961431515 ], [ 77.285256491922922, 11.478698786457738 ], [ 77.285263768011376, 11.479602434306468 ], [ 77.284347603892769, 11.479609609859899 ], [ 77.284354877681594, 11.480513258227896 ], [ 77.28343871004077, 11.480520431489404 ], [ 77.283445981529454, 11.48142408037644 ], [ 77.283453253629062, 11.482327729203085 ], [ 77.284369427092727, 11.482320554782712 ], [ 77.284376702715093, 11.483224202969518 ], [ 77.28438397894864, 11.48412785109592 ], [ 77.285300157624917, 11.484120672644163 ], [ 77.286216335689758, 11.484113491319906 ], [ 77.287132513142893, 11.484106307123161 ], [ 77.28804868998408, 11.484099120053932 ], [ 77.288041402102465, 11.483195474247609 ], [ 77.288034114833039, 11.482291828380864 ], [ 77.2889502852383, 11.482284639600358 ], [ 77.289866455031145, 11.482277447947858 ], [ 77.289859162550897, 11.481373803182118 ], [ 77.289851870683307, 11.480470158355958 ], [ 77.290768034040781, 11.480462964993576 ], [ 77.291684196785368, 11.480455768759677 ], [ 77.29167689970842, 11.479552125035436 ], [ 77.292593058928929, 11.479544926511542 ], [ 77.292600358916815, 11.480448569654268 ], [ 77.293516520434906, 11.48044136767736 ], [ 77.294432681339387, 11.480434162828963 ], [ 77.29443998776307, 11.481337804747534 ], [ 77.295356150964864, 11.481330596445444 ], [ 77.296272313552549, 11.481323385271649 ], [ 77.296279626412968, 11.482227025965125 ], [ 77.295363460913862, 11.482234237721366 ], [ 77.294447294800634, 11.482241446605675 ], [ 77.294454602452078, 11.483145088403372 ], [ 77.294461910717402, 11.484048730140627 ], [ 77.295378082654238, 11.484041520091878 ], [ 77.295385394445631, 11.484945161186456 ], [ 77.296301568680491, 11.484937947682848 ], [ 77.29721774230093, 11.484930731306617 ], [ 77.297210424685218, 11.48402709137719 ], [ 77.298126594778893, 11.484019872711269 ], [ 77.298119274865925, 11.483116233304298 ], [ 77.299035441432807, 11.483109012349155 ], [ 77.2999516073846, 11.48310178852188 ], [ 77.299958933121331, 11.484005426762318 ], [ 77.300875101369627, 11.483998199479307 ], [ 77.301791269002308, 11.483990969323951 ], [ 77.302707436019148, 11.483983736296262 ], [ 77.302700101546833, 11.483080099807363 ], [ 77.303616265035728, 11.483072864491657 ], [ 77.303623602419862, 11.483976500396244 ], [ 77.303630940420348, 11.484880136240346 ], [ 77.302714771107532, 11.484887372724677 ], [ 77.302722106812041, 11.485791009092607 ], [ 77.302729443132677, 11.486694645400046 ], [ 77.302736780069452, 11.487598281646996 ], [ 77.301820601402781, 11.487605517011037 ], [ 77.300904422120226, 11.487612749501814 ], [ 77.300911753846975, 11.488516386856221 ], [ 77.29999557103568, 11.488523617057357 ], [ 77.300002900464762, 11.489427254934906 ], [ 77.299086714124698, 11.489434482845935 ], [ 77.299094041255614, 11.490338121246392 ], [ 77.298177851386782, 11.490345346866844 ], [ 77.298170527169475, 11.489441707883209 ], [ 77.297254339599306, 11.489448930046718 ], [ 77.296338151414446, 11.489456149336455 ], [ 77.296345469804535, 11.490359789485749 ], [ 77.296352788809088, 11.491263429574552 ], [ 77.297268982821421, 11.491256209119387 ], [ 77.297276305354544, 11.492159848564979 ], [ 77.298192501666264, 11.492152624652627 ], [ 77.299108697363025, 11.492145397865814 ], [ 77.300024892444569, 11.492138168204551 ], [ 77.300941086910669, 11.492130935668849 ], [ 77.300933752721235, 11.491227298556449 ], [ 77.301849943657572, 11.491220063730195 ], [ 77.30185728076107, 11.492123700258711 ], [ 77.302773473995529, 11.492116461974154 ], [ 77.303689666613792, 11.492109220815179 ], [ 77.303682323682224, 11.491205585455115 ], [ 77.304598512770028, 11.491198342006312 ], [ 77.305514701241179, 11.491191095683345 ], [ 77.306430889095409, 11.491183846486223 ], [ 77.306423538038914, 11.490280212820048 ], [ 77.307339722362229, 11.490272961334046 ], [ 77.308255906068169, 11.490265706974141 ], [ 77.308263262952167, 11.491169339469549 ], [ 77.308270620453825, 11.492072971904426 ], [ 77.308277978573116, 11.492976604278752 ], [ 77.309194170403359, 11.492969345287749 ], [ 77.3092015320548, 11.493872977015789 ], [ 77.310117726181588, 11.493865714564228 ], [ 77.311033919690232, 11.493858449237868 ], [ 77.311026552209881, 11.492954818682005 ], [ 77.311019185347945, 11.492051188065588 ], [ 77.31101181910438, 11.491147557388611 ], [ 77.311928003252021, 11.491140290946754 ], [ 77.311920634713118, 11.490236660795658 ], [ 77.312836815328424, 11.490229392066365 ], [ 77.312829444494696, 11.489325762441377 ], [ 77.313745621577709, 11.489318491425124 ], [ 77.31375299532489, 11.490222120463228 ], [ 77.314669174702246, 11.490214845986245 ], [ 77.31558535346025, 11.490207568635434 ], [ 77.316501531598675, 11.490200288410799 ], [ 77.316494149111207, 11.489296661134746 ], [ 77.317410323716402, 11.489289378624113 ], [ 77.318326497701506, 11.489282093239909 ], [ 77.319242671066277, 11.489274804982141 ], [ 77.320158843810518, 11.489267513850818 ], [ 77.321075015933943, 11.489260219845951 ], [ 77.321082412988346, 11.490163844180616 ], [ 77.320166237951554, 11.490171138774224 ], [ 77.320173632713406, 11.491074763637044 ], [ 77.320181028096073, 11.491978388439284 ], [ 77.321097208960339, 11.491971092668178 ], [ 77.321104607877942, 11.492874716821072 ], [ 77.321112007416644, 11.493778340913369 ], [ 77.322028193488265, 11.49377104109006 ], [ 77.32294437893853, 11.493763738392071 ], [ 77.322936973571174, 11.492860115477983 ], [ 77.322929568825387, 11.49195649250329 ], [ 77.322922164701183, 11.491052869467994 ], [ 77.32383834078766, 11.491045565663672 ], [ 77.324754516252327, 11.491038258985379 ], [ 77.325670691094942, 11.491030949433119 ], [ 77.326586865315278, 11.49102363700691 ], [ 77.32657945015832, 11.490120016270177 ], [ 77.326572035623911, 11.489216395472839 ], [ 77.325655867230438, 11.489223706718777 ], [ 77.325648456231605, 11.488320085270706 ], [ 77.325641045855036, 11.487416463762047 ], [ 77.326557208422614, 11.487409153696364 ], [ 77.326564621712009, 11.488312774614901 ], [ 77.327480786569893, 11.48830546108584 ], [ 77.328396950805029, 11.488298144683542 ], [ 77.328389531690021, 11.487394524945955 ], [ 77.329305692389369, 11.487387206261252 ], [ 77.330221852465485, 11.487379884703559 ], [ 77.33022927740609, 11.488283503259266 ], [ 77.331145439771504, 11.48827617823731 ], [ 77.332061601513189, 11.48826885034215 ], [ 77.332977762630904, 11.488261519573793 ], [ 77.333893923124407, 11.488254185932258 ], [ 77.334810082993442, 11.488246849417544 ], [ 77.335726242237769, 11.488239510029667 ], [ 77.336642400857144, 11.488232167768635 ], [ 77.337558558851313, 11.488224822634454 ], [ 77.338474716220063, 11.488217474627136 ], [ 77.339390872963108, 11.48821012374669 ], [ 77.339383418895196, 11.487306511114275 ], [ 77.340299572099639, 11.487299157954315 ], [ 77.340307029080236, 11.488202769993126 ], [ 77.341223184571191, 11.488195413366453 ], [ 77.342139339435718, 11.488188053866677 ], [ 77.343055493673575, 11.488180691493811 ], [ 77.343048027955007, 11.487277081237204 ], [ 77.343964178653323, 11.487269716585788 ], [ 77.343971647284548, 11.488173326247862 ], [ 77.343979116542911, 11.489076935849278 ], [ 77.343986586428443, 11.48998054539002 ], [ 77.343994056941142, 11.490884154870086 ], [ 77.344001528081023, 11.491787764289475 ], [ 77.3440089998481, 11.49269137364818 ], [ 77.344016472242373, 11.493594982946195 ], [ 77.344932642707093, 11.493587611258516 ], [ 77.344940118642924, 11.49449121990105 ], [ 77.344947595206207, 11.495394828482883 ], [ 77.344955072396985, 11.496298437004009 ], [ 77.345871250977979, 11.496291060656796 ], [ 77.346787428931265, 11.496283681434443 ], [ 77.347703606256573, 11.49627629933696 ], [ 77.347711092819992, 11.497179906011585 ], [ 77.348627272432111, 11.497172520443248 ], [ 77.349543451415769, 11.497165131999566 ], [ 77.349535959022276, 11.49626152651663 ], [ 77.3495284672575, 11.495357920972967 ], [ 77.350444639782637, 11.495350530846332 ], [ 77.351360811678845, 11.495343137844833 ], [ 77.352276982945867, 11.49533574196848 ], [ 77.352284483454937, 11.496239345722882 ], [ 77.353200657007278, 11.496231946374801 ], [ 77.354116829929922, 11.496224544151653 ], [ 77.354109323591359, 11.495320941591251 ], [ 77.354101817882736, 11.494417338970106 ], [ 77.355017984346247, 11.49440993506659 ], [ 77.355934150179593, 11.494402528288493 ], [ 77.355926639272411, 11.493498926801522 ], [ 77.356842801561157, 11.493491517746651 ], [ 77.357758963219268, 11.49348410581745 ], [ 77.357751447114524, 11.492580505465572 ], [ 77.358667605227808, 11.492573091260308 ], [ 77.35958376270996, 11.492565674180964 ], [ 77.35959128464259, 11.49346927333608 ], [ 77.360507444407332, 11.493461852783932 ], [ 77.360514969885514, 11.494365451279567 ], [ 77.361431131932818, 11.494358027254158 ], [ 77.36143866095702, 11.495261625090061 ], [ 77.362354825286857, 11.495254197590933 ], [ 77.362362357857592, 11.496157794766859 ], [ 77.363278524469933, 11.496150363793559 ], [ 77.364194690449921, 11.496142929945291 ], [ 77.364187152049922, 11.495239333968465 ], [ 77.36417961428252, 11.494335737930859 ], [ 77.364172077147728, 11.493432141832471 ], [ 77.363255919910912, 11.49343957388175 ], [ 77.363248386322596, 11.492535977122936 ], [ 77.363240853366619, 11.491632380303354 ], [ 77.364157004775905, 11.491624949453387 ], [ 77.364149469538859, 11.490721353172695 ], [ 77.365065617402166, 11.49071392004881 ], [ 77.365981764632664, 11.490706484051369 ], [ 77.366897911230126, 11.490699045180385 ], [ 77.367814057194295, 11.490691603435865 ], [ 77.367806510937243, 11.489788009495312 ], [ 77.368722653354752, 11.489780565478068 ], [ 77.369638795138499, 11.489773118587546 ], [ 77.369646347221746, 11.490676711326257 ], [ 77.370562491284559, 11.490669260961187 ], [ 77.371478634713114, 11.490661807722622 ], [ 77.372394777507125, 11.490654351610566 ], [ 77.372387216684615, 11.489750760676353 ], [ 77.373303355930815, 11.489743302292778 ], [ 77.374219494542018, 11.489735841035973 ], [ 77.375135632517981, 11.489728376905934 ], [ 77.376051769858449, 11.489720909902676 ], [ 77.376967906563209, 11.489713440026211 ], [ 77.377884042631976, 11.489705967276548 ], [ 77.377876464967443, 11.488802379896779 ], [ 77.378792597487234, 11.488794904877269 ], [ 77.379708729370591, 11.488787426984812 ], [ 77.379701146517235, 11.487883840751167 ], [ 77.379693564300581, 11.486980254456713 ], [ 77.378777438242011, 11.486987731142014 ], [ 77.378769859574049, 11.486084144183184 ], [ 77.379685982720602, 11.486076668101454 ], [ 77.379678401777312, 11.485173081685394 ], [ 77.380594521375414, 11.485165603335219 ], [ 77.381510640336629, 11.48515812211304 ], [ 77.38151822710347, 11.486061707321268 ], [ 77.382434348339274, 11.486054222622835 ], [ 77.382441938655248, 11.486957807165986 ], [ 77.382449529608635, 11.487861391648323 ], [ 77.383365656031259, 11.487853902868668 ], [ 77.383373250534518, 11.488757486685678 ], [ 77.38428937923193, 11.488749994428618 ], [ 77.384296977285572, 11.489653577580063 ], [ 77.384304575977154, 11.490557160670669 ], [ 77.384312175306675, 11.491460743700436 ], [ 77.38431977527415, 11.492364326669358 ], [ 77.38523591498587, 11.492356829119483 ], [ 77.386152054059394, 11.4923493286958 ], [ 77.386144448265071, 11.491445746937082 ], [ 77.387060583786734, 11.491438244245042 ], [ 77.387976718669719, 11.491430738679446 ], [ 77.387969107687539, 11.490527158070995 ], [ 77.387961497344264, 11.489623577401687 ], [ 77.388877625762291, 11.489616070174353 ], [ 77.388870013145265, 11.488712490050098 ], [ 77.389786138011488, 11.488704980555818 ], [ 77.389778523121223, 11.48780140097684 ], [ 77.389770908870318, 11.486897821337019 ], [ 77.390687027272605, 11.486890310182623 ], [ 77.390679410749186, 11.485986731088305 ], [ 77.390671794865355, 11.485083151933148 ], [ 77.391587906804503, 11.485075639119554 ], [ 77.392504018103821, 11.485068123434072 ], [ 77.392511639810934, 11.485971701375835 ], [ 77.393427753381786, 11.485964182211424 ], [ 77.394343866312312, 11.48595666017491 ], [ 77.39433623878196, 11.485053083447474 ], [ 77.395252348160298, 11.485045559146377 ], [ 77.395259978602255, 11.485949135266306 ], [ 77.395267609685035, 11.486852711325376 ], [ 77.395275241408655, 11.487756287323576 ], [ 77.395282873773112, 11.488659863260906 ], [ 77.395290506778423, 11.489563439137362 ], [ 77.3952981404246, 11.490467014952937 ], [ 77.394382013572965, 11.490474542899143 ], [ 77.394389644946926, 11.491378119261366 ], [ 77.394397276961556, 11.492281695562701 ], [ 77.393481143642873, 11.49228922185026 ], [ 77.392565009683778, 11.492296745264092 ], [ 77.392572636511886, 11.49320032271892 ], [ 77.391656498999055, 11.493207843865861 ], [ 77.391664123553497, 11.494111421866648 ], [ 77.390747982486886, 11.49411894074623 ], [ 77.390755604767165, 11.495022519292748 ], [ 77.391671748747882, 11.495014999806548 ], [ 77.391679374582196, 11.495918577685554 ], [ 77.391687001056482, 11.496822155503663 ], [ 77.392603150226122, 11.496814631929309 ], [ 77.393519298755578, 11.496807105480068 ], [ 77.394435446644565, 11.496799576155933 ], [ 77.39444308250323, 11.497703152091857 ], [ 77.395359232666294, 11.497695619285293 ], [ 77.396275382188421, 11.497688083603631 ], [ 77.396283024517828, 11.498591658263281 ], [ 77.396290667488444, 11.499495232862003 ], [ 77.396298311100296, 11.500398807399794 ], [ 77.397214468726972, 11.500391267018957 ], [ 77.397222115895786, 11.50129484088777 ], [ 77.397229763706079, 11.502198414695636 ], [ 77.396313600247666, 11.502205956292551 ], [ 77.396321245783199, 11.503109530647508 ], [ 77.395405078767297, 11.503117069975987 ], [ 77.395412722027615, 11.504020644877807 ], [ 77.394496551454182, 11.504028181937375 ], [ 77.394504192438774, 11.504931757385831 ], [ 77.394511834064161, 11.50583533277333 ], [ 77.395428010471306, 11.505827794498577 ], [ 77.396344186237414, 11.505820253346645 ], [ 77.396336538778073, 11.504916679174558 ], [ 77.397252710985924, 11.504909135753504 ], [ 77.398168882552255, 11.504901589455512 ], [ 77.399085053476824, 11.504894040280597 ], [ 77.399092709687025, 11.505797612627822 ], [ 77.399100366539272, 11.506701184914069 ], [ 77.400016542655948, 11.506693631644737 ], [ 77.400932718130349, 11.506686075498031 ], [ 77.401848892962221, 11.506678516473968 ], [ 77.401841227358474, 11.505774946014681 ], [ 77.401833562397485, 11.5048713754944 ], [ 77.401825898079238, 11.503967804913136 ], [ 77.40274206351765, 11.503960244840059 ], [ 77.403658228313077, 11.503952681890338 ], [ 77.404574392465278, 11.503945116063981 ], [ 77.405490555973998, 11.503937547360998 ], [ 77.406406718839023, 11.503929975781396 ], [ 77.407322881060097, 11.503922401325189 ], [ 77.407315199886227, 11.503018834343061 ], [ 77.407307519356536, 11.502115267299928 ], [ 77.408223675100942, 11.502107691188781 ], [ 77.4091398302009, 11.502100112201505 ], [ 77.409147516562797, 11.503003678022754 ], [ 77.409155203569384, 11.503907243782995 ], [ 77.409162891220646, 11.504810809482228 ], [ 77.409170579516626, 11.505714375120448 ], [ 77.409178268457282, 11.506617940697646 ], [ 77.410094437495502, 11.506610355777774 ], [ 77.411010605888762, 11.506602767980635 ], [ 77.411018301308772, 11.507506332273961 ], [ 77.411934471974121, 11.507498740987797 ], [ 77.412850641993998, 11.507491146824155 ], [ 77.413766811368177, 11.507483549783045 ], [ 77.413759107196299, 11.506579987325733 ], [ 77.414675273007248, 11.506572388019629 ], [ 77.41466756656429, 11.505668826113736 ], [ 77.415583728812038, 11.505661224543113 ], [ 77.415591438172015, 11.506564785836314 ], [ 77.415599148178416, 11.50746834706846 ], [ 77.416515315614006, 11.507460741395004 ], [ 77.41743148240289, 11.50745313284412 ], [ 77.418347648544867, 11.507445521415812 ], [ 77.418339929786754, 11.506541962023158 ], [ 77.419256092364336, 11.506534348331067 ], [ 77.420172254294499, 11.506526731761811 ], [ 77.420164530349609, 11.505623173535568 ], [ 77.420156807052379, 11.504719615248263 ], [ 77.420149084402766, 11.503816056899897 ], [ 77.42014136240077, 11.502912498490481 ], [ 77.420133641046405, 11.50200894002001 ], [ 77.420125920339643, 11.501105381488497 ], [ 77.42011820028047, 11.500201822895944 ], [ 77.420110480868871, 11.49929826424235 ], [ 77.420102762104861, 11.498394705527726 ], [ 77.420095043988411, 11.497491146752081 ], [ 77.420087326519507, 11.496587587915407 ], [ 77.420079609698149, 11.495684029017715 ], [ 77.420071893524323, 11.494780470059016 ], [ 77.420064177998029, 11.493876911039305 ], [ 77.419148056883088, 11.493884519014932 ], [ 77.418231935120872, 11.493892124116638 ], [ 77.417315812711635, 11.493899726344408 ], [ 77.4173081065735, 11.49299616542298 ], [ 77.416391986431051, 11.493003764163705 ], [ 77.416384283853006, 11.492100202568183 ], [ 77.415468165977387, 11.492107797822316 ], [ 77.414552047455473, 11.492115390202951 ], [ 77.413635928287533, 11.492122979710079 ], [ 77.413628235095317, 11.491219416215673 ], [ 77.412712118194719, 11.49122700223711 ], [ 77.411796000648593, 11.491234585385257 ], [ 77.4117883139279, 11.49033102060578 ], [ 77.412704428561142, 11.490323438069572 ], [ 77.412696739573093, 11.489419873841078 ], [ 77.412689051230544, 11.488516309551633 ], [ 77.411772942422331, 11.488523890863977 ], [ 77.410856832968875, 11.488531469303714 ], [ 77.410849151096144, 11.487627903729702 ], [ 77.410841469868416, 11.48672433809476 ], [ 77.409925365594049, 11.486731912438959 ], [ 77.409917687922999, 11.485828346131628 ], [ 77.409910010896667, 11.484924779763377 ], [ 77.409902334515067, 11.484021213334211 ], [ 77.410818430055116, 11.484013640824362 ], [ 77.411734524950205, 11.484006065443056 ], [ 77.411726843391435, 11.483102500176095 ], [ 77.411719162477851, 11.482198934848221 ], [ 77.410803073404409, 11.482206509006177 ], [ 77.410795396046453, 11.481302943005723 ], [ 77.410787719333442, 11.480399376944368 ], [ 77.410780043265348, 11.479495810822113 ], [ 77.409863962277612, 11.479503380274782 ], [ 77.408947880645201, 11.479510946857141 ], [ 77.40803179836837, 11.47951851056918 ], [ 77.408024131674409, 11.47861494255246 ], [ 77.408016465624598, 11.477711374474854 ], [ 77.408008800218965, 11.476807806336378 ], [ 77.408001135457468, 11.475904238137034 ], [ 77.407993471340106, 11.475000669876827 ], [ 77.408909539070649, 11.474993109219552 ], [ 77.408901872688901, 11.474089541509429 ], [ 77.408894206951501, 11.473185973738447 ], [ 77.407978145037774, 11.473193533173843 ], [ 77.407970482852775, 11.472289964731072 ], [ 77.407054423202979, 11.472297520687055 ], [ 77.406138362909331, 11.472305073774558 ], [ 77.406130707184047, 11.471401504049776 ], [ 77.405214649154615, 11.471409053658551 ], [ 77.404298590481829, 11.471416600399055 ], [ 77.404306240391463, 11.472320171344073 ], [ 77.403390178167712, 11.472327715826067 ], [ 77.403382531165917, 11.471424144271275 ], [ 77.402466471207163, 11.471431685275212 ], [ 77.401550410605765, 11.471439223410846 ], [ 77.400634349362008, 11.471446758678171 ], [ 77.400641987640213, 11.472350332060889 ], [ 77.399725922846429, 11.472357865068743 ], [ 77.399718287476105, 11.47145429107718 ], [ 77.399710652747672, 11.470550717024812 ], [ 77.398794593127533, 11.470558245946883 ], [ 77.397878532865761, 11.47056577200085 ], [ 77.396962471962581, 11.470573295186702 ], [ 77.396954846598263, 11.469669719248408 ], [ 77.396947221875067, 11.468766143249329 ], [ 77.397863276963648, 11.468758621279759 ], [ 77.398779331410836, 11.468751096442531 ], [ 77.398771701514931, 11.467847521599175 ], [ 77.399687752413598, 11.467839994502908 ], [ 77.399680120252611, 11.466936420207356 ], [ 77.399672488733472, 11.46603284585102 ], [ 77.398756443647898, 11.4660403717301 ], [ 77.397840397920746, 11.466047894742237 ], [ 77.39784802362702, 11.466951470315522 ], [ 77.396931974352071, 11.466958991068831 ], [ 77.396015924436014, 11.46696650895494 ], [ 77.396023544970262, 11.467870085683478 ], [ 77.39510749150665, 11.467877601310049 ], [ 77.395115109774807, 11.468781178585481 ], [ 77.394199052763597, 11.468788691952044 ], [ 77.394191437402384, 11.467885114069173 ], [ 77.393275382657762, 11.467892623960839 ], [ 77.392359327272985, 11.467900130985038 ], [ 77.392366936820238, 11.468803710082092 ], [ 77.392374547007378, 11.469707289118388 ], [ 77.391458485168485, 11.469714794488599 ], [ 77.39146609308807, 11.470618374070877 ], [ 77.391473701647342, 11.471521953592381 ], [ 77.390557633353538, 11.471529457307689 ], [ 77.390565239644516, 11.472433037374946 ], [ 77.390572846574955, 11.473336617381431 ], [ 77.389656771825486, 11.47334411944091 ], [ 77.388740696436813, 11.473351618631492 ], [ 77.387824620409148, 11.473359114953171 ], [ 77.386908543742763, 11.473366608405936 ], [ 77.38690094844533, 11.472463025975649 ], [ 77.38781702220345, 11.472455533128489 ], [ 77.388733095322848, 11.472448037412642 ], [ 77.388725494847861, 11.47154445613303 ], [ 77.388717895011837, 11.470640874792648 ], [ 77.387801827708216, 11.470648369296834 ], [ 77.386885759765889, 11.470655860932803 ], [ 77.386878166383852, 11.46975227832025 ], [ 77.387794231418653, 11.469744787289875 ], [ 77.387786635767782, 11.468841205222164 ], [ 77.387779040755589, 11.467937623093709 ], [ 77.387771446382075, 11.467034040904514 ], [ 77.387763852647225, 11.466130458654582 ], [ 77.387756259551026, 11.46522687634392 ], [ 77.387748667093462, 11.46432329397253 ], [ 77.387741075274548, 11.463419711540419 ], [ 77.387733484094255, 11.462516129047589 ], [ 77.386817442310885, 11.462523615233366 ], [ 77.385901399889164, 11.462531098552995 ], [ 77.385908985258297, 11.463434682256718 ], [ 77.384992939292843, 11.463442163315298 ], [ 77.384076892689521, 11.463449641507488 ], [ 77.384084472885093, 11.464353226360469 ], [ 77.384092053718334, 11.465256811152749 ], [ 77.384099635189258, 11.466160395884311 ], [ 77.383183579229964, 11.466167873024025 ], [ 77.383191158431941, 11.467071458299525 ], [ 77.382275098928631, 11.467078933176547 ], [ 77.381359038788105, 11.467086405186228 ], [ 77.381366612813835, 11.46798999160962 ], [ 77.381374187476538, 11.468893577972297 ], [ 77.380458120885081, 11.468901048322534 ], [ 77.380465693277387, 11.469804635228458 ], [ 77.379549623141855, 11.469812103314602 ], [ 77.379542053656905, 11.468908515804943 ], [ 77.37862598579224, 11.468915980419512 ], [ 77.377709917291355, 11.468923442166234 ], [ 77.377717480961536, 11.469827030882664 ], [ 77.377725045267738, 11.470730619538383 ], [ 77.377732610209947, 11.471634208133388 ], [ 77.377740175788176, 11.472537796667675 ], [ 77.376824095020254, 11.472545257958709 ], [ 77.376816532350134, 11.471641668821375 ], [ 77.375900453854555, 11.471649126640798 ], [ 77.374984374723439, 11.471656581591651 ], [ 77.374976818504905, 11.470752991188206 ], [ 77.374060741646417, 11.470760442668125 ], [ 77.373144664152875, 11.470767891279685 ], [ 77.372228586024562, 11.470775337022873 ], [ 77.37222103916433, 11.469871744752384 ], [ 77.373137114384974, 11.469864299611075 ], [ 77.373129565251844, 11.468960707881774 ], [ 77.373122016753484, 11.468057116091789 ], [ 77.372205947347481, 11.468064560029346 ], [ 77.372198402390836, 11.467160967576806 ], [ 77.372190858068706, 11.466257375063591 ], [ 77.372183314381076, 11.465353782489709 ], [ 77.371267253060708, 11.465361221754675 ], [ 77.371259712913798, 11.464457628518499 ], [ 77.370343653865433, 11.464465064315069 ], [ 77.36942759418308, 11.464472497244868 ], [ 77.369435128517495, 11.465376091683604 ], [ 77.3694426634857, 11.466279686061686 ], [ 77.37035872898079, 11.466272251929555 ], [ 77.370366267489473, 11.467175845645809 ], [ 77.369450199087638, 11.467183280379109 ], [ 77.368534130052026, 11.467190712244934 ], [ 77.368526597356833, 11.466287117326566 ], [ 77.367610530594447, 11.466294545724194 ], [ 77.367603001439278, 11.465390950144467 ], [ 77.367595472917372, 11.464487354504099 ], [ 77.367587945028717, 11.463583758803088 ], [ 77.366671886351909, 11.463591182532038 ], [ 77.365755827042065, 11.463598603394409 ], [ 77.364839767099483, 11.463606021390191 ], [ 77.364847286270006, 11.464509618891904 ], [ 77.364854806073026, 11.46541321633299 ], [ 77.363938739685551, 11.465420632661719 ], [ 77.363022672665807, 11.465428046123375 ], [ 77.36303018728826, 11.466331644703144 ], [ 77.362114116729884, 11.466339055897038 ], [ 77.361198045539695, 11.466346464223603 ], [ 77.360281973717946, 11.466353869682841 ], [ 77.359365901264866, 11.466361272274737 ], [ 77.359373404892068, 11.467264873189757 ], [ 77.359380909150346, 11.468168474044154 ], [ 77.359388414039728, 11.469072074837921 ], [ 77.360304495214052, 11.469064670450148 ], [ 77.360312003642122, 11.469968270584655 ], [ 77.360319512701551, 11.470871870658522 ], [ 77.36123559905991, 11.470864462204977 ], [ 77.362151684786667, 11.470857050882943 ], [ 77.363067769881567, 11.470849636692432 ], [ 77.3630752882965, 11.471753234908341 ], [ 77.362159200293561, 11.471760649698192 ], [ 77.362166716432327, 11.472664248452778 ], [ 77.362174233202964, 11.473567847146711 ], [ 77.362181750605487, 11.474471445779971 ], [ 77.361265653245084, 11.474478859498445 ], [ 77.361273168370474, 11.475382458670158 ], [ 77.36035706746938, 11.4753898701181 ], [ 77.360364580317167, 11.476293469828033 ], [ 77.359448475875354, 11.47630087900497 ], [ 77.358532370802379, 11.476308285312012 ], [ 77.358524863773184, 11.475404684404992 ], [ 77.357608760978565, 11.475412087243926 ], [ 77.356692657553268, 11.475419487213173 ], [ 77.356700158763829, 11.476323089316349 ], [ 77.355784051798764, 11.476330487013634 ], [ 77.354867944203491, 11.476337881840978 ], [ 77.354875440225342, 11.477241485078736 ], [ 77.353959329090515, 11.477248877633405 ], [ 77.353043217325975, 11.477256267317886 ], [ 77.353035727123299, 11.476352662885821 ], [ 77.353028237550092, 11.475449058393112 ], [ 77.35302074860634, 11.474545453839765 ], [ 77.353013260292059, 11.473641849225784 ], [ 77.352097159535006, 11.473649233652861 ], [ 77.35118105814874, 11.473656615210658 ], [ 77.35117357628117, 11.472753009342695 ], [ 77.350257477174608, 11.472760387434876 ], [ 77.35024999884439, 11.471856780909969 ], [ 77.349333902017548, 11.471864155536993 ], [ 77.349326427224199, 11.470960548355388 ], [ 77.348410332677091, 11.470967919517708 ], [ 77.347494237501792, 11.470975287811406 ], [ 77.346578141698544, 11.470982653236472 ], [ 77.345662045267602, 11.470990015792905 ], [ 77.345669508428159, 11.471893625356548 ], [ 77.344753408461528, 11.471900985639259 ], [ 77.343837307867688, 11.471908343053082 ], [ 77.343844765838767, 11.472811953745774 ], [ 77.342928661709465, 11.472819308885166 ], [ 77.342921206646835, 11.471915697598003 ], [ 77.34200510479927, 11.47192304927402 ], [ 77.341997653271648, 11.471019437332044 ], [ 77.341081553705848, 11.471026785545138 ], [ 77.340165453513819, 11.471034130889537 ], [ 77.340158008428716, 11.470130517699221 ], [ 77.339241910518723, 11.47013785958138 ], [ 77.338325811982997, 11.470145198595059 ], [ 77.337409712821781, 11.470152534740247 ], [ 77.337402277086042, 11.46924891970947 ], [ 77.336486180207388, 11.469256252393322 ], [ 77.336478748004481, 11.468352636709172 ], [ 77.335562653408417, 11.468359965932144 ], [ 77.335555224737817, 11.467456349594858 ], [ 77.335547796691969, 11.466552733197041 ], [ 77.334631707285624, 11.466560058367232 ], [ 77.333715617254782, 11.466567380669822 ], [ 77.332799526599729, 11.466574700104806 ], [ 77.332792107899195, 11.465671081870088 ], [ 77.332784689822645, 11.46476746357486 ], [ 77.332777272370066, 11.463863845219135 ], [ 77.332769855541457, 11.46296022680291 ], [ 77.332762439336776, 11.462056608326186 ], [ 77.331846362589729, 11.462063921935272 ], [ 77.330930285218969, 11.462071232677886 ], [ 77.330922875449588, 11.461167612957617 ], [ 77.330915466303651, 11.460263993176873 ], [ 77.329999394120577, 11.460271299870653 ], [ 77.329083321314315, 11.460278603698411 ], [ 77.328167247885105, 11.460285904660132 ], [ 77.327251173833204, 11.460293202755816 ], [ 77.327258571357319, 11.461196824899879 ], [ 77.327265969503912, 11.462100446983481 ], [ 77.327273368272969, 11.463004069006617 ], [ 77.326357284881439, 11.463011366007008 ], [ 77.325441200867658, 11.463018660140644 ], [ 77.324525116231897, 11.46302595140752 ], [ 77.324532506904774, 11.463929575140266 ], [ 77.323616418741025, 11.463936864129932 ], [ 77.322700329955751, 11.46394415025258 ], [ 77.322707715437403, 11.464847775103765 ], [ 77.322715101540354, 11.46575139989449 ], [ 77.321799006320546, 11.46575868432833 ], [ 77.32180639013778, 11.466662309647697 ], [ 77.321813774576071, 11.467565934906597 ], [ 77.321821159635419, 11.468469560105023 ], [ 77.32273726357694, 11.468462273903835 ], [ 77.322744652165085, 11.46936589845266 ], [ 77.322752041374585, 11.470269522940995 ], [ 77.321835931617372, 11.470276810320431 ], [ 77.321843318539976, 11.471180435337409 ], [ 77.32092720525344, 11.47118772043709 ], [ 77.320011091346061, 11.471195002667871 ], [ 77.319094976818064, 11.471202282029743 ], [ 77.319102355636332, 11.472105908752239 ], [ 77.318186237579454, 11.472113185833404 ], [ 77.318178861669693, 11.471209558522704 ], [ 77.318171486380052, 11.470305931151524 ], [ 77.317255373519814, 11.470313204187589 ], [ 77.316339260039712, 11.470320474354949 ], [ 77.315423145939988, 11.470327741653598 ], [ 77.314507031220884, 11.470335006083531 ], [ 77.314499668183473, 11.469431376301397 ], [ 77.314492305765214, 11.468527746458818 ], [ 77.315408414668468, 11.468520483203426 ], [ 77.31540104996175, 11.467616853887657 ], [ 77.315393685874398, 11.466713224511439 ], [ 77.315386322406383, 11.465809595074779 ], [ 77.315378959557705, 11.464905965577675 ], [ 77.315371597328351, 11.464002336020142 ], [ 77.31536423571832, 11.463098706402175 ], [ 77.31444814425673, 11.463105966134034 ], [ 77.3135320521761, 11.463113222999016 ], [ 77.313539407973465, 11.464016853791243 ], [ 77.313546764389642, 11.464920484523045 ], [ 77.313554121424659, 11.465824115194422 ], [ 77.312638020005409, 11.465831370952882 ], [ 77.31172191796756, 11.465838623843752 ], [ 77.31080581531134, 11.465845873867025 ], [ 77.31081316424391, 11.466749506237653 ], [ 77.310820513794596, 11.467653138547856 ], [ 77.309904404705804, 11.467660386875719 ], [ 77.308988294999111, 11.467667632335505 ], [ 77.308072184674785, 11.467674874927202 ], [ 77.308064843846211, 11.466771240859391 ], [ 77.308057503635027, 11.465867606731164 ], [ 77.307141398507824, 11.465874845283953 ], [ 77.3062252927635, 11.465882080969102 ], [ 77.306217958983495, 11.464978445609896 ], [ 77.306210625820384, 11.464074810190295 ], [ 77.305294525272757, 11.464082041837923 ], [ 77.304378424108506, 11.464089270618356 ], [ 77.303462322327889, 11.46409649653158 ], [ 77.303454998500953, 11.463192859297495 ], [ 77.303447675290144, 11.462289222003029 ], [ 77.303440352695461, 11.461385584648193 ], [ 77.303433030716889, 11.460481947232982 ], [ 77.303425709354428, 11.459578309757404 ], [ 77.304341796605243, 11.459571086766465 ], [ 77.304334472953627, 11.458667449814975 ], [ 77.305250556682907, 11.458660224542665 ], [ 77.30616663979562, 11.458652996404549 ], [ 77.306159310950392, 11.457749360562278 ], [ 77.306151982721971, 11.456845724659647 ], [ 77.307068059408195, 11.456838494826009 ], [ 77.307060728892111, 11.455934859448149 ], [ 77.307053398993048, 11.455031224009931 ], [ 77.306137328115511, 11.455038452673314 ], [ 77.305221256621195, 11.455045678471826 ], [ 77.30521393314713, 11.454142041803239 ], [ 77.306130001737458, 11.454134816589619 ], [ 77.306122675976155, 11.453231180445581 ], [ 77.307038741045972, 11.453223952952442 ], [ 77.307031412997958, 11.452320317333184 ], [ 77.307024085566923, 11.451416681653583 ], [ 77.306108026303846, 11.451423907976491 ], [ 77.305191966424005, 11.451431131435456 ], [ 77.305184645415963, 11.450527494525533 ], [ 77.305177325024403, 11.449623857555288 ], [ 77.304261270333868, 11.449631076981014 ], [ 77.303345215027107, 11.449638293543241 ], [ 77.302429159104364, 11.449645507241964 ], [ 77.301513102565863, 11.449652718077171 ], [ 77.301505794400967, 11.448749078709447 ], [ 77.300589740149547, 11.448756286097421 ], [ 77.300582435502449, 11.447852646085682 ], [ 77.300575131470595, 11.446949006013657 ], [ 77.301491179917605, 11.446941799793096 ], [ 77.301483873599153, 11.446038160244484 ], [ 77.301476567896145, 11.445134520635586 ], [ 77.301469262808581, 11.444230880966408 ], [ 77.300553223066331, 11.444238085435877 ], [ 77.299637182708878, 11.444245287043207 ], [ 77.298721141736479, 11.444252485788381 ], [ 77.297805100149361, 11.444259681671396 ], [ 77.297812393631489, 11.445163323673958 ], [ 77.296896348528534, 11.445170517277571 ], [ 77.296903639723496, 11.446074159802635 ], [ 77.295987591104677, 11.446081351126375 ], [ 77.295071541871849, 11.446088539587466 ], [ 77.294155492025283, 11.446095725185895 ], [ 77.29323944156522, 11.446102907921656 ], [ 77.293246721766835, 11.44700655271523 ], [ 77.294162775128811, 11.446999369397624 ], [ 77.294170058845864, 11.447903013549086 ], [ 77.294177343176429, 11.448806657640283 ], [ 77.293261284009901, 11.448813842121593 ], [ 77.293254002581719, 11.447910197448543 ], [ 77.292337945704318, 11.447917378484858 ], [ 77.291421888213861, 11.447924556658023 ], [ 77.290505830110632, 11.447931731968024 ], [ 77.29051310283154, 11.448835378385246 ], [ 77.29052037616502, 11.449739024742206 ], [ 77.289604311644126, 11.449746198350898 ], [ 77.288688246510887, 11.449753369095944 ], [ 77.2877721807656, 11.449760536977342 ], [ 77.287764916140191, 11.448856888878289 ], [ 77.287757652126601, 11.44795324071899 ], [ 77.288673712066753, 11.447946073998517 ], [ 77.288666445762772, 11.447042426359435 ], [ 77.289582502188665, 11.44703525735647 ], [ 77.290498558002255, 11.447028085490555 ], [ 77.291414613203301, 11.447020910761706 ], [ 77.291407338805541, 11.446117264805139 ], [ 77.29140006502054, 11.445213618788323 ], [ 77.290484015623107, 11.445220792354876 ], [ 77.290476745352322, 11.444317145696676 ], [ 77.291392791848295, 11.444309972711267 ], [ 77.291385519288809, 11.443406326573971 ], [ 77.291378247342067, 11.442502680376442 ], [ 77.290462206648257, 11.442509852199576 ], [ 77.289546165341946, 11.442517021160933 ], [ 77.288630123423403, 11.442524187260503 ], [ 77.287714080892854, 11.44253135049828 ], [ 77.287721341235695, 11.443434999018962 ], [ 77.286805295192394, 11.443442159975142 ], [ 77.285889248537572, 11.443449318069272 ], [ 77.285881993996725, 11.442545668388405 ], [ 77.285874740067143, 11.441642018647331 ], [ 77.286790780920214, 11.441634861713148 ], [ 77.286783524701377, 11.440731212491844 ], [ 77.286776269094034, 11.439827563210333 ], [ 77.285860234041778, 11.43983471898458 ], [ 77.285852981945936, 11.438931069062912 ], [ 77.285845730461347, 11.438027419081054 ], [ 77.286761759713798, 11.438020264466731 ], [ 77.286754505940891, 11.437116615004642 ], [ 77.287670531682352, 11.437109458109852 ], [ 77.287663275621597, 11.436205809167767 ], [ 77.287656020172548, 11.435302160165497 ], [ 77.286740000229415, 11.435309315899923 ], [ 77.285823979674859, 11.435316468774394 ], [ 77.284907958509095, 11.435323618788892 ], [ 77.283991936732392, 11.435330765943418 ], [ 77.283075914344991, 11.435337910237957 ], [ 77.282159891347121, 11.435345051672499 ], [ 77.281243867739036, 11.435352190247039 ], [ 77.280327843520979, 11.435359325961564 ], [ 77.28033507577743, 11.436262979598787 ], [ 77.280342308643611, 11.437166633175854 ], [ 77.27942627801734, 11.437173767187012 ], [ 77.278510246781579, 11.437180898337679 ], [ 77.277594214936556, 11.43718802662784 ], [ 77.277601439713649, 11.438091681879047 ], [ 77.276685404359981, 11.438098807886334 ], [ 77.276678182482527, 11.437195152057489 ], [ 77.27576214941972, 11.437202274626616 ], [ 77.275754931050443, 11.436298618160224 ], [ 77.274838900278525, 11.436305737291653 ], [ 77.273922868898325, 11.436312853562772 ], [ 77.273915656935898, 11.435409195882144 ], [ 77.273908445581483, 11.434505538141385 ], [ 77.272992419391386, 11.434512650398791 ], [ 77.27298521154367, 11.433608992021218 ], [ 77.272069187644504, 11.433616100842295 ], [ 77.271153163137839, 11.433623206803738 ], [ 77.270237138023916, 11.433630309905528 ], [ 77.269321112302976, 11.433637410147661 ], [ 77.269313916656898, 11.432733749405529 ], [ 77.268397893227657, 11.432740846212464 ], [ 77.267481869191911, 11.432747940159958 ], [ 77.266565844549874, 11.432755031248 ], [ 77.265649819301814, 11.432762119476584 ], [ 77.264733793447974, 11.432769204845695 ], [ 77.264740974601466, 11.433672868463175 ], [ 77.264748156360525, 11.43457653202057 ], [ 77.265664188011684, 11.434569445502245 ], [ 77.266580219057047, 11.434562356123983 ], [ 77.266587407219689, 11.435466018471841 ], [ 77.267503440558002, 11.435458925658578 ], [ 77.26751063222595, 11.436362587371258 ], [ 77.268426667857199, 11.436355491122542 ], [ 77.269342702881886, 11.436348392013453 ], [ 77.269349900955106, 11.437252052515163 ], [ 77.269357099635172, 11.438155712956757 ], [ 77.269364298922028, 11.439059373338234 ], [ 77.269371498815744, 11.439963033659581 ], [ 77.270287544832925, 11.439955929386997 ], [ 77.271203590243033, 11.439948822253132 ], [ 77.272119635045826, 11.439941712257996 ], [ 77.273035679241033, 11.439934599401601 ], [ 77.27304289134328, 11.440838257358257 ], [ 77.273958937831082, 11.440831141063885 ], [ 77.273966153441819, 11.441734798383671 ], [ 77.273973369660624, 11.442638455643298 ], [ 77.273980586487511, 11.44354211284276 ], [ 77.273987803922523, 11.44444576998206 ], [ 77.273995021965632, 11.44534942706119 ], [ 77.274911082350997, 11.44534230502053 ], [ 77.274918303904101, 11.446245961462509 ], [ 77.274925526065559, 11.447149617844309 ], [ 77.274932748835411, 11.448053274165918 ], [ 77.274939972213645, 11.448956930427334 ], [ 77.274947196200287, 11.449860586628551 ], [ 77.274031121303182, 11.449867711554111 ], [ 77.274023900219376, 11.448964054775907 ], [ 77.274016679743724, 11.448060397937503 ], [ 77.274009459876225, 11.447156741038913 ], [ 77.273093393078767, 11.447163861370425 ], [ 77.272177325673397, 11.447170978838823 ], [ 77.271261257660399, 11.447178093444107 ], [ 77.270345189039972, 11.447185205186267 ], [ 77.270352397297984, 11.448088864390458 ], [ 77.269436325168016, 11.448095973845302 ], [ 77.268520252431131, 11.44810308043677 ], [ 77.267604179087556, 11.448110184164854 ], [ 77.267596979536762, 11.447206523233898 ], [ 77.266680908489178, 11.447213623523464 ], [ 77.266673712447002, 11.446309961957224 ], [ 77.266666517010989, 11.445406300330838 ], [ 77.265750451161352, 11.445413396607456 ], [ 77.264834384705807, 11.445420490021361 ], [ 77.263918317644581, 11.44542758057254 ], [ 77.263002249977916, 11.445434668260987 ], [ 77.262086181706081, 11.445441753086691 ], [ 77.261170112829291, 11.445448835049643 ], [ 77.261177290853482, 11.44635250012187 ], [ 77.262093362632257, 11.446345417585192 ], [ 77.262100544163403, 11.447249082023559 ], [ 77.26210772629949, 11.448152746401785 ], [ 77.261191648716007, 11.448159830085931 ], [ 77.260275570527781, 11.448166910906616 ], [ 77.260282747463407, 11.449070576371941 ], [ 77.260289925003491, 11.449974241777131 ], [ 77.259373840405061, 11.4499813208809 ], [ 77.259381015646426, 11.450884986799222 ], [ 77.259388191492064, 11.451788652657397 ], [ 77.260304281897206, 11.451781572407061 ], [ 77.260311461250836, 11.452685237631799 ], [ 77.259395367941977, 11.452692318455423 ], [ 77.258479274028829, 11.452699396414411 ], [ 77.257563179511649, 11.452706471508758 ], [ 77.256647084390679, 11.452713543738458 ], [ 77.255730988666144, 11.452720613103496 ], [ 77.255738154104378, 11.453624281132205 ], [ 77.254822054872548, 11.453631348204706 ], [ 77.254814892338317, 11.452727679603861 ], [ 77.253898795407437, 11.452734743239555 ], [ 77.252982697873733, 11.452741804010557 ], [ 77.252975541750132, 11.451838134206016 ], [ 77.252968386229099, 11.450934464341346 ], [ 77.252961231310607, 11.450030794416556 ], [ 77.252045141884992, 11.450037850608581 ], [ 77.251129051857063, 11.450044903936595 ], [ 77.250212961227092, 11.450051954400593 ], [ 77.250220107435624, 11.450955626038962 ], [ 77.250227254245985, 11.451859297617219 ], [ 77.250234401658162, 11.452762969135362 ], [ 77.249318301715647, 11.452770018447531 ], [ 77.249325446825608, 11.45367369047629 ], [ 77.249332592537172, 11.45457736244493 ], [ 77.250248698288075, 11.454570311991279 ], [ 77.250255847505798, 11.455473983329043 ], [ 77.251171955559386, 11.455466929439227 ], [ 77.251179108283779, 11.456370600145876 ], [ 77.251186261610286, 11.457274270792384 ], [ 77.251193415538921, 11.458177941378745 ], [ 77.250277298770214, 11.458184996981517 ], [ 77.249361181399635, 11.458192049718178 ], [ 77.248445063427397, 11.458199099588715 ], [ 77.247528944853755, 11.45820614659312 ], [ 77.246612825678952, 11.458213190731387 ], [ 77.246619965682001, 11.459116864110236 ], [ 77.245703843000712, 11.459123905952188 ], [ 77.245696705903228, 11.458220232003503 ], [ 77.24478058552684, 11.458227270409461 ], [ 77.244773451935359, 11.457323595831047 ], [ 77.243857333863886, 11.457330630801472 ], [ 77.243850203777924, 11.456426955593576 ], [ 77.242934088011381, 11.456433987128928 ], [ 77.242017971644927, 11.456441015798557 ], [ 77.242025095920667, 11.457344692144485 ], [ 77.241108976049418, 11.457351718517053 ], [ 77.241116098019475, 11.458255395371539 ], [ 77.240199974643389, 11.458262419446575 ], [ 77.240207094307266, 11.459166096809385 ], [ 77.239290967426342, 11.459173118586419 ], [ 77.238374839946445, 11.459180137497002 ], [ 77.237458711867845, 11.459187153541121 ], [ 77.237451600920906, 11.45828347447438 ], [ 77.236535475149481, 11.458290487084518 ], [ 77.235619348779821, 11.458297496828409 ], [ 77.234703221812197, 11.458304503706046 ], [ 77.233787094246821, 11.458311507717418 ], [ 77.233794193571057, 11.459215189052827 ], [ 77.233801293492803, 11.460118870328147 ], [ 77.233808394012044, 11.461022551543369 ], [ 77.233815495128809, 11.461926232698493 ], [ 77.233822596843112, 11.462829913793515 ], [ 77.23473873893937, 11.462822906948016 ], [ 77.235654880437849, 11.462815897235098 ], [ 77.235661988563507, 11.463719577136107 ], [ 77.236578132370852, 11.463712563988473 ], [ 77.23749427557992, 11.463705547973204 ], [ 77.237487161640487, 11.46280186920702 ], [ 77.238403301344164, 11.462794850891882 ], [ 77.239319440449066, 11.462787829709356 ], [ 77.240235578954966, 11.462780805659449 ], [ 77.240242701614989, 11.463684482721645 ], [ 77.24115884242849, 11.46367745523591 ], [ 77.242074982642478, 11.463670424882579 ], [ 77.242082111715945, 11.46457410074748 ], [ 77.241165968594871, 11.464581131669505 ], [ 77.241173095360764, 11.465484808042955 ], [ 77.240256948732835, 11.46549183666562 ], [ 77.23934080150562, 11.465498862420217 ], [ 77.23934792305586, 11.466402539870225 ], [ 77.239355045205158, 11.467306217260088 ], [ 77.240271198247783, 11.467299190369012 ], [ 77.240278323904207, 11.468202867130479 ], [ 77.240285450159917, 11.469106543831785 ], [ 77.241201608419644, 11.469099512935225 ], [ 77.241208738183246, 11.470003189007882 ], [ 77.242124898751953, 11.46999615467362 ], [ 77.243041058720863, 11.469989117470151 ], [ 77.243048194901604, 11.470892792344969 ], [ 77.243964357179223, 11.470885751703115 ], [ 77.244880518856533, 11.470878708191842 ], [ 77.244887661455365, 11.471782381867872 ], [ 77.244894804654777, 11.472686055483704 ], [ 77.243978637159202, 11.472693100133819 ], [ 77.243985778049677, 11.473596774258882 ], [ 77.243992919540489, 11.47450044832374 ], [ 77.243076745625331, 11.474507491242356 ], [ 77.242160571110048, 11.474514531290614 ], [ 77.242167707381213, 11.475418206433433 ], [ 77.241251529356049, 11.475425244180059 ], [ 77.241258663316813, 11.476328919831415 ], [ 77.241265797877205, 11.477232595422572 ], [ 77.241272933037251, 11.478136270953518 ], [ 77.241280068796939, 11.479039946424249 ], [ 77.241287205156283, 11.479943621834767 ], [ 77.242203397735196, 11.479936581244411 ], [ 77.243119589714198, 11.479929537782297 ], [ 77.244035781093032, 11.479922491448427 ], [ 77.244042926786477, 11.480826165091756 ], [ 77.244050073080331, 11.481729838674847 ], [ 77.244966269681925, 11.48172278833033 ], [ 77.245882465682868, 11.481715735113616 ], [ 77.246798661082892, 11.481708679024713 ], [ 77.247714855881739, 11.48170162006363 ], [ 77.247722014423758, 11.482605291307252 ], [ 77.248638211533134, 11.48259822890361 ], [ 77.248645373588701, 11.483501899516575 ], [ 77.248652536245942, 11.484405570069281 ], [ 77.247736333312005, 11.484412633613704 ], [ 77.247743493658277, 11.485316304676529 ], [ 77.24775065460598, 11.486219975679081 ], [ 77.248666863365443, 11.486212910993858 ], [ 77.249583071523219, 11.486205843435311 ], [ 77.249590238898605, 11.487109513236545 ], [ 77.249597406875964, 11.48801318297749 ], [ 77.249604575455265, 11.488916852658134 ], [ 77.249611744636525, 11.489820522278487 ], [ 77.248695524824782, 11.489827592119601 ], [ 77.248702691693921, 11.490731262250298 ], [ 77.248709859164805, 11.491634932320689 ], [ 77.247793632922864, 11.491642000428392 ], [ 77.247800798080888, 11.492545671008903 ], [ 77.246884568322841, 11.492552736812081 ], [ 77.246891731167523, 11.493456407902478 ], [ 77.246898894613466, 11.49436007893256 ], [ 77.245982658424182, 11.49436714300071 ], [ 77.245066421633879, 11.494374204193418 ], [ 77.24415018424277, 11.494381262510682 ], [ 77.244157339543904, 11.495284935189673 ], [ 77.243241098636872, 11.495291991200761 ], [ 77.243233946251095, 11.494388317952495 ], [ 77.243226794465656, 11.493484644643928 ], [ 77.243219643280483, 11.492580971275062 ], [ 77.242303410518574, 11.492588022703334 ], [ 77.241387177156597, 11.492595071256597 ], [ 77.24047094319485, 11.492602116934844 ], [ 77.240478085635274, 11.493505792010124 ], [ 77.239561848159028, 11.493512835381688 ], [ 77.238645610083466, 11.493519875877984 ], [ 77.238638473472903, 11.492616199666255 ], [ 77.237722237713214, 11.492623236719394 ], [ 77.237729371408832, 11.493526913499005 ], [ 77.237736505703282, 11.494430590218336 ], [ 77.237743640596577, 11.495334266877389 ], [ 77.237750776088703, 11.49623794347616 ], [ 77.237757912179703, 11.497141620014634 ], [ 77.236841661243972, 11.497148657030985 ], [ 77.235925409709608, 11.49715569117112 ], [ 77.235009157576883, 11.497162722435021 ], [ 77.234092904846023, 11.497169750822689 ], [ 77.233176651517269, 11.497176776334104 ], [ 77.232260397590878, 11.497183798969266 ], [ 77.232253278995628, 11.496280119028315 ], [ 77.232246160997775, 11.495376439027092 ], [ 77.231329912305725, 11.495383457653459 ], [ 77.231322797820752, 11.494479777025713 ], [ 77.230406551447061, 11.494486792210239 ], [ 77.229490304476499, 11.494493804519182 ], [ 77.229483196419181, 11.493590122699359 ], [ 77.229476088958492, 11.492686440819295 ], [ 77.229468982094417, 11.491782758878987 ], [ 77.228552743272346, 11.491789766615664 ], [ 77.228545639919432, 11.490886084049571 ], [ 77.227629403415548, 11.490893088346018 ], [ 77.226713166315548, 11.490900089767775 ], [ 77.225796928619687, 11.490907088314845 ], [ 77.224880690328206, 11.490914083987207 ], [ 77.224873599228957, 11.490010399101019 ], [ 77.223957363256446, 11.490017391334286 ], [ 77.223950275666681, 11.489113705823501 ], [ 77.22394318867201, 11.488210020252518 ], [ 77.223026957932362, 11.488217008482996 ], [ 77.223019874446436, 11.487313322287669 ], [ 77.222103646025559, 11.487320307080202 ], [ 77.221187417010086, 11.487327288998921 ], [ 77.221180339945789, 11.486423601615821 ], [ 77.220264113249357, 11.486430580097277 ], [ 77.220257039692584, 11.485526892090556 ], [ 77.219340815315221, 11.485533867135207 ], [ 77.218424590344, 11.485540839306486 ], [ 77.217508364779164, 11.485547808604384 ], [ 77.217515429596403, 11.486451498300035 ], [ 77.21659920052501, 11.486458465287059 ], [ 77.216592138620982, 11.485554775028888 ], [ 77.215675911869667, 11.485561738579998 ], [ 77.215668853471712, 11.484658047699396 ], [ 77.215661795666648, 11.483754356758643 ], [ 77.215654738454418, 11.48285066575775 ], [ 77.214738519848424, 11.482857624749322 ], [ 77.213822300649809, 11.482864580868174 ], [ 77.213815249854932, 11.481960888683297 ], [ 77.213808199652391, 11.481057196438298 ], [ 77.214724413026744, 11.481050241443048 ], [ 77.214717360504793, 11.480146549699722 ], [ 77.214710308575405, 11.479242857896271 ], [ 77.214703257238597, 11.478339166032702 ], [ 77.213787052598789, 11.47834611934257 ], [ 77.212870847366673, 11.478353069780864 ], [ 77.211954641542476, 11.478360017347581 ], [ 77.21196168414545, 11.479263710895825 ], [ 77.211968727340263, 11.480167404383963 ], [ 77.211975771126916, 11.481071097811984 ], [ 77.211059555976277, 11.481078044190408 ], [ 77.211052515101414, 11.480174350201285 ], [ 77.210136302270953, 11.480181293146547 ], [ 77.20922008884915, 11.480188233219746 ], [ 77.209227123900419, 11.481091928330377 ], [ 77.208310906975697, 11.481098866091902 ], [ 77.207394689460088, 11.481105800981107 ], [ 77.206478471353861, 11.481112732997989 ], [ 77.206485498260037, 11.482016429729045 ], [ 77.206492525756602, 11.482920126400005 ], [ 77.206499553843571, 11.483823823010857 ], [ 77.207415780686759, 11.483816889314129 ], [ 77.20742281227696, 11.484720585304919 ], [ 77.207429844457806, 11.485624281235587 ], [ 77.207436877229327, 11.486527977106141 ], [ 77.20744391059155, 11.487431672916559 ], [ 77.207450944544448, 11.488335368666853 ], [ 77.20653470313475, 11.488342305163391 ], [ 77.205618461134605, 11.488349238785737 ], [ 77.205611433009295, 11.487445541915738 ], [ 77.204695193332739, 11.487452472104378 ], [ 77.20377895306622, 11.487459399419041 ], [ 77.203771931358247, 11.486555701370149 ], [ 77.202855693415614, 11.486562625251789 ], [ 77.202848675210674, 11.485658926583751 ], [ 77.201932439591914, 11.485665847032829 ], [ 77.201016203383944, 11.485672764608367 ], [ 77.201009191594665, 11.484769064762858 ], [ 77.200092957710865, 11.484775978906514 ], [ 77.199176723238352, 11.484782890176849 ], [ 77.199169717863796, 11.483879189154816 ], [ 77.199162713077683, 11.482975488072702 ], [ 77.199155708880014, 11.482071786930506 ], [ 77.198239482556971, 11.482078693653918 ], [ 77.198232481859918, 11.481174991893793 ], [ 77.197316257860848, 11.481181895186932 ], [ 77.196400033273861, 11.48118879560765 ], [ 77.196407028146581, 11.482092498482787 ], [ 77.196414023607019, 11.482996201297867 ], [ 77.195497792607711, 11.483003099960479 ], [ 77.195490800059716, 11.482099396588238 ], [ 77.195483808099169, 11.481195693155936 ], [ 77.194567582337029, 11.481202587831783 ], [ 77.194560593875892, 11.480298883782503 ], [ 77.19364437043852, 11.480305775029207 ], [ 77.192728146414183, 11.480312663403684 ], [ 77.1927351290514, 11.48121636856612 ], [ 77.19274211227534, 11.482120073668513 ], [ 77.191825881840089, 11.482126960283221 ], [ 77.190909650818384, 11.482133844025224 ], [ 77.190916628804104, 11.483037550179809 ], [ 77.190000394283658, 11.483044431604871 ], [ 77.189993419210438, 11.482140724894512 ], [ 77.189077187016494, 11.482147602891077 ], [ 77.188160954236821, 11.482154478014907 ], [ 77.18815398557409, 11.481250770133672 ], [ 77.188147017496831, 11.480347062192408 ], [ 77.188140050005089, 11.479443354191119 ], [ 77.189056274048724, 11.479436480733192 ], [ 77.189972497506645, 11.479429604403229 ], [ 77.189965524777321, 11.478525897452743 ], [ 77.189958552633954, 11.477622190442238 ], [ 77.189042334998817, 11.47762906566115 ], [ 77.189035366352414, 11.476725358035107 ], [ 77.189951581076528, 11.476718483371714 ], [ 77.190867795214714, 11.476711605836991 ], [ 77.19086082133245, 11.475807899262204 ], [ 77.191777031973686, 11.475801019412138 ], [ 77.192693242028497, 11.475794136690986 ], [ 77.193609451496656, 11.475787251098765 ], [ 77.193602469469042, 11.474883546132597 ], [ 77.194518675439809, 11.474876658225984 ], [ 77.194511691088834, 11.473972953756469 ], [ 77.193595488028322, 11.473979841106411 ], [ 77.193588507174482, 11.473076136020216 ], [ 77.192672306437089, 11.473083019943125 ], [ 77.192665329079887, 11.472179314240492 ], [ 77.191749130665656, 11.472186194736825 ], [ 77.190832931665014, 11.472193072363003 ], [ 77.190825960713525, 11.471289365488207 ], [ 77.189909764036301, 11.471296239688492 ], [ 77.188993566773206, 11.471303111018837 ], [ 77.188077368924468, 11.471309979479232 ], [ 77.188070407287043, 11.470406270877962 ], [ 77.188063446234992, 11.469502562216718 ], [ 77.188056485768328, 11.468598853495504 ], [ 77.187140296061457, 11.468605717420857 ], [ 77.186224105769455, 11.468612578476939 ], [ 77.185307914892604, 11.468619436663744 ], [ 77.184391723431105, 11.468626291981264 ], [ 77.183475531385227, 11.468633144429486 ], [ 77.183468586046985, 11.467729432875517 ], [ 77.183461641292908, 11.466825721261607 ], [ 77.182545454479907, 11.466832569732803 ], [ 77.182538513218105, 11.465928857505098 ], [ 77.181622328729389, 11.465935702553825 ], [ 77.180706143657062, 11.465942544733924 ], [ 77.180713079102546, 11.466846258068646 ], [ 77.179796890538654, 11.466853097933271 ], [ 77.1798038236591, 11.467756811761227 ], [ 77.179810757362702, 11.46866052552925 ], [ 77.179817691649475, 11.469564239237343 ], [ 77.178901493776394, 11.469571077891896 ], [ 77.177985295320397, 11.469577913676872 ], [ 77.177992224371991, 11.470481628430674 ], [ 77.177076022424131, 11.470488461898535 ], [ 77.177069096281713, 11.469584746592258 ], [ 77.176152896660582, 11.469591576638051 ], [ 77.175236696457262, 11.469598403814235 ], [ 77.175229776715184, 11.468694687343774 ], [ 77.174313578838891, 11.468701511098569 ], [ 77.174306662587483, 11.467797794016418 ], [ 77.174299746917768, 11.466894076874359 ], [ 77.173383554276995, 11.466900896656682 ], [ 77.173376642097196, 11.46599717890318 ], [ 77.172460451783223, 11.466003995265265 ], [ 77.171544260888083, 11.466010808758639 ], [ 77.17155116725138, 11.466914527614517 ], [ 77.171558074195602, 11.467818246410497 ], [ 77.170641876902721, 11.467825058136832 ], [ 77.170648781519148, 11.468728777423761 ], [ 77.170655686716287, 11.469632496650792 ], [ 77.170662592494153, 11.470536215817912 ], [ 77.171578798514034, 11.470529402439027 ], [ 77.172495003952918, 11.470522586190262 ], [ 77.172501916130514, 11.471426304195532 ], [ 77.173418123897662, 11.471419484525574 ], [ 77.173425039566183, 11.4723232019196 ], [ 77.17250882888932, 11.472330022140881 ], [ 77.172515742229365, 11.473233740026304 ], [ 77.171599528061293, 11.473240557928344 ], [ 77.171592617631219, 11.472336839491827 ], [ 77.170676405792108, 11.472343653972427 ], [ 77.169760193372255, 11.472350465582679 ], [ 77.169753289342651, 11.471446745984748 ], [ 77.168837079252029, 11.471453554174241 ], [ 77.167920868581163, 11.471460359493596 ], [ 77.167927766791237, 11.472364080192085 ], [ 77.167934665581356, 11.473267800830664 ], [ 77.167018448510689, 11.473274604379739 ], [ 77.167011552630598, 11.472370883191225 ], [ 77.16609533789017, 11.472377683319978 ], [ 77.166088445499625, 11.471473961521859 ], [ 77.166081553688628, 11.470570239663841 ], [ 77.166074662457135, 11.469666517745937 ], [ 77.166067771805146, 11.468762795768139 ], [ 77.16515156812288, 11.468769590828646 ], [ 77.164235363861351, 11.46877638301968 ], [ 77.164242248695217, 11.469680106096158 ], [ 77.163326040945634, 11.469686895966701 ], [ 77.16331915902083, 11.468783172341224 ], [ 77.162402953601543, 11.468789958793282 ], [ 77.162396075164352, 11.467886234559176 ], [ 77.16147987207539, 11.467893017593203 ], [ 77.160563668408187, 11.467899797757953 ], [ 77.160556796366706, 11.466996072367166 ], [ 77.159640595030083, 11.467002849114571 ], [ 77.158724393115705, 11.46700962299291 ], [ 77.15873125933993, 11.467913349479581 ], [ 77.157815053939373, 11.467920121036446 ], [ 77.156898847961557, 11.467926889723994 ], [ 77.155982641406681, 11.467933655542227 ], [ 77.155066434275028, 11.467940418491128 ], [ 77.154150226566813, 11.467947178570693 ], [ 77.153234018282291, 11.467953935780914 ], [ 77.152317809421703, 11.467960690121776 ], [ 77.152324655861079, 11.468864420376912 ], [ 77.153240867630615, 11.468857665489843 ], [ 77.15324771755499, 11.469761395138935 ], [ 77.153254568055459, 11.47066512472818 ], [ 77.152338350467332, 11.470671880707675 ], [ 77.152345198634237, 11.471575610783294 ], [ 77.151428977560585, 11.47158236443871 ], [ 77.150512755911322, 11.47158911522383 ], [ 77.150519598834208, 11.472492846331347 ], [ 77.149603373699648, 11.47249959479168 ], [ 77.14959653368669, 11.471595863138639 ], [ 77.148680310886959, 11.471602608183131 ], [ 77.14867347435883, 11.470698875924963 ], [ 77.147757253893928, 11.470705617554078 ], [ 77.147750420850144, 11.46980188469103 ], [ 77.1468342027201, 11.469808622905219 ], [ 77.14682737316015, 11.468904889437532 ], [ 77.145911157364992, 11.46891162423726 ], [ 77.144994940995701, 11.468918356167331 ], [ 77.144078724052548, 11.468925085227735 ], [ 77.144071903793972, 11.468021350067184 ], [ 77.14315568918623, 11.468028075714034 ], [ 77.142239474005095, 11.468034798491436 ], [ 77.142246288445605, 11.468938534739529 ], [ 77.141330069782313, 11.468945255190896 ], [ 77.140413850546125, 11.468951972772565 ], [ 77.140420659741196, 11.469855710047479 ], [ 77.139504437023049, 11.469862425302404 ], [ 77.138588213732504, 11.469869137687384 ], [ 77.137671989869787, 11.46987584720241 ], [ 77.136755765435154, 11.469882553847473 ], [ 77.136762563564631, 11.470786293233052 ], [ 77.136769362265781, 11.47169003255885 ], [ 77.135853131440058, 11.471696737418018 ], [ 77.135859927802841, 11.47260047722607 ], [ 77.134943693495586, 11.472607179756604 ], [ 77.134950487519504, 11.473510920046678 ], [ 77.134957282114641, 11.474414660276958 ], [ 77.135873522242775, 11.474407956662787 ], [ 77.13588032031997, 11.475311696291449 ], [ 77.136796562787453, 11.475304989264091 ], [ 77.13771280468319, 11.475298279365367 ], [ 77.137719609153947, 11.476202017849873 ], [ 77.138635853388763, 11.476195304537274 ], [ 77.139552097051364, 11.476188588353098 ], [ 77.139558907916651, 11.477092325692515 ], [ 77.140475153918032, 11.477085606093778 ], [ 77.141391399346674, 11.47707888362325 ], [ 77.141398216607442, 11.477982619816625 ], [ 77.141405034441206, 11.478886355950157 ], [ 77.141411852847938, 11.479790092023851 ], [ 77.140495598684069, 11.479796816124063 ], [ 77.14050241475158, 11.480700552681139 ], [ 77.139586157102713, 11.480707274451859 ], [ 77.138669898881332, 11.480713993349847 ], [ 77.137753640087681, 11.480720709375099 ], [ 77.136837380722, 11.480727422527602 ], [ 77.136844185712278, 11.481631161195455 ], [ 77.135927922862308, 11.481637872017279 ], [ 77.135011659440764, 11.481644579966108 ], [ 77.134095395447943, 11.481651285041931 ], [ 77.134088599195252, 11.480747544748546 ], [ 77.133172337543911, 11.480754246409976 ], [ 77.133165544774556, 11.479850505515387 ], [ 77.132249285464724, 11.479857203762883 ], [ 77.13133302558434, 11.479863899137815 ], [ 77.13132623920994, 11.478960157101355 ], [ 77.131319453405808, 11.47805641500509 ], [ 77.130403198779049, 11.478063106426095 ], [ 77.129486943582251, 11.478069794974983 ], [ 77.128570687815625, 11.478076480651744 ], [ 77.128563911316618, 11.47717273687436 ], [ 77.12855713538714, 11.47626899303719 ], [ 77.127640884873969, 11.476275674761867 ], [ 77.126724633791511, 11.476282353614867 ], [ 77.126717864253834, 11.475378608638207 ], [ 77.125801615513467, 11.475385284080016 ], [ 77.125794849455744, 11.474481538504083 ], [ 77.12487860305751, 11.474488210535156 ], [ 77.123962356090715, 11.474494879694991 ], [ 77.123046108555641, 11.474501545983571 ], [ 77.122129860452517, 11.474508209400897 ], [ 77.122136614866534, 11.475411957132509 ], [ 77.121220363284664, 11.475418618216908 ], [ 77.12121361178157, 11.474514869946958 ], [ 77.12029736254307, 11.474521527621743 ], [ 77.120290614518268, 11.473617778753937 ], [ 77.119374367623166, 11.473624433019568 ], [ 77.11936762307613, 11.472720683554151 ], [ 77.119360879096163, 11.471816934029006 ], [ 77.118444637454729, 11.471823584348302 ], [ 77.118437896951804, 11.470919834225795 ], [ 77.117521657653569, 11.470926481137091 ], [ 77.116605417788776, 11.470933125178005 ], [ 77.116598683672152, 11.470029373921221 ], [ 77.115682446150856, 11.470036014554818 ], [ 77.1147662080635, 11.470042652318249 ], [ 77.113849969410325, 11.470049287211506 ], [ 77.113856694797576, 11.47095304007839 ], [ 77.112940452669051, 11.470959672637703 ], [ 77.112024209975189, 11.470966302326593 ] ], [ [ 77.247042289814402, 11.512433486861987 ], [ 77.247035114341017, 11.511529817039076 ], [ 77.247027939469078, 11.510626147155758 ], [ 77.247944227570684, 11.510619069947978 ], [ 77.247951405362372, 11.511522739261029 ], [ 77.247958583755747, 11.512426408513669 ], [ 77.247965762750852, 11.513330077705904 ], [ 77.247049465889262, 11.513337156624495 ], [ 77.247042289814402, 11.512433486861987 ] ], [ [ 77.247937050380713, 11.509715400574532 ], [ 77.248853334961126, 11.50970832105765 ], [ 77.248860515070604, 11.510611989860603 ], [ 77.247944227570684, 11.510619069947978 ], [ 77.247937050380713, 11.509715400574532 ] ], [ [ 77.28777944600283, 11.450664185016144 ], [ 77.286863376742744, 11.450671350614119 ], [ 77.286856114408465, 11.44976770199508 ], [ 77.2877721807656, 11.449760536977342 ], [ 77.28777944600283, 11.450664185016144 ] ], [ [ 77.195504785743168, 11.483906803272655 ], [ 77.194588551243726, 11.483913699619301 ], [ 77.194581561020939, 11.483009995750185 ], [ 77.195497792607711, 11.483003099960479 ], [ 77.195504785743168, 11.483906803272655 ] ], [ [ 77.159819380283977, 11.490499704059722 ], [ 77.160735657324238, 11.490492913061701 ], [ 77.160742544397095, 11.49139663689469 ], [ 77.159826264441847, 11.49140342844086 ], [ 77.159819380283977, 11.490499704059722 ] ], [ [ 77.175312852030686, 11.479539281033469 ], [ 77.176229084248689, 11.479532447784955 ], [ 77.176236013886637, 11.480436162984008 ], [ 77.175319778756744, 11.480442996784577 ], [ 77.174403543044775, 11.480449827712741 ], [ 77.173487306750999, 11.480456655768503 ], [ 77.173480385848762, 11.479552938913995 ], [ 77.173473465528076, 11.478649221999522 ], [ 77.174389695998272, 11.478642395046931 ], [ 77.17439661923062, 11.479546111409817 ], [ 77.175312852030686, 11.479539281033469 ] ], [ [ 77.188223698550019, 11.490287846244058 ], [ 77.188216724617448, 11.48938413890327 ], [ 77.188209751270463, 11.488480431502419 ], [ 77.188202778509037, 11.487576724041501 ], [ 77.189119028767408, 11.487569845585767 ], [ 77.190035278439979, 11.487562964255911 ], [ 77.190951527526494, 11.487556080051936 ], [ 77.191867776026726, 11.487549192973855 ], [ 77.192784023940433, 11.487542303021678 ], [ 77.192791011271609, 11.488446007703633 ], [ 77.19279799918958, 11.489349712325504 ], [ 77.191881745447773, 11.489356603390199 ], [ 77.1909654911194, 11.489363491580331 ], [ 77.190049236204729, 11.489370376895893 ], [ 77.189132980704002, 11.489377259336877 ], [ 77.189139957551021, 11.490280966122329 ], [ 77.188223698550019, 11.490287846244058 ] ], [ [ 77.216613326112466, 11.488265845622912 ], [ 77.217529561010991, 11.488258877510852 ], [ 77.217536627608368, 11.489162567025998 ], [ 77.216620389795906, 11.489169535700585 ], [ 77.215704151390284, 11.48917650150084 ], [ 77.214787912391756, 11.489183464426759 ], [ 77.214780854536201, 11.488279773224736 ], [ 77.213864617858974, 11.488286732714489 ], [ 77.213857563509791, 11.487383040890473 ], [ 77.214773797273324, 11.487376081962548 ], [ 77.215690030444193, 11.487369120160743 ], [ 77.215697090620779, 11.488272810860876 ], [ 77.216613326112466, 11.488265845622912 ] ], [ [ 77.220292413417624, 11.490045331522371 ], [ 77.22029948994502, 11.490949019228177 ], [ 77.219383248084966, 11.49095599765214 ], [ 77.219376174471961, 11.490052309383108 ], [ 77.220292413417624, 11.490045331522371 ] ], [ [ 77.227814208575381, 11.514388830176477 ], [ 77.227807093231291, 11.513485148552153 ], [ 77.228723402672543, 11.513478130121708 ], [ 77.22873052093729, 11.514381811180627 ], [ 77.227814208575381, 11.514388830176477 ] ], [ [ 77.243276869570607, 11.499810356537415 ], [ 77.242360613482617, 11.499817412518079 ], [ 77.241444356794531, 11.499824465621881 ], [ 77.241437207240338, 11.4989207915373 ], [ 77.241430058285999, 11.498017117392401 ], [ 77.241422909931515, 11.497113443187189 ], [ 77.242339157870489, 11.497106391789863 ], [ 77.242346309141098, 11.498010065426254 ], [ 77.242353461011803, 11.498913739002329 ], [ 77.243269714183171, 11.498906683590722 ], [ 77.243276869570607, 11.499810356537415 ] ], [ [ 77.263203625960898, 11.470737235401232 ], [ 77.263210826738046, 11.471640897640206 ], [ 77.262294674209485, 11.471647999112124 ], [ 77.262287476341172, 11.4707443362991 ], [ 77.263203625960898, 11.470737235401232 ] ], [ [ 77.302758794576604, 11.490309190024822 ], [ 77.302751455791395, 11.489405553959385 ], [ 77.303667639668276, 11.489398314553428 ], [ 77.303674981367038, 11.490301950034532 ], [ 77.302758794576604, 11.490309190024822 ] ], [ [ 77.307170751426909, 11.469489383775979 ], [ 77.306254634052493, 11.469496621801834 ], [ 77.306247297804887, 11.468592986684275 ], [ 77.307163412271407, 11.468585749243601 ], [ 77.307170751426909, 11.469489383775979 ] ], [ [ 77.297834277764721, 11.447874249320025 ], [ 77.298750330958782, 11.447867051104993 ], [ 77.298757629801216, 11.44877069228345 ], [ 77.298764929258368, 11.449674333401616 ], [ 77.299680987642631, 11.449667131157007 ], [ 77.299688290617397, 11.450570771631629 ], [ 77.298772229330311, 11.450577974459486 ], [ 77.297856167428463, 11.450585174423564 ], [ 77.297848870259372, 11.449681532782673 ], [ 77.297841573704773, 11.448777891081489 ], [ 77.297834277764721, 11.447874249320025 ] ], [ [ 77.30174728887711, 11.478569145979106 ], [ 77.301754617358412, 11.479472783354399 ], [ 77.300838464282563, 11.479480010590558 ], [ 77.300831138711899, 11.478576372631435 ], [ 77.30174728887711, 11.478569145979106 ] ], [ [ 77.301776606497256, 11.482183695117532 ], [ 77.300860444688041, 11.482190924105193 ], [ 77.300853117270634, 11.481287286327442 ], [ 77.301769276168471, 11.481280057923614 ], [ 77.301776606497256, 11.482183695117532 ] ], [ [ 77.319117115134006, 11.473913162015767 ], [ 77.320033238388206, 11.473905880888564 ], [ 77.320040621976872, 11.47480950684114 ], [ 77.320956747519645, 11.474802222255656 ], [ 77.320964134638402, 11.475705847559043 ], [ 77.320048006186184, 11.475713132733214 ], [ 77.319131877113293, 11.475720415037314 ], [ 77.31912449581344, 11.47481678855679 ], [ 77.319117115134006, 11.473913162015767 ] ], [ [ 77.363976333653753, 11.469938621956441 ], [ 77.363968813595477, 11.469035024218785 ], [ 77.364884891610615, 11.469027605490925 ], [ 77.364892414576431, 11.469931202628791 ], [ 77.363976333653753, 11.469938621956441 ] ], [ [ 77.3648623265086, 11.466316813713439 ], [ 77.365778395170082, 11.466309393917637 ], [ 77.365785919144983, 11.467212990637433 ], [ 77.364869847576713, 11.467220411033246 ], [ 77.3648623265086, 11.466316813713439 ] ] ] } }
]
}
