{
"type": "FeatureCollection",
"name": "latest_water_change",
"crs": { "type": "name", "properties": { "name": "urn:ogc:def:crs:OGC:1.3:CRS84" } },
"features": [
{ "type": "Feature", "properties": { "latest_scene_id": "S1D_IW_GRDH_1SDV_20260915T003957_20260915T004022_004581_008881_7A96", "acquisition_datetime": "2026-09-15 00:39:57Z", "area_m2": 1875.0, "classification": "NRT_CANDIDATE_FLOOD_ANOMALY" }, "geometry": { "type": "Polygon", "coordinates": [ [ [ 77.389209393356793, 11.528921746617243 ], [ 77.389205573062227, 11.528469957888447 ], [ 77.389434636435652, 11.528468074116823 ], [ 77.389436546745657, 11.528693968445239 ], [ 77.389665610261829, 11.528692084455532 ], [ 77.389667520794518, 11.528917978742244 ], [ 77.389209393356793, 11.528921746617243 ] ] ] } },
{ "type": "Feature", "properties": { "latest_scene_id": "S1D_IW_GRDH_1SDV_20260915T003957_20260915T004022_004581_008881_7A96", "acquisition_datetime": "2026-09-15 00:39:57Z", "area_m2": 6250.0, "classification": "NRT_CANDIDATE_FLOOD_ANOMALY" }, "geometry": { "type": "Polygon", "coordinates": [ [ [ 77.331424434611549, 11.522161808106981 ], [ 77.33141884611571, 11.521484096346491 ], [ 77.332335115071174, 11.521476746710549 ], [ 77.332340705758497, 11.522154458027297 ], [ 77.332111638030284, 11.522156295817398 ], [ 77.332107911231631, 11.521704488202728 ], [ 77.331878843829656, 11.521706325738748 ], [ 77.331882570263048, 11.522158133427379 ], [ 77.331424434611549, 11.522161808106981 ] ] ] } },
{ "type": "Feature", "properties": { "latest_scene_id": "S1D_IW_GRDH_1SDV_20260915T003957_20260915T004022_004581_008881_7A96", "acquisition_datetime": "2026-09-15 00:39:57Z", "area_m2": 9375.0, "classification": "NRT_CANDIDATE_FLOOD_ANOMALY" }, "geometry": { "type": "Polygon", "coordinates": [ [ [ 77.330958849015218, 11.521261866082122 ], [ 77.330956986665512, 11.521035962076624 ], [ 77.330727919616351, 11.521037798601201 ], [ 77.330726057488249, 11.520811894554944 ], [ 77.330955124354801, 11.520810058067331 ], [ 77.330953262083085, 11.520584154054237 ], [ 77.332098594917809, 11.520574969099572 ], [ 77.332102321326289, 11.521026776752231 ], [ 77.331873254472143, 11.521028614177311 ], [ 77.3318751175523, 11.521254518034924 ], [ 77.330958849015218, 11.521261866082122 ] ] ] } },
{ "type": "Feature", "properties": { "latest_scene_id": "S1D_IW_GRDH_1SDV_20260915T003957_20260915T004022_004581_008881_7A96", "acquisition_datetime": "2026-09-15 00:39:57Z", "area_m2": 2500.0, "classification": "NRT_CANDIDATE_FLOOD_ANOMALY" }, "geometry": { "type": "Polygon", "coordinates": [ [ [ 77.393712226693296, 11.519622394537031 ], [ 77.393708402374273, 11.519170607012265 ], [ 77.393937457459856, 11.519168721193184 ], [ 77.39393936978189, 11.51939461491952 ], [ 77.394397480198009, 11.519390842665326 ], [ 77.394399392925195, 11.519616736311916 ], [ 77.393712226693296, 11.519622394537031 ] ] ] } },
{ "type": "Feature", "properties": { "latest_scene_id": "S1D_IW_GRDH_1SDV_20260915T003957_20260915T004022_004581_008881_7A96", "acquisition_datetime": "2026-09-15 00:39:57Z", "area_m2": 6250.0, "classification": "NRT_CANDIDATE_FLOOD_ANOMALY" }, "geometry": { "type": "Polygon", "coordinates": [ [ [ 77.374694794095333, 11.519100605459457 ], [ 77.374692897187259, 11.518874708549658 ], [ 77.374463839116459, 11.518876579169635 ], [ 77.374458149178253, 11.518198888304424 ], [ 77.374687206701424, 11.518197017797409 ], [ 77.374689103490311, 11.518422914718636 ], [ 77.374918161156316, 11.518421043993929 ], [ 77.374916264184876, 11.51819514711036 ], [ 77.375145321628608, 11.518193276243279 ], [ 77.375152910482868, 11.519096863604057 ], [ 77.374694794095333, 11.519100605459457 ] ] ] } },
{ "type": "Feature", "properties": { "latest_scene_id": "S1D_IW_GRDH_1SDV_20260915T003957_20260915T004022_004581_008881_7A96", "acquisition_datetime": "2026-09-15 00:39:57Z", "area_m2": 9375.0, "classification": "NRT_CANDIDATE_FLOOD_ANOMALY" }, "geometry": { "type": "Polygon", "coordinates": [ [ [ 77.33072233334903, 11.52036008645104 ], [ 77.330716747432632, 11.519682374266692 ], [ 77.330487681440076, 11.519684210389419 ], [ 77.330485819728509, 11.519458306283418 ], [ 77.330714885538498, 11.519456470197651 ], [ 77.33071302368333, 11.519230566124806 ], [ 77.330942089271744, 11.519228729895923 ], [ 77.330940227273004, 11.519002825856242 ], [ 77.330711161867185, 11.519004662048166 ], [ 77.330707438351823, 11.518552853883488 ], [ 77.330936503392508, 11.518551017765489 ], [ 77.330938365313258, 11.518776921812766 ], [ 77.331167430497516, 11.518775085477738 ], [ 77.331180466312716, 11.520356413443569 ], [ 77.33072233334903, 11.52036008645104 ] ] ] } },
{ "type": "Feature", "properties": { "latest_scene_id": "S1D_IW_GRDH_1SDV_20260915T003957_20260915T004022_004581_008881_7A96", "acquisition_datetime": "2026-09-15 00:39:57Z", "area_m2": 8750.0, "classification": "NRT_CANDIDATE_FLOOD_ANOMALY" }, "geometry": { "type": "Polygon", "coordinates": [ [ [ 77.374000034012752, 11.518202628778353 ], [ 77.373996241649365, 11.517750834698576 ], [ 77.373309069698465, 11.517756443833388 ], [ 77.373301487638571, 11.516852855176472 ], [ 77.373759600852026, 11.516849116234386 ], [ 77.373765288432523, 11.517526807506965 ], [ 77.374452459597563, 11.517521197404935 ], [ 77.374456252611637, 11.517972991341734 ], [ 77.374227195231285, 11.517974861631068 ], [ 77.374229091615362, 11.518200758631403 ], [ 77.374000034012752, 11.518202628778353 ] ] ] } },
{ "type": "Feature", "properties": { "latest_scene_id": "S1D_IW_GRDH_1SDV_20260915T003957_20260915T004022_004581_008881_7A96", "acquisition_datetime": "2026-09-15 00:39:57Z", "area_m2": 1250.0, "classification": "NRT_CANDIDATE_FLOOD_ANOMALY" }, "geometry": { "type": "Polygon", "coordinates": [ [ [ 77.221884780343004, 11.517823202746131 ], [ 77.221881230973722, 11.517371360219883 ], [ 77.222110312461467, 11.517369609964094 ], [ 77.222113862195968, 11.517821452419867 ], [ 77.221884780343004, 11.517823202746131 ] ] ] } },
{ "type": "Feature", "properties": { "latest_scene_id": "S1D_IW_GRDH_1SDV_20260915T003957_20260915T004022_004581_008881_7A96", "acquisition_datetime": "2026-09-15 00:39:57Z", "area_m2": 1875.0, "classification": "NRT_CANDIDATE_FLOOD_ANOMALY" }, "geometry": { "type": "Polygon", "coordinates": [ [ [ 77.403721526300728, 11.511407127303729 ], [ 77.403719607536615, 11.511181235079485 ], [ 77.403490560563043, 11.511183127306149 ], [ 77.403488642021529, 11.510957235039983 ], [ 77.403946735563679, 11.510953450482978 ], [ 77.403950573416509, 11.511405234859044 ], [ 77.403721526300728, 11.511407127303729 ] ] ] } },
{ "type": "Feature", "properties": { "latest_scene_id": "S1D_IW_GRDH_1SDV_20260915T003957_20260915T004022_004581_008881_7A96", "acquisition_datetime": "2026-09-15 00:39:57Z", "area_m2": 6250.0, "classification": "NRT_CANDIDATE_FLOOD_ANOMALY" }, "geometry": { "type": "Polygon", "coordinates": [ [ [ 77.22798459694468, 11.506931701658642 ], [ 77.22798281910022, 11.506705781169133 ], [ 77.227753747158317, 11.506707534446756 ], [ 77.227751969533543, 11.506481613918146 ], [ 77.227064754031488, 11.506486872565516 ], [ 77.227061199988228, 11.50603503128505 ], [ 77.227748414395791, 11.506029772849621 ], [ 77.227750191946029, 11.506255693385768 ], [ 77.22797926352311, 11.506253940178807 ], [ 77.22798104129302, 11.506479860675856 ], [ 77.228210113015237, 11.506478107253646 ], [ 77.228213669031732, 11.506929948165766 ], [ 77.22798459694468, 11.506931701658642 ] ] ] } },
{ "type": "Feature", "properties": { "latest_scene_id": "S1D_IW_GRDH_1SDV_20260915T003957_20260915T004022_004581_008881_7A96", "acquisition_datetime": "2026-09-15 00:39:57Z", "area_m2": 2500.0, "classification": "NRT_CANDIDATE_FLOOD_ANOMALY" }, "geometry": { "type": "Polygon", "coordinates": [ [ [ 77.226143137353787, 11.505816119226404 ], [ 77.226141361154902, 11.505590198435504 ], [ 77.225912289827022, 11.505591950097244 ], [ 77.225910513847779, 11.505366029267279 ], [ 77.226368656101499, 11.505362525834503 ], [ 77.226370432445549, 11.505588446593864 ], [ 77.226599503698935, 11.505586694572314 ], [ 77.226601280262614, 11.5058126152926 ], [ 77.226143137353787, 11.505816119226404 ] ] ] } },
{ "type": "Feature", "properties": { "latest_scene_id": "S1D_IW_GRDH_1SDV_20260915T003957_20260915T004022_004581_008881_7A96", "acquisition_datetime": "2026-09-15 00:39:57Z", "area_m2": 1250.0, "classification": "NRT_CANDIDATE_FLOOD_ANOMALY" }, "geometry": { "type": "Polygon", "coordinates": [ [ [ 77.225219749435553, 11.504919441184185 ], [ 77.225217974115168, 11.504693520237035 ], [ 77.225676115497933, 11.504690018095419 ], [ 77.225677891183082, 11.504915938971983 ], [ 77.225219749435553, 11.504919441184185 ] ] ] } },
{ "type": "Feature", "properties": { "latest_scene_id": "S1D_IW_GRDH_1SDV_20260915T003957_20260915T004022_004581_008881_7A96", "acquisition_datetime": "2026-09-15 00:39:57Z", "area_m2": 1250.0, "classification": "NRT_CANDIDATE_FLOOD_ANOMALY" }, "geometry": { "type": "Polygon", "coordinates": [ [ [ 77.232320929771333, 11.504865076033358 ], [ 77.232319148796975, 11.504639156181897 ], [ 77.232777287867947, 11.504635642887214 ], [ 77.232779069207083, 11.504861562667866 ], [ 77.232320929771333, 11.504865076033358 ] ] ] } },
{ "type": "Feature", "properties": { "latest_scene_id": "S1D_IW_GRDH_1SDV_20260915T003957_20260915T004022_004581_008881_7A96", "acquisition_datetime": "2026-09-15 00:39:57Z", "area_m2": 1250.0, "classification": "NRT_CANDIDATE_FLOOD_ANOMALY" }, "geometry": { "type": "Polygon", "coordinates": [ [ [ 77.224987128267202, 11.504469350051803 ], [ 77.224983578177344, 11.504017508068085 ], [ 77.225212648377408, 11.504015757372974 ], [ 77.22521619883203, 11.504467599286116 ], [ 77.224987128267202, 11.504469350051803 ] ] ] } },
{ "type": "Feature", "properties": { "latest_scene_id": "S1D_IW_GRDH_1SDV_20260915T003957_20260915T004022_004581_008881_7A96", "acquisition_datetime": "2026-09-15 00:39:57Z", "area_m2": 5625.0, "classification": "NRT_CANDIDATE_FLOOD_ANOMALY" }, "geometry": { "type": "Polygon", "coordinates": [ [ [ 77.278815861460544, 11.503827061824937 ], [ 77.278810407931473, 11.503149324008374 ], [ 77.279497590765629, 11.503143944796692 ], [ 77.279503045935769, 11.503821682287978 ], [ 77.278815861460544, 11.503827061824937 ] ] ] } },
{ "type": "Feature", "properties": { "latest_scene_id": "S1D_IW_GRDH_1SDV_20260915T003957_20260915T004022_004581_008881_7A96", "acquisition_datetime": "2026-09-15 00:39:57Z", "area_m2": 1250.0, "classification": "NRT_CANDIDATE_FLOOD_ANOMALY" }, "geometry": { "type": "Polygon", "coordinates": [ [ [ 77.243529195024408, 11.502745528290326 ], [ 77.24352561591536, 11.502293691993721 ], [ 77.243754681811509, 11.502291926977868 ], [ 77.243758261285237, 11.502743763203316 ], [ 77.243529195024408, 11.502745528290326 ] ] ] } },
{ "type": "Feature", "properties": { "latest_scene_id": "S1D_IW_GRDH_1SDV_20260915T003957_20260915T004022_004581_008881_7A96", "acquisition_datetime": "2026-09-15 00:39:57Z", "area_m2": 12500.0, "classification": "NRT_CANDIDATE_FLOOD_ANOMALY" }, "geometry": { "type": "Polygon", "coordinates": [ [ [ 77.224980028236345, 11.503565666069299 ], [ 77.224971154035217, 11.502436061006406 ], [ 77.224742085074453, 11.502437811274662 ], [ 77.224740310528233, 11.502211890215502 ], [ 77.22519844804782, 11.502208389569708 ], [ 77.225191348776363, 11.501304705577663 ], [ 77.225649484688361, 11.501301204494798 ], [ 77.225653034978976, 11.501753046357187 ], [ 77.225423966676928, 11.501754797059123 ], [ 77.225425741695744, 11.501980718019961 ], [ 77.225654810180131, 11.501978967282733 ], [ 77.22565658541852, 11.50220488820451 ], [ 77.225427516751779, 11.502206638977034 ], [ 77.225438167869768, 11.503562164640346 ], [ 77.224980028236345, 11.503565666069299 ] ] ] } },
{ "type": "Feature", "properties": { "latest_scene_id": "S1D_IW_GRDH_1SDV_20260915T003957_20260915T004022_004581_008881_7A96", "acquisition_datetime": "2026-09-15 00:39:57Z", "area_m2": 3125.0, "classification": "NRT_CANDIDATE_FLOOD_ANOMALY" }, "geometry": { "type": "Polygon", "coordinates": [ [ [ 77.295280732831998, 11.500308855942741 ], [ 77.295277072003103, 11.499857035844414 ], [ 77.295735183317092, 11.499853425006183 ], [ 77.295737014076877, 11.50007933498444 ], [ 77.295966069858551, 11.500077529259249 ], [ 77.295967900839017, 11.50030343919731 ], [ 77.295280732831998, 11.500308855942741 ] ] ] } },
{ "type": "Feature", "properties": { "latest_scene_id": "S1D_IW_GRDH_1SDV_20260915T003957_20260915T004022_004581_008881_7A96", "acquisition_datetime": "2026-09-15 00:39:57Z", "area_m2": 1250.0, "classification": "NRT_CANDIDATE_FLOOD_ANOMALY" }, "geometry": { "type": "Polygon", "coordinates": [ [ [ 77.225640609613322, 11.500171599772907 ], [ 77.225638834709997, 11.49994567881723 ], [ 77.226096968285262, 11.499942177438601 ], [ 77.226098743553194, 11.50016809832368 ], [ 77.225640609613322, 11.500171599772907 ] ] ] } },
{ "type": "Feature", "properties": { "latest_scene_id": "S1D_IW_GRDH_1SDV_20260915T003957_20260915T004022_004581_008881_7A96", "acquisition_datetime": "2026-09-15 00:39:57Z", "area_m2": 1875.0, "classification": "NRT_CANDIDATE_FLOOD_ANOMALY" }, "geometry": { "type": "Polygon", "coordinates": [ [ [ 77.22677173870774, 11.498355478462473 ], [ 77.226766412268802, 11.497677716023306 ], [ 77.226995477065984, 11.497675964877972 ], [ 77.227000804051741, 11.4983537272112 ], [ 77.22677173870774, 11.498355478462473 ] ] ] } },
{ "type": "Feature", "properties": { "latest_scene_id": "S1D_IW_GRDH_1SDV_20260915T003957_20260915T004022_004581_008881_7A96", "acquisition_datetime": "2026-09-15 00:39:57Z", "area_m2": 1250.0, "classification": "NRT_CANDIDATE_FLOOD_ANOMALY" }, "geometry": { "type": "Polygon", "coordinates": [ [ [ 77.404043462261086, 11.495364990251948 ], [ 77.404039629753044, 11.494913205410876 ], [ 77.404268663482753, 11.494911315389178 ], [ 77.404272496355048, 11.495363100154009 ], [ 77.404043462261086, 11.495364990251948 ] ] ] } },
{ "type": "Feature", "properties": { "latest_scene_id": "S1D_IW_GRDH_1SDV_20260915T003957_20260915T004022_004581_008881_7A96", "acquisition_datetime": "2026-09-15 00:39:57Z", "area_m2": 3750.0, "classification": "NRT_CANDIDATE_FLOOD_ANOMALY" }, "geometry": { "type": "Polygon", "coordinates": [ [ [ 77.207739823448975, 11.496015044352413 ], [ 77.207738063467815, 11.495789120583316 ], [ 77.207967129703022, 11.495787384675067 ], [ 77.207965369576542, 11.495561460937219 ], [ 77.208423501571701, 11.495557988651489 ], [ 77.208425262062661, 11.495783912319302 ], [ 77.208654328187095, 11.495782175871787 ], [ 77.208656088897257, 11.496008099500814 ], [ 77.207739823448975, 11.496015044352413 ] ] ] } },
{ "type": "Feature", "properties": { "latest_scene_id": "S1D_IW_GRDH_1SDV_20260915T003957_20260915T004022_004581_008881_7A96", "acquisition_datetime": "2026-09-15 00:39:57Z", "area_m2": 6250.0, "classification": "NRT_CANDIDATE_FLOOD_ANOMALY" }, "geometry": { "type": "Polygon", "coordinates": [ [ [ 77.274627445816861, 11.495726425616313 ], [ 77.2746256325876, 11.49550051222869 ], [ 77.274854688058724, 11.495498723801555 ], [ 77.274852874685294, 11.495272810446224 ], [ 77.274623819396382, 11.495274598837291 ], [ 77.274620193128058, 11.494822772043161 ], [ 77.275078302939079, 11.494819195225608 ], [ 77.275080116418593, 11.495045108552416 ], [ 77.275309171449209, 11.495043319837999 ], [ 77.275314612662712, 11.495721059687526 ], [ 77.274627445816861, 11.495726425616313 ] ] ] } },
{ "type": "Feature", "properties": { "latest_scene_id": "S1D_IW_GRDH_1SDV_20260915T003957_20260915T004022_004581_008881_7A96", "acquisition_datetime": "2026-09-15 00:39:57Z", "area_m2": 3125.0, "classification": "NRT_CANDIDATE_FLOOD_ANOMALY" }, "geometry": { "type": "Polygon", "coordinates": [ [ [ 77.207278171306825, 11.49556666801767 ], [ 77.207276411763999, 11.495340744171036 ], [ 77.207047345782485, 11.495342479470013 ], [ 77.207042067922188, 11.49466470780254 ], [ 77.207271133356997, 11.494662972608564 ], [ 77.207274652258079, 11.495114820320643 ], [ 77.207503718020433, 11.49511308487692 ], [ 77.20750723743366, 11.495564932503939 ], [ 77.207278171306825, 11.49556666801767 ] ] ] } },
{ "type": "Feature", "properties": { "latest_scene_id": "S1D_IW_GRDH_1SDV_20260915T003957_20260915T004022_004581_008881_7A96", "acquisition_datetime": "2026-09-15 00:39:57Z", "area_m2": 1250.0, "classification": "NRT_CANDIDATE_FLOOD_ANOMALY" }, "geometry": { "type": "Polygon", "coordinates": [ [ [ 77.206351354100661, 11.494218064298947 ], [ 77.206349595508215, 11.493992140289764 ], [ 77.206807725469062, 11.493988671010465 ], [ 77.20680948442596, 11.494214594949662 ], [ 77.206351354100661, 11.494218064298947 ] ] ] } },
{ "type": "Feature", "properties": { "latest_scene_id": "S1D_IW_GRDH_1SDV_20260915T003957_20260915T004022_004581_008881_7A96", "acquisition_datetime": "2026-09-15 00:39:57Z", "area_m2": 3125.0, "classification": "NRT_CANDIDATE_FLOOD_ANOMALY" }, "geometry": { "type": "Polygon", "coordinates": [ [ [ 77.199015990667419, 11.493595700720757 ], [ 77.199012485402037, 11.493143850440521 ], [ 77.199699681638805, 11.493138663924569 ], [ 77.199701434799735, 11.49336458896193 ], [ 77.199472369242045, 11.49336631801518 ], [ 77.199474122257556, 11.493592243083661 ], [ 77.199015990667419, 11.493595700720757 ] ] ] } },
{ "type": "Feature", "properties": { "latest_scene_id": "S1D_IW_GRDH_1SDV_20260915T003957_20260915T004022_004581_008881_7A96", "acquisition_datetime": "2026-09-15 00:39:57Z", "area_m2": 2500.0, "classification": "NRT_CANDIDATE_FLOOD_ANOMALY" }, "geometry": { "type": "Polygon", "coordinates": [ [ [ 77.132352892783501, 11.493639254155964 ], [ 77.132351193232921, 11.493413319015856 ], [ 77.13212211738869, 11.493414995157725 ], [ 77.132118718759017, 11.492963124798649 ], [ 77.132347794238754, 11.49296144872441 ], [ 77.132349493717996, 11.493187383872003 ], [ 77.132578569344318, 11.493185707584196 ], [ 77.132581968774304, 11.493637577800518 ], [ 77.132352892783501, 11.493639254155964 ] ] ] } },
{ "type": "Feature", "properties": { "latest_scene_id": "S1D_IW_GRDH_1SDV_20260915T003957_20260915T004022_004581_008881_7A96", "acquisition_datetime": "2026-09-15 00:39:57Z", "area_m2": 1250.0, "classification": "NRT_CANDIDATE_FLOOD_ANOMALY" }, "geometry": { "type": "Polygon", "coordinates": [ [ [ 77.203357698703726, 11.49220727723657 ], [ 77.203354186956702, 11.491755428237692 ], [ 77.20358325061305, 11.491753696373808 ], [ 77.203586762724441, 11.492205545302797 ], [ 77.203357698703726, 11.49220727723657 ] ] ] } },
{ "type": "Feature", "properties": { "latest_scene_id": "S1D_IW_GRDH_1SDV_20260915T003957_20260915T004022_004581_008881_7A96", "acquisition_datetime": "2026-09-15 00:39:57Z", "area_m2": 2500.0, "classification": "NRT_CANDIDATE_FLOOD_ANOMALY" }, "geometry": { "type": "Polygon", "coordinates": [ [ [ 77.204044890655283, 11.492202080896154 ], [ 77.204041377815173, 11.491750232106959 ], [ 77.20449950486983, 11.49174676712134 ], [ 77.204503018438686, 11.492198615770713 ], [ 77.204044890655283, 11.492202080896154 ] ] ] } },
{ "type": "Feature", "properties": { "latest_scene_id": "S1D_IW_GRDH_1SDV_20260915T003957_20260915T004022_004581_008881_7A96", "acquisition_datetime": "2026-09-15 00:39:57Z", "area_m2": 1250.0, "classification": "NRT_CANDIDATE_FLOOD_ANOMALY" }, "geometry": { "type": "Polygon", "coordinates": [ [ [ 77.176076276283297, 11.489475021774748 ], [ 77.176074542545493, 11.489249093096102 ], [ 77.176532674166765, 11.489245672785826 ], [ 77.176534408268864, 11.489471601395444 ], [ 77.176076276283297, 11.489475021774748 ] ] ] } },
{ "type": "Feature", "properties": { "latest_scene_id": "S1D_IW_GRDH_1SDV_20260915T003957_20260915T004022_004581_008881_7A96", "acquisition_datetime": "2026-09-15 00:39:57Z", "area_m2": 1250.0, "classification": "NRT_CANDIDATE_FLOOD_ANOMALY" }, "geometry": { "type": "Polygon", "coordinates": [ [ [ 77.185235406282359, 11.488954623046792 ], [ 77.185231924417593, 11.488502768437245 ], [ 77.185460988241061, 11.488501051289381 ], [ 77.185464470470095, 11.488952905829617 ], [ 77.185235406282359, 11.488954623046792 ] ] ] } },
{ "type": "Feature", "properties": { "latest_scene_id": "S1D_IW_GRDH_1SDV_20260915T003957_20260915T004022_004581_008881_7A96", "acquisition_datetime": "2026-09-15 00:39:57Z", "area_m2": 2500.0, "classification": "NRT_CANDIDATE_FLOOD_ANOMALY" }, "geometry": { "type": "Polygon", "coordinates": [ [ [ 77.172171765228953, 11.488148490337188 ], [ 77.17217003480576, 11.487922561049912 ], [ 77.171940969415232, 11.487924267674542 ], [ 77.171937509042053, 11.487472409019848 ], [ 77.172166574068328, 11.487470702464105 ], [ 77.172168304418875, 11.487696631758885 ], [ 77.172397369590939, 11.487694924989057 ], [ 77.172400830765284, 11.488146783498467 ], [ 77.172171765228953, 11.488148490337188 ] ] ] } },
{ "type": "Feature", "properties": { "latest_scene_id": "S1D_IW_GRDH_1SDV_20260915T003957_20260915T004022_004581_008881_7A96", "acquisition_datetime": "2026-09-15 00:39:57Z", "area_m2": 2500.0, "classification": "NRT_CANDIDATE_FLOOD_ANOMALY" }, "geometry": { "type": "Polygon", "coordinates": [ [ [ 77.134144685358692, 11.488203400379414 ], [ 77.134142985206893, 11.487977465420144 ], [ 77.133913914020781, 11.487979142187784 ], [ 77.133912214086806, 11.487753207190934 ], [ 77.134599426991613, 11.487748176450564 ], [ 77.13460112747201, 11.487974111345874 ], [ 77.134372056357307, 11.487975788472843 ], [ 77.134373756691247, 11.488201723398262 ], [ 77.134144685358692, 11.488203400379414 ] ] ] } },
{ "type": "Feature", "properties": { "latest_scene_id": "S1D_IW_GRDH_1SDV_20260915T003957_20260915T004022_004581_008881_7A96", "acquisition_datetime": "2026-09-15 00:39:57Z", "area_m2": 6875.0, "classification": "NRT_CANDIDATE_FLOOD_ANOMALY" }, "geometry": { "type": "Polygon", "coordinates": [ [ [ 77.359300213547641, 11.486016431944206 ], [ 77.359298334489409, 11.485790531998443 ], [ 77.359069300600297, 11.485792385235889 ], [ 77.359065542966164, 11.485340585258172 ], [ 77.358607475797555, 11.485344291044898 ], [ 77.358603719049171, 11.484892490902402 ], [ 77.358832752289217, 11.484890638173594 ], [ 77.358834630825669, 11.48511653820934 ], [ 77.35929269755141, 11.485112832138395 ], [ 77.359294576491294, 11.485338732095538 ], [ 77.359523609976975, 11.485336878753388 ], [ 77.359525489138306, 11.485562778669332 ], [ 77.359754522766522, 11.485560925110256 ], [ 77.35975828157153, 11.486012724855925 ], [ 77.359300213547641, 11.486016431944206 ] ] ] } },
{ "type": "Feature", "properties": { "latest_scene_id": "S1D_IW_GRDH_1SDV_20260915T003957_20260915T004022_004581_008881_7A96", "acquisition_datetime": "2026-09-15 00:39:57Z", "area_m2": 1250.0, "classification": "NRT_CANDIDATE_FLOOD_ANOMALY" }, "geometry": { "type": "Polygon", "coordinates": [ [ [ 77.13963216087609, 11.486807498311832 ], [ 77.139630456567431, 11.486581564143437 ], [ 77.1400885949312, 11.486578201852561 ], [ 77.140090299604111, 11.486804135953085 ], [ 77.13963216087609, 11.486807498311832 ] ] ] } },
{ "type": "Feature", "properties": { "latest_scene_id": "S1D_IW_GRDH_1SDV_20260915T003957_20260915T004022_004581_008881_7A96", "acquisition_datetime": "2026-09-15 00:39:57Z", "area_m2": 1250.0, "classification": "NRT_CANDIDATE_FLOOD_ANOMALY" }, "geometry": { "type": "Polygon", "coordinates": [ [ [ 77.137338060150327, 11.486372430308119 ], [ 77.137334655354238, 11.485920561274346 ], [ 77.13756372436535, 11.485918882116826 ], [ 77.137567129525678, 11.486370751082806 ], [ 77.137338060150327, 11.486372430308119 ] ] ] } },
{ "type": "Feature", "properties": { "latest_scene_id": "S1D_IW_GRDH_1SDV_20260915T003957_20260915T004022_004581_008881_7A96", "acquisition_datetime": "2026-09-15 00:39:57Z", "area_m2": 1875.0, "classification": "NRT_CANDIDATE_FLOOD_ANOMALY" }, "geometry": { "type": "Polygon", "coordinates": [ [ [ 77.143293852280308, 11.486328712068092 ], [ 77.143292145129365, 11.486102778435585 ], [ 77.143063076831055, 11.486104462117808 ], [ 77.143061369898078, 11.485878528447568 ], [ 77.14351950609462, 11.485875160971467 ], [ 77.143522920724877, 11.486327028172246 ], [ 77.143293852280308, 11.486328712068092 ] ] ] } },
{ "type": "Feature", "properties": { "latest_scene_id": "S1D_IW_GRDH_1SDV_20260915T003957_20260915T004022_004581_008881_7A96", "acquisition_datetime": "2026-09-15 00:39:57Z", "area_m2": 9375.0, "classification": "NRT_CANDIDATE_FLOOD_ANOMALY" }, "geometry": { "type": "Polygon", "coordinates": [ [ [ 77.357454797486596, 11.484449951322288 ], [ 77.357452920160313, 11.484224051050823 ], [ 77.356994854259526, 11.484227753950593 ], [ 77.356992977336603, 11.484001853600589 ], [ 77.3565349116421, 11.484005555707634 ], [ 77.356533035122538, 11.4837796552791 ], [ 77.356304002398147, 11.483781506026022 ], [ 77.356302126099948, 11.483555605556329 ], [ 77.355844060896899, 11.483559306436986 ], [ 77.355842185002018, 11.483333405888786 ], [ 77.356529282201606, 11.483327854410645 ], [ 77.356531158642369, 11.483553754846769 ], [ 77.356760191145398, 11.48355190395772 ], [ 77.356762067807523, 11.483777804352687 ], [ 77.357678198153337, 11.48377039885214 ], [ 77.357680075582749, 11.483996299093812 ], [ 77.357909108252613, 11.48399444723257 ], [ 77.35791098590343, 11.484220347433062 ], [ 77.357681953051582, 11.484222199331693 ], [ 77.357683830559836, 11.484448099565778 ], [ 77.357454797486596, 11.484449951322288 ] ] ] } },
{ "type": "Feature", "properties": { "latest_scene_id": "S1D_IW_GRDH_1SDV_20260915T003957_20260915T004022_004581_008881_7A96", "acquisition_datetime": "2026-09-15 00:39:57Z", "area_m2": 1250.0, "classification": "NRT_CANDIDATE_FLOOD_ANOMALY" }, "geometry": { "type": "Polygon", "coordinates": [ [ [ 77.269950469073478, 11.483788704198217 ], [ 77.269946853965436, 11.483336875577852 ], [ 77.270175900362958, 11.483335092688966 ], [ 77.270179515834997, 11.483786921237343 ], [ 77.269950469073478, 11.483788704198217 ] ] ] } },
{ "type": "Feature", "properties": { "latest_scene_id": "S1D_IW_GRDH_1SDV_20260915T003957_20260915T004022_004581_008881_7A96", "acquisition_datetime": "2026-09-15 00:39:57Z", "area_m2": 3750.0, "classification": "NRT_CANDIDATE_FLOOD_ANOMALY" }, "geometry": { "type": "Polygon", "coordinates": [ [ [ 77.128387375136242, 11.4841784214667 ], [ 77.12838229037132, 11.483500613840773 ], [ 77.128611358770698, 11.48349894206024 ], [ 77.128613053838805, 11.483724877905534 ], [ 77.128842122384654, 11.48372320591165 ], [ 77.128843817670443, 11.483949141719448 ], [ 77.129072886362778, 11.483947469512202 ], [ 77.129074581866263, 11.484173405282498 ], [ 77.128387375136242, 11.4841784214667 ] ] ] } },
{ "type": "Feature", "properties": { "latest_scene_id": "S1D_IW_GRDH_1SDV_20260915T003957_20260915T004022_004581_008881_7A96", "acquisition_datetime": "2026-09-15 00:39:57Z", "area_m2": 3750.0, "classification": "NRT_CANDIDATE_FLOOD_ANOMALY" }, "geometry": { "type": "Polygon", "coordinates": [ [ [ 77.353773394641181, 11.48244644705626 ], [ 77.35377152058075, 11.482220546153071 ], [ 77.353542488657496, 11.48222239448487 ], [ 77.353538741018568, 11.481770592592481 ], [ 77.353996804097989, 11.481766895898694 ], [ 77.353998678261632, 11.481992796772143 ], [ 77.354227709924245, 11.481990948118739 ], [ 77.354229584309181, 11.482216848951074 ], [ 77.354000552464655, 11.482218697641803 ], [ 77.354002426707027, 11.482444598507673 ], [ 77.353773394641181, 11.48244644705626 ] ] ] } },
{ "type": "Feature", "properties": { "latest_scene_id": "S1D_IW_GRDH_1SDV_20260915T003957_20260915T004022_004581_008881_7A96", "acquisition_datetime": "2026-09-15 00:39:57Z", "area_m2": 3125.0, "classification": "NRT_CANDIDATE_FLOOD_ANOMALY" }, "geometry": { "type": "Polygon", "coordinates": [ [ [ 77.167097792805961, 11.483667393740527 ], [ 77.167096067114556, 11.483441463621329 ], [ 77.166867004567635, 11.483443165606406 ], [ 77.166863553657663, 11.482991305288033 ], [ 77.167092615840474, 11.482989603371683 ], [ 77.167094341459389, 11.483215533498377 ], [ 77.167323403788018, 11.483213831368094 ], [ 77.167325129625226, 11.483439761456674 ], [ 77.167554192099658, 11.483438059112443 ], [ 77.167555918155188, 11.483663989162903 ], [ 77.167097792805961, 11.483667393740527 ] ] ] } },
{ "type": "Feature", "properties": { "latest_scene_id": "S1D_IW_GRDH_1SDV_20260915T003957_20260915T004022_004581_008881_7A96", "acquisition_datetime": "2026-09-15 00:39:57Z", "area_m2": 1250.0, "classification": "NRT_CANDIDATE_FLOOD_ANOMALY" }, "geometry": { "type": "Polygon", "coordinates": [ [ [ 77.127924153465813, 11.483503956863039 ], [ 77.127922458979512, 11.483278020912751 ], [ 77.128380595520881, 11.483274677957983 ], [ 77.12838229037132, 11.483500613840773 ], [ 77.127924153465813, 11.483503956863039 ] ] ] } },
{ "type": "Feature", "properties": { "latest_scene_id": "S1D_IW_GRDH_1SDV_20260915T003957_20260915T004022_004581_008881_7A96", "acquisition_datetime": "2026-09-15 00:39:57Z", "area_m2": 1250.0, "classification": "NRT_CANDIDATE_FLOOD_ANOMALY" }, "geometry": { "type": "Polygon", "coordinates": [ [ [ 77.1666344914386, 11.482993007024815 ], [ 77.166631041037675, 11.482541146622731 ], [ 77.166860102892642, 11.482539444954673 ], [ 77.166863553657663, 11.482991305288033 ], [ 77.1666344914386, 11.482993007024815 ] ] ] } },
{ "type": "Feature", "properties": { "latest_scene_id": "S1D_IW_GRDH_1SDV_20260915T003957_20260915T004022_004581_008881_7A96", "acquisition_datetime": "2026-09-15 00:39:57Z", "area_m2": 1250.0, "classification": "NRT_CANDIDATE_FLOOD_ANOMALY" }, "geometry": { "type": "Polygon", "coordinates": [ [ [ 77.11394754288429, 11.483153697936002 ], [ 77.113945859575466, 11.482927759926479 ], [ 77.1144039997166, 11.48292443901655 ], [ 77.114405683389577, 11.483150376959015 ], [ 77.11394754288429, 11.483153697936002 ] ] ] } },
{ "type": "Feature", "properties": { "latest_scene_id": "S1D_IW_GRDH_1SDV_20260915T003957_20260915T004022_004581_008881_7A96", "acquisition_datetime": "2026-09-15 00:39:57Z", "area_m2": 3125.0, "classification": "NRT_CANDIDATE_FLOOD_ANOMALY" }, "geometry": { "type": "Polygon", "coordinates": [ [ [ 77.259859777882909, 11.482285565437881 ], [ 77.259856179320877, 11.481833733604301 ], [ 77.260085226111016, 11.48183195886555 ], [ 77.260083426704696, 11.481606042978942 ], [ 77.26031247327505, 11.481604268096522 ], [ 77.260317872153337, 11.482282015637525 ], [ 77.259859777882909, 11.482285565437881 ] ] ] } },
{ "type": "Feature", "properties": { "latest_scene_id": "S1D_IW_GRDH_1SDV_20260915T003957_20260915T004022_004581_008881_7A96", "acquisition_datetime": "2026-09-15 00:39:57Z", "area_m2": 3750.0, "classification": "NRT_CANDIDATE_FLOOD_ANOMALY" }, "geometry": { "type": "Polygon", "coordinates": [ [ [ 77.127464322295793, 11.483281363149153 ], [ 77.127460934158236, 11.482829491102395 ], [ 77.127231866127147, 11.482831161883734 ], [ 77.127230172293807, 11.482605225821009 ], [ 77.127688307956277, 11.482601884146224 ], [ 77.127690002153756, 11.482827820141473 ], [ 77.127919070113691, 11.482826149000964 ], [ 77.127922458979512, 11.483278020912751 ], [ 77.127464322295793, 11.483281363149153 ] ] ] } },
{ "type": "Feature", "properties": { "latest_scene_id": "S1D_IW_GRDH_1SDV_20260915T003957_20260915T004022_004581_008881_7A96", "acquisition_datetime": "2026-09-15 00:39:57Z", "area_m2": 2500.0, "classification": "NRT_CANDIDATE_FLOOD_ANOMALY" }, "geometry": { "type": "Polygon", "coordinates": [ [ [ 77.113715106360459, 11.482703482065274 ], [ 77.113711740283705, 11.482251605960505 ], [ 77.113482670670962, 11.482253265865928 ], [ 77.113480987867675, 11.482027327774423 ], [ 77.113939126693694, 11.482024007851033 ], [ 77.113944176301999, 11.482701821913221 ], [ 77.113715106360459, 11.482703482065274 ] ] ] } },
{ "type": "Feature", "properties": { "latest_scene_id": "S1D_IW_GRDH_1SDV_20260915T003957_20260915T004022_004581_008881_7A96", "acquisition_datetime": "2026-09-15 00:39:57Z", "area_m2": 3750.0, "classification": "NRT_CANDIDATE_FLOOD_ANOMALY" }, "geometry": { "type": "Polygon", "coordinates": [ [ [ 77.145553779105285, 11.482245065189685 ], [ 77.145552070779132, 11.482019131829885 ], [ 77.14532300611684, 11.482020816695984 ], [ 77.145319589936236, 11.481568949897108 ], [ 77.145548654234446, 11.481567265099059 ], [ 77.145546946015941, 11.481341331728034 ], [ 77.145776010096228, 11.48133964678445 ], [ 77.145782843913736, 11.482243380109997 ], [ 77.145553779105285, 11.482245065189685 ] ] ] } },
{ "type": "Feature", "properties": { "latest_scene_id": "S1D_IW_GRDH_1SDV_20260915T003957_20260915T004022_004581_008881_7A96", "acquisition_datetime": "2026-09-15 00:39:57Z", "area_m2": 1250.0, "classification": "NRT_CANDIDATE_FLOOD_ANOMALY" }, "geometry": { "type": "Polygon", "coordinates": [ [ [ 77.113250235815741, 11.481803049337994 ], [ 77.113248553265208, 11.481577111205503 ], [ 77.11370669143372, 11.48157379177534 ], [ 77.113708374348363, 11.481799729840798 ], [ 77.113250235815741, 11.481803049337994 ] ] ] } },
{ "type": "Feature", "properties": { "latest_scene_id": "S1D_IW_GRDH_1SDV_20260915T003957_20260915T004022_004581_008881_7A96", "acquisition_datetime": "2026-09-15 00:39:57Z", "area_m2": 1250.0, "classification": "NRT_CANDIDATE_FLOOD_ANOMALY" }, "geometry": { "type": "Polygon", "coordinates": [ [ [ 77.344591547322935, 11.480035315300205 ], [ 77.344589680971609, 11.479809412865434 ], [ 77.345047743840453, 11.479805730838907 ], [ 77.345049610555606, 11.480031633199326 ], [ 77.344591547322935, 11.480035315300205 ] ] ] } },
{ "type": "Feature", "properties": { "latest_scene_id": "S1D_IW_GRDH_1SDV_20260915T003957_20260915T004022_004581_008881_7A96", "acquisition_datetime": "2026-09-15 00:39:57Z", "area_m2": 7500.0, "classification": "NRT_CANDIDATE_FLOOD_ANOMALY" }, "geometry": { "type": "Polygon", "coordinates": [ [ [ 77.117600860153885, 11.481545547618284 ], [ 77.117599174179787, 11.481319610119469 ], [ 77.11737010589674, 11.481321272943454 ], [ 77.11736673441888, 11.480869397867458 ], [ 77.117824870221426, 11.480866072174257 ], [ 77.117823184171542, 11.480640134697822 ], [ 77.118281319468338, 11.480636808353568 ], [ 77.118284692331656, 11.481088683168347 ], [ 77.118055624336904, 11.481090346497433 ], [ 77.118057310639657, 11.481316283932809 ], [ 77.118286378816464, 11.481314620570132 ], [ 77.118288065336685, 11.481540557968179 ], [ 77.117600860153885, 11.481545547618284 ] ] ] } },
{ "type": "Feature", "properties": { "latest_scene_id": "S1D_IW_GRDH_1SDV_20260915T003957_20260915T004022_004581_008881_7A96", "acquisition_datetime": "2026-09-15 00:39:57Z", "area_m2": 3125.0, "classification": "NRT_CANDIDATE_FLOOD_ANOMALY" }, "geometry": { "type": "Polygon", "coordinates": [ [ [ 77.319392289977657, 11.479559005972384 ], [ 77.319390443753392, 11.479333099458996 ], [ 77.319619478951097, 11.479331278384228 ], [ 77.319617632583729, 11.479105371903831 ], [ 77.32007570249894, 11.479101729289546 ], [ 77.320079396000125, 11.479553542099422 ], [ 77.319392289977657, 11.479559005972384 ] ] ] } },
{ "type": "Feature", "properties": { "latest_scene_id": "S1D_IW_GRDH_1SDV_20260915T003957_20260915T004022_004581_008881_7A96", "acquisition_datetime": "2026-09-15 00:39:57Z", "area_m2": 1250.0, "classification": "NRT_CANDIDATE_FLOOD_ANOMALY" }, "geometry": { "type": "Polygon", "coordinates": [ [ [ 77.156064976378673, 11.478778388418359 ], [ 77.156063260219483, 11.478552456571386 ], [ 77.156521380666561, 11.478549070806755 ], [ 77.156523097189705, 11.478775002585341 ], [ 77.156064976378673, 11.478778388418359 ] ] ] } },
{ "type": "Feature", "properties": { "latest_scene_id": "S1D_IW_GRDH_1SDV_20260915T003957_20260915T004022_004581_008881_7A96", "acquisition_datetime": "2026-09-15 00:39:57Z", "area_m2": 3750.0, "classification": "NRT_CANDIDATE_FLOOD_ANOMALY" }, "geometry": { "type": "Polygon", "coordinates": [ [ [ 77.161782872958781, 11.477606358904923 ], [ 77.161781152430891, 11.477380427895135 ], [ 77.16132303546425, 11.477383821574065 ], [ 77.161319595244706, 11.476931959406146 ], [ 77.161777711483538, 11.476928565864325 ], [ 77.161779431939124, 11.477154496881603 ], [ 77.162008490186267, 11.477152799807195 ], [ 77.162011931569836, 11.47760466176195 ], [ 77.161782872958781, 11.477606358904923 ] ] ] } },
{ "type": "Feature", "properties": { "latest_scene_id": "S1D_IW_GRDH_1SDV_20260915T003957_20260915T004022_004581_008881_7A96", "acquisition_datetime": "2026-09-15 00:39:57Z", "area_m2": 2500.0, "classification": "NRT_CANDIDATE_FLOOD_ANOMALY" }, "geometry": { "type": "Polygon", "coordinates": [ [ [ 77.132681952848998, 11.476464825096038 ], [ 77.132678558476371, 11.476012954378877 ], [ 77.133136681872671, 11.476009606046096 ], [ 77.133140076973078, 11.476461476627962 ], [ 77.132681952848998, 11.476464825096038 ] ] ] } },
{ "type": "Feature", "properties": { "latest_scene_id": "S1D_IW_GRDH_1SDV_20260915T003957_20260915T004022_004581_008881_7A96", "acquisition_datetime": "2026-09-15 00:39:57Z", "area_m2": 5000.0, "classification": "NRT_CANDIDATE_FLOOD_ANOMALY" }, "geometry": { "type": "Polygon", "coordinates": [ [ [ 77.114587619015907, 11.476822453339272 ], [ 77.114585936151087, 11.476596515325776 ], [ 77.114815001036717, 11.47659485536086 ], [ 77.114811635049207, 11.476142979389737 ], [ 77.11504069953557, 11.476141319312408 ], [ 77.115039016412908, 11.475915381354787 ], [ 77.115497144915579, 11.475912060728769 ], [ 77.115498828402139, 11.476137998619301 ], [ 77.115269763986547, 11.476139659055594 ], [ 77.115273130701894, 11.476591534892549 ], [ 77.115044065886977, 11.47659319521645 ], [ 77.115045749115751, 11.476819133162873 ], [ 77.114587619015907, 11.476822453339272 ] ] ] } },
{ "type": "Feature", "properties": { "latest_scene_id": "S1D_IW_GRDH_1SDV_20260915T003957_20260915T004022_004581_008881_7A96", "acquisition_datetime": "2026-09-15 00:39:57Z", "area_m2": 4375.0, "classification": "NRT_CANDIDATE_FLOOD_ANOMALY" }, "geometry": { "type": "Polygon", "coordinates": [ [ [ 77.334687411048563, 11.473337184318073 ], [ 77.334685553690491, 11.473111280174576 ], [ 77.334456525970793, 11.473113112092477 ], [ 77.334449097656005, 11.472209495332594 ], [ 77.334678124648534, 11.472207663562752 ], [ 77.334681839091445, 11.472659471876232 ], [ 77.334910866408507, 11.47265763985304 ], [ 77.334916438911023, 11.473335352183824 ], [ 77.334687411048563, 11.473337184318073 ] ] ] } },
{ "type": "Feature", "properties": { "latest_scene_id": "S1D_IW_GRDH_1SDV_20260915T003957_20260915T004022_004581_008881_7A96", "acquisition_datetime": "2026-09-15 00:39:57Z", "area_m2": 1875.0, "classification": "NRT_CANDIDATE_FLOOD_ANOMALY" }, "geometry": { "type": "Polygon", "coordinates": [ [ [ 77.295975664857409, 11.472966507707881 ], [ 77.295970185422505, 11.472288776619733 ], [ 77.296199218736646, 11.47228697501335 ], [ 77.296204698716991, 11.472964705992281 ], [ 77.295975664857409, 11.472966507707881 ] ] ] } },
{ "type": "Feature", "properties": { "latest_scene_id": "S1D_IW_GRDH_1SDV_20260915T003957_20260915T004022_004581_008881_7A96", "acquisition_datetime": "2026-09-15 00:39:57Z", "area_m2": 3125.0, "classification": "NRT_CANDIDATE_FLOOD_ANOMALY" }, "geometry": { "type": "Polygon", "coordinates": [ [ [ 77.114789759578642, 11.473205785213478 ], [ 77.114784712241885, 11.472527971083222 ], [ 77.115242835357563, 11.472524651822392 ], [ 77.115246200940959, 11.472976527778801 ], [ 77.115017139037008, 11.472978187566014 ], [ 77.115018821699877, 11.473204125572163 ], [ 77.114789759578642, 11.473205785213478 ] ] ] } },
{ "type": "Feature", "properties": { "latest_scene_id": "S1D_IW_GRDH_1SDV_20260915T003957_20260915T004022_004581_008881_7A96", "acquisition_datetime": "2026-09-15 00:39:57Z", "area_m2": 3125.0, "classification": "NRT_CANDIDATE_FLOOD_ANOMALY" }, "geometry": { "type": "Polygon", "coordinates": [ [ [ 77.296193739101838, 11.471609244000447 ], [ 77.296190086203922, 11.471157423306307 ], [ 77.295961053798749, 11.471159224730656 ], [ 77.295959227589165, 11.470933314341519 ], [ 77.296188259812538, 11.470931512953573 ], [ 77.296186433459567, 11.470705602597068 ], [ 77.296415465462786, 11.470703801066216 ], [ 77.296422771832184, 11.471607442323959 ], [ 77.296193739101838, 11.471609244000447 ] ] ] } },
{ "type": "Feature", "properties": { "latest_scene_id": "S1D_IW_GRDH_1SDV_20260915T003957_20260915T004022_004581_008881_7A96", "acquisition_datetime": "2026-09-15 00:39:57Z", "area_m2": 1250.0, "classification": "NRT_CANDIDATE_FLOOD_ANOMALY" }, "geometry": { "type": "Polygon", "coordinates": [ [ [ 77.115692543173381, 11.471391642223002 ], [ 77.115690860247852, 11.471165704287634 ], [ 77.116148980897904, 11.471162383994059 ], [ 77.116150664187188, 11.471388321862321 ], [ 77.115692543173381, 11.471391642223002 ] ] ] } },
{ "type": "Feature", "properties": { "latest_scene_id": "S1D_IW_GRDH_1SDV_20260915T003957_20260915T004022_004581_008881_7A96", "acquisition_datetime": "2026-09-15 00:39:57Z", "area_m2": 1875.0, "classification": "NRT_CANDIDATE_FLOOD_ANOMALY" }, "geometry": { "type": "Polygon", "coordinates": [ [ [ 77.114540512167309, 11.470496187550379 ], [ 77.114538830292602, 11.47027024943238 ], [ 77.114767890084707, 11.47026859040645 ], [ 77.1147662080635, 11.470042652318249 ], [ 77.114995267638392, 11.470040993146469 ], [ 77.114998632079903, 11.470492869252062 ], [ 77.114540512167309, 11.470496187550379 ] ] ] } },
{ "type": "Feature", "properties": { "latest_scene_id": "S1D_IW_GRDH_1SDV_20260915T003957_20260915T004022_004581_008881_7A96", "acquisition_datetime": "2026-09-15 00:39:57Z", "area_m2": 5000.0, "classification": "NRT_CANDIDATE_FLOOD_ANOMALY" }, "geometry": { "type": "Polygon", "coordinates": [ [ [ 77.255634609476814, 11.469440231434776 ], [ 77.255631021766149, 11.46898839788302 ], [ 77.255401984625635, 11.468990167172484 ], [ 77.255403778280339, 11.46921608398601 ], [ 77.255174740920353, 11.469217853131937 ], [ 77.255171154012189, 11.468766019429601 ], [ 77.255858264888403, 11.468760711668491 ], [ 77.255860058868933, 11.468986628414248 ], [ 77.256089095934016, 11.468984858766174 ], [ 77.256092684371765, 11.469436692174854 ], [ 77.255634609476814, 11.469440231434776 ] ] ] } },
{ "type": "Feature", "properties": { "latest_scene_id": "S1D_IW_GRDH_1SDV_20260915T003957_20260915T004022_004581_008881_7A96", "acquisition_datetime": "2026-09-15 00:39:57Z", "area_m2": 1250.0, "classification": "NRT_CANDIDATE_FLOOD_ANOMALY" }, "geometry": { "type": "Polygon", "coordinates": [ [ [ 77.114993585470671, 11.469815055088073 ], [ 77.114991903338336, 11.469589117025947 ], [ 77.11545002165461, 11.469585798278407 ], [ 77.115451704150658, 11.469811736273444 ], [ 77.114993585470671, 11.469815055088073 ] ] ] } },
{ "type": "Feature", "properties": { "latest_scene_id": "S1D_IW_GRDH_1SDV_20260915T003957_20260915T004022_004581_008881_7A96", "acquisition_datetime": "2026-09-15 00:39:57Z", "area_m2": 1250.0, "classification": "NRT_CANDIDATE_FLOOD_ANOMALY" }, "geometry": { "type": "Polygon", "coordinates": [ [ [ 77.311284081766217, 11.468327237281537 ], [ 77.311282243841248, 11.468101329294266 ], [ 77.311740298726193, 11.468097703191193 ], [ 77.311742137014619, 11.468323611105163 ], [ 77.311284081766217, 11.468327237281537 ] ] ] } },
{ "type": "Feature", "properties": { "latest_scene_id": "S1D_IW_GRDH_1SDV_20260915T003957_20260915T004022_004581_008881_7A96", "acquisition_datetime": "2026-09-15 00:39:57Z", "area_m2": 1250.0, "classification": "NRT_CANDIDATE_FLOOD_ANOMALY" }, "geometry": { "type": "Polygon", "coordinates": [ [ [ 77.165153290004298, 11.468995521466073 ], [ 77.16515156812288, 11.468769590828646 ], [ 77.165609670036432, 11.468766193657078 ], [ 77.165611392281477, 11.46899212422583 ], [ 77.165153290004298, 11.468995521466073 ] ] ] } },
{ "type": "Feature", "properties": { "latest_scene_id": "S1D_IW_GRDH_1SDV_20260915T003957_20260915T004022_004581_008881_7A96", "acquisition_datetime": "2026-09-15 00:39:57Z", "area_m2": 6250.0, "classification": "NRT_CANDIDATE_FLOOD_ANOMALY" }, "geometry": { "type": "Polygon", "coordinates": [ [ [ 77.295688207281245, 11.465739174721177 ], [ 77.295686382174594, 11.465513264205073 ], [ 77.295228326259178, 11.465516864337385 ], [ 77.295221027669811, 11.464613221944088 ], [ 77.295450054919968, 11.464611422113123 ], [ 77.295451879691441, 11.464837332680712 ], [ 77.295680907084915, 11.464835532634135 ], [ 77.295682732076429, 11.465061443161554 ], [ 77.295911759613205, 11.465059642899359 ], [ 77.295917235363078, 11.465737374349782 ], [ 77.295688207281245, 11.465739174721177 ] ] ] } },
{ "type": "Feature", "properties": { "latest_scene_id": "S1D_IW_GRDH_1SDV_20260915T003957_20260915T004022_004581_008881_7A96", "acquisition_datetime": "2026-09-15 00:39:57Z", "area_m2": 1250.0, "classification": "NRT_CANDIDATE_FLOOD_ANOMALY" }, "geometry": { "type": "Polygon", "coordinates": [ [ [ 77.259930615289775, 11.46240317884909 ], [ 77.259927023014413, 11.461951346424378 ], [ 77.260156053767048, 11.46194957465978 ], [ 77.260159646405711, 11.462401407012825 ], [ 77.259930615289775, 11.46240317884909 ] ] ] } },
{ "type": "Feature", "properties": { "latest_scene_id": "S1D_IW_GRDH_1SDV_20260915T003957_20260915T004022_004581_008881_7A96", "acquisition_datetime": "2026-09-15 00:39:57Z", "area_m2": 6250.0, "classification": "NRT_CANDIDATE_FLOOD_ANOMALY" }, "geometry": { "type": "Polygon", "coordinates": [ [ [ 77.293594136199076, 11.461688974237418 ], [ 77.293592313417847, 11.461463063325985 ], [ 77.293363288403881, 11.461464861214148 ], [ 77.293361465842608, 11.46123895026258 ], [ 77.293132440971931, 11.461240747935214 ], [ 77.293130618630613, 11.461014836943521 ], [ 77.293588667970397, 11.461011241491811 ], [ 77.293586845304176, 11.460785330569065 ], [ 77.293128796327622, 11.460788925948053 ], [ 77.293126974062972, 11.460563014948814 ], [ 77.293814046925476, 11.460557621720694 ], [ 77.293823161356329, 11.461687176133729 ], [ 77.293594136199076, 11.461688974237418 ] ] ] } },
{ "type": "Feature", "properties": { "latest_scene_id": "S1D_IW_GRDH_1SDV_20260915T003957_20260915T004022_004581_008881_7A96", "acquisition_datetime": "2026-09-15 00:39:57Z", "area_m2": 2500.0, "classification": "NRT_CANDIDATE_FLOOD_ANOMALY" }, "geometry": { "type": "Polygon", "coordinates": [ [ [ 77.284414945065805, 11.459501627665357 ], [ 77.284413129931508, 11.459275715264523 ], [ 77.285329228463382, 11.459268552035926 ], [ 77.285331044324039, 11.459494464291851 ], [ 77.284414945065805, 11.459501627665357 ] ] ] } },
{ "type": "Feature", "properties": { "latest_scene_id": "S1D_IW_GRDH_1SDV_20260915T003957_20260915T004022_004581_008881_7A96", "acquisition_datetime": "2026-09-15 00:39:57Z", "area_m2": 5000.0, "classification": "NRT_CANDIDATE_FLOOD_ANOMALY" }, "geometry": { "type": "Polygon", "coordinates": [ [ [ 77.285787277500106, 11.459264969346833 ], [ 77.285783645167072, 11.45881314496863 ], [ 77.286699741329301, 11.458805977730851 ], [ 77.28670337511501, 11.459257801819064 ], [ 77.285787277500106, 11.459264969346833 ] ] ] } },
{ "type": "Feature", "properties": { "latest_scene_id": "S1D_IW_GRDH_1SDV_20260915T003957_20260915T004022_004581_008881_7A96", "acquisition_datetime": "2026-09-15 00:39:57Z", "area_m2": 1250.0, "classification": "NRT_CANDIDATE_FLOOD_ANOMALY" }, "geometry": { "type": "Polygon", "coordinates": [ [ [ 77.288068430765563, 11.458117485992677 ], [ 77.288066612955333, 11.457891574149217 ], [ 77.288524658895639, 11.45788798759634 ], [ 77.288526477068999, 11.458113899367241 ], [ 77.288068430765563, 11.458117485992677 ] ] ] } },
{ "type": "Feature", "properties": { "latest_scene_id": "S1D_IW_GRDH_1SDV_20260915T003957_20260915T004022_004581_008881_7A96", "acquisition_datetime": "2026-09-15 00:39:57Z", "area_m2": 3750.0, "classification": "NRT_CANDIDATE_FLOOD_ANOMALY" }, "geometry": { "type": "Polygon", "coordinates": [ [ [ 77.280741481162352, 11.45840068756031 ], [ 77.2807360451622, 11.457722948552846 ], [ 77.281194093183601, 11.457719373535413 ], [ 77.281199530273184, 11.458397112325889 ], [ 77.280741481162352, 11.45840068756031 ] ] ] } },
{ "type": "Feature", "properties": { "latest_scene_id": "S1D_IW_GRDH_1SDV_20260915T003957_20260915T004022_004581_008881_7A96", "acquisition_datetime": "2026-09-15 00:39:57Z", "area_m2": 1250.0, "classification": "NRT_CANDIDATE_FLOOD_ANOMALY" }, "geometry": { "type": "Polygon", "coordinates": [ [ [ 77.275683044498237, 11.455954915916292 ], [ 77.275681236873197, 11.455729002081473 ], [ 77.27613928330257, 11.455725435594475 ], [ 77.276141091290683, 11.455951349357125 ], [ 77.275683044498237, 11.455954915916292 ] ] ] } },
{ "type": "Feature", "properties": { "latest_scene_id": "S1D_IW_GRDH_1SDV_20260915T003957_20260915T004022_004581_008881_7A96", "acquisition_datetime": "2026-09-15 00:39:57Z", "area_m2": 1250.0, "classification": "NRT_CANDIDATE_FLOOD_ANOMALY" }, "geometry": { "type": "Polygon", "coordinates": [ [ [ 77.379197692040179, 11.455130662884223 ], [ 77.379195802376174, 11.454904765728271 ], [ 77.379653813632913, 11.454901037381827 ], [ 77.37965570365985, 11.455126934462333 ], [ 77.379197692040179, 11.455130662884223 ] ] ] } },
{ "type": "Feature", "properties": { "latest_scene_id": "S1D_IW_GRDH_1SDV_20260915T003957_20260915T004022_004581_008881_7A96", "acquisition_datetime": "2026-09-15 00:39:57Z", "area_m2": 3125.0, "classification": "NRT_CANDIDATE_FLOOD_ANOMALY" }, "geometry": { "type": "Polygon", "coordinates": [ [ [ 77.289884243074226, 11.456069931078449 ], [ 77.289882424155977, 11.45584401949141 ], [ 77.290111445205227, 11.455842225198431 ], [ 77.290107807120492, 11.45539040208566 ], [ 77.290565848378037, 11.455386813107738 ], [ 77.290567667764293, 11.455612724593381 ], [ 77.290338646973154, 11.45561451920819 ], [ 77.290342285497488, 11.456066342240804 ], [ 77.289884243074226, 11.456069931078449 ] ] ] } },
{ "type": "Feature", "properties": { "latest_scene_id": "S1D_IW_GRDH_1SDV_20260915T003957_20260915T004022_004581_008881_7A96", "acquisition_datetime": "2026-09-15 00:39:57Z", "area_m2": 1250.0, "classification": "NRT_CANDIDATE_FLOOD_ANOMALY" }, "geometry": { "type": "Polygon", "coordinates": [ [ [ 77.275223190291669, 11.455732567852149 ], [ 77.275221383067716, 11.455506653941415 ], [ 77.2756794292862, 11.455503088242891 ], [ 77.275681236873197, 11.455729002081473 ], [ 77.275223190291669, 11.455732567852149 ] ] ] } },
{ "type": "Feature", "properties": { "latest_scene_id": "S1D_IW_GRDH_1SDV_20260915T003957_20260915T004022_004581_008881_7A96", "acquisition_datetime": "2026-09-15 00:39:57Z", "area_m2": 1875.0, "classification": "NRT_CANDIDATE_FLOOD_ANOMALY" }, "geometry": { "type": "Polygon", "coordinates": [ [ [ 77.290794868949362, 11.455385018350174 ], [ 77.290793049419875, 11.455159106897082 ], [ 77.291022069771401, 11.455157311996771 ], [ 77.291020250098683, 11.454931400576235 ], [ 77.291249270230395, 11.45492960553319 ], [ 77.29125290997716, 11.455381428297844 ], [ 77.290794868949362, 11.455385018350174 ] ] ] } },
{ "type": "Feature", "properties": { "latest_scene_id": "S1D_IW_GRDH_1SDV_20260915T003957_20260915T004022_004581_008881_7A96", "acquisition_datetime": "2026-09-15 00:39:57Z", "area_m2": 3125.0, "classification": "NRT_CANDIDATE_FLOOD_ANOMALY" }, "geometry": { "type": "Polygon", "coordinates": [ [ [ 77.117400477852158, 11.454658959051576 ], [ 77.117397114366355, 11.454207083162157 ], [ 77.118084253549952, 11.454202105703349 ], [ 77.11808593581992, 11.454428043549179 ], [ 77.11785688927921, 11.454429702914828 ], [ 77.117858571402991, 11.454655640790515 ], [ 77.117400477852158, 11.454658959051576 ] ] ] } },
{ "type": "Feature", "properties": { "latest_scene_id": "S1D_IW_GRDH_1SDV_20260915T003957_20260915T004022_004581_008881_7A96", "acquisition_datetime": "2026-09-15 00:39:57Z", "area_m2": 2500.0, "classification": "NRT_CANDIDATE_FLOOD_ANOMALY" }, "geometry": { "type": "Polygon", "coordinates": [ [ [ 77.127461607302905, 11.452326426999242 ], [ 77.127458228548903, 11.451874553996975 ], [ 77.127916314619299, 11.451871220781802 ], [ 77.127919694099504, 11.452323093649115 ], [ 77.127461607302905, 11.452326426999242 ] ] ] } },
{ "type": "Feature", "properties": { "latest_scene_id": "S1D_IW_GRDH_1SDV_20260915T003957_20260915T004022_004581_008881_7A96", "acquisition_datetime": "2026-09-15 00:39:57Z", "area_m2": 2500.0, "classification": "NRT_CANDIDATE_FLOOD_ANOMALY" }, "geometry": { "type": "Polygon", "coordinates": [ [ [ 77.101803513456801, 11.451834130453106 ], [ 77.101800175581303, 11.451382249917259 ], [ 77.102258268482117, 11.451378957019504 ], [ 77.102261607083804, 11.451830837422019 ], [ 77.101803513456801, 11.451834130453106 ] ] ] } },
{ "type": "Feature", "properties": { "latest_scene_id": "S1D_IW_GRDH_1SDV_20260915T003957_20260915T004022_004581_008881_7A96", "acquisition_datetime": "2026-09-15 00:39:57Z", "area_m2": 3125.0, "classification": "NRT_CANDIDATE_FLOOD_ANOMALY" }, "geometry": { "type": "Polygon", "coordinates": [ [ [ 77.105239212231297, 11.451809415257829 ], [ 77.105237540552736, 11.451583475492113 ], [ 77.105466586674737, 11.45158182641303 ], [ 77.105464914849833, 11.451355886676973 ], [ 77.105693960755076, 11.451354237452184 ], [ 77.105692288783843, 11.451128297745797 ], [ 77.105921334472356, 11.451126648375311 ], [ 77.105924678813125, 11.451578527717578 ], [ 77.105695632761538, 11.451580177154852 ], [ 77.105697304803186, 11.451806116853794 ], [ 77.105239212231297, 11.451809415257829 ] ] ] } },
{ "type": "Feature", "properties": { "latest_scene_id": "S1D_IW_GRDH_1SDV_20260915T003957_20260915T004022_004581_008881_7A96", "acquisition_datetime": "2026-09-15 00:39:57Z", "area_m2": 5000.0, "classification": "NRT_CANDIDATE_FLOOD_ANOMALY" }, "geometry": { "type": "Polygon", "coordinates": [ [ [ 77.116688122738722, 11.451274864054914 ], [ 77.11668140021095, 11.450371111634725 ], [ 77.116910443660672, 11.450369453768946 ], [ 77.116912124421063, 11.450595391846017 ], [ 77.117141168016914, 11.450593733767597 ], [ 77.11714284899422, 11.450819671807375 ], [ 77.117371892736202, 11.45081801351631 ], [ 77.117373573930436, 11.451043951518786 ], [ 77.117144530006911, 11.451045609843421 ], [ 77.117146211055001, 11.451271547875745 ], [ 77.116688122738722, 11.451274864054914 ] ] ] } },
{ "type": "Feature", "properties": { "latest_scene_id": "S1D_IW_GRDH_1SDV_20260915T003957_20260915T004022_004581_008881_7A96", "acquisition_datetime": "2026-09-15 00:39:57Z", "area_m2": 4375.0, "classification": "NRT_CANDIDATE_FLOOD_ANOMALY" }, "geometry": { "type": "Polygon", "coordinates": [ [ [ 77.106145363333951, 11.450447179884591 ], [ 77.10614369114046, 11.450221240230094 ], [ 77.106601780889193, 11.450217940860904 ], [ 77.106600108367886, 11.449992001269489 ], [ 77.106829153007908, 11.449990351349694 ], [ 77.106827480340286, 11.44976441178796 ], [ 77.107056524763578, 11.449762761722509 ], [ 77.107061543416648, 11.450440580296304 ], [ 77.106145363333951, 11.450447179884591 ] ] ] } },
{ "type": "Feature", "properties": { "latest_scene_id": "S1D_IW_GRDH_1SDV_20260915T003957_20260915T004022_004581_008881_7A96", "acquisition_datetime": "2026-09-15 00:39:57Z", "area_m2": 5000.0, "classification": "NRT_CANDIDATE_FLOOD_ANOMALY" }, "geometry": { "type": "Polygon", "coordinates": [ [ [ 77.40478499721938, 11.447692193572822 ], [ 77.404781179856869, 11.447240407508673 ], [ 77.405010175041326, 11.44723852463428 ], [ 77.405006357476935, 11.446786738631205 ], [ 77.405464347, 11.446782972498305 ], [ 77.405468165289676, 11.447234758348863 ], [ 77.405239170185595, 11.447236641581013 ], [ 77.405242988273429, 11.447688427492654 ], [ 77.40478499721938, 11.447692193572822 ] ] ] } },
{ "type": "Feature", "properties": { "latest_scene_id": "S1D_IW_GRDH_1SDV_20260915T003957_20260915T004022_004581_008881_7A96", "acquisition_datetime": "2026-09-15 00:39:57Z", "area_m2": 1250.0, "classification": "NRT_CANDIDATE_FLOOD_ANOMALY" }, "geometry": { "type": "Polygon", "coordinates": [ [ [ 77.420577910868474, 11.446658288731296 ], [ 77.420574068807198, 11.446206507914923 ], [ 77.420803060484147, 11.446204612851696 ], [ 77.420806902908041, 11.446656393591324 ], [ 77.420577910868474, 11.446658288731296 ] ] ] } },
{ "type": "Feature", "properties": { "latest_scene_id": "S1D_IW_GRDH_1SDV_20260915T003957_20260915T004022_004581_008881_7A96", "acquisition_datetime": "2026-09-15 00:39:57Z", "area_m2": 3125.0, "classification": "NRT_CANDIDATE_FLOOD_ANOMALY" }, "geometry": { "type": "Polygon", "coordinates": [ [ [ 77.125595506597591, 11.447821017146889 ], [ 77.125592132169672, 11.447369143455983 ], [ 77.126050211548801, 11.447365814454608 ], [ 77.126051899107935, 11.447591751234508 ], [ 77.12628093892566, 11.44759008643158 ], [ 77.126282626701794, 11.447816023174036 ], [ 77.125595506597591, 11.447821017146889 ] ] ] } },
{ "type": "Feature", "properties": { "latest_scene_id": "S1D_IW_GRDH_1SDV_20260915T003957_20260915T004022_004581_008881_7A96", "acquisition_datetime": "2026-09-15 00:39:57Z", "area_m2": 1250.0, "classification": "NRT_CANDIDATE_FLOOD_ANOMALY" }, "geometry": { "type": "Polygon", "coordinates": [ [ [ 77.102910349304679, 11.446629273304794 ], [ 77.102908680250195, 11.446403333119811 ], [ 77.103366764813416, 11.446400039898549 ], [ 77.103368434230831, 11.446625980016835 ], [ 77.102910349304679, 11.446629273304794 ] ] ] } },
{ "type": "Feature", "properties": { "latest_scene_id": "S1D_IW_GRDH_1SDV_20260915T003957_20260915T004022_004581_008881_7A96", "acquisition_datetime": "2026-09-15 00:39:57Z", "area_m2": 1875.0, "classification": "NRT_CANDIDATE_FLOOD_ANOMALY" }, "geometry": { "type": "Polygon", "coordinates": [ [ [ 77.134930214967568, 11.440296754623075 ], [ 77.134928521473327, 11.440070819041432 ], [ 77.135157553915775, 11.440069148374025 ], [ 77.135155860275873, 11.43984321282251 ], [ 77.135384892501307, 11.439841542010065 ], [ 77.13538828017947, 11.440293413041655 ], [ 77.134930214967568, 11.440296754623075 ] ] ] } },
{ "type": "Feature", "properties": { "latest_scene_id": "S1D_IW_GRDH_1SDV_20260915T003957_20260915T004022_004581_008881_7A96", "acquisition_datetime": "2026-09-15 00:39:57Z", "area_m2": 3750.0, "classification": "NRT_CANDIDATE_FLOOD_ANOMALY" }, "geometry": { "type": "Polygon", "coordinates": [ [ [ 77.384775197885816, 11.437464090238612 ], [ 77.384771415741938, 11.437012297220097 ], [ 77.38545838661004, 11.437006699967458 ], [ 77.385462169840906, 11.437458492759111 ], [ 77.384775197885816, 11.437464090238612 ] ] ] } },
{ "type": "Feature", "properties": { "latest_scene_id": "S1D_IW_GRDH_1SDV_20260915T003957_20260915T004022_004581_008881_7A96", "acquisition_datetime": "2026-09-15 00:39:57Z", "area_m2": 2500.0, "classification": "NRT_CANDIDATE_FLOOD_ANOMALY" }, "geometry": { "type": "Polygon", "coordinates": [ [ [ 77.332780338166302, 11.436301631694951 ], [ 77.332778488476038, 11.436075726672783 ], [ 77.332549490246834, 11.436077551269809 ], [ 77.332547640776724, 11.435851646206881 ], [ 77.333234634803915, 11.435846171990546 ], [ 77.333236484817533, 11.436072076942519 ], [ 77.33300748666629, 11.436073901897018 ], [ 77.333009336537714, 11.436299806882204 ], [ 77.332780338166302, 11.436301631694951 ] ] ] } },
{ "type": "Feature", "properties": { "latest_scene_id": "S1D_IW_GRDH_1SDV_20260915T003957_20260915T004022_004581_008881_7A96", "acquisition_datetime": "2026-09-15 00:39:57Z", "area_m2": 1250.0, "classification": "NRT_CANDIDATE_FLOOD_ANOMALY" }, "geometry": { "type": "Polygon", "coordinates": [ [ [ 77.136513107777972, 11.437573831576334 ], [ 77.136509719143504, 11.437121960793991 ], [ 77.136738748978999, 11.437120289314745 ], [ 77.136742137976057, 11.437572160029333 ], [ 77.136513107777972, 11.437573831576334 ] ] ] } },
{ "type": "Feature", "properties": { "latest_scene_id": "S1D_IW_GRDH_1SDV_20260915T003957_20260915T004022_004581_008881_7A96", "acquisition_datetime": "2026-09-15 00:39:57Z", "area_m2": 1250.0, "classification": "NRT_CANDIDATE_FLOOD_ANOMALY" }, "geometry": { "type": "Polygon", "coordinates": [ [ [ 77.204057974844602, 11.434813717191338 ], [ 77.204056227402518, 11.434587791916041 ], [ 77.204514262372115, 11.43458434389937 ], [ 77.204516010176619, 11.434810269104769 ], [ 77.204057974844602, 11.434813717191338 ] ] ] } },
{ "type": "Feature", "properties": { "latest_scene_id": "S1D_IW_GRDH_1SDV_20260915T003957_20260915T004022_004581_008881_7A96", "acquisition_datetime": "2026-09-15 00:39:57Z", "area_m2": 10625.0, "classification": "NRT_CANDIDATE_FLOOD_ANOMALY" }, "geometry": { "type": "Polygon", "coordinates": [ [ [ 77.355886562900011, 11.433405607521031 ], [ 77.355880960471126, 11.43272790356826 ], [ 77.356109952168595, 11.432726061263695 ], [ 77.356104349550691, 11.432048357388975 ], [ 77.3563333406655, 11.432046515017797 ], [ 77.356331473023843, 11.431820613756024 ], [ 77.356789454773164, 11.431816928552408 ], [ 77.356793190820198, 11.432268730922747 ], [ 77.356564199603042, 11.432270573688603 ], [ 77.356571671445295, 11.433174178533401 ], [ 77.356342679464348, 11.433176021270018 ], [ 77.356344547342246, 11.433401922509129 ], [ 77.355886562900011, 11.433405607521031 ] ] ] } },
{ "type": "Feature", "properties": { "latest_scene_id": "S1D_IW_GRDH_1SDV_20260915T003957_20260915T004022_004581_008881_7A96", "acquisition_datetime": "2026-09-15 00:39:57Z", "area_m2": 10625.0, "classification": "NRT_CANDIDATE_FLOOD_ANOMALY" }, "geometry": { "type": "Polygon", "coordinates": [ [ [ 77.195339611893957, 11.432845755422628 ], [ 77.195337871668315, 11.432619828788368 ], [ 77.194879837019286, 11.432623261876317 ], [ 77.194876357402777, 11.432171408457362 ], [ 77.196479475495778, 11.432159390008838 ], [ 77.196481216553934, 11.432385316476495 ], [ 77.196252199612402, 11.432387033968757 ], [ 77.196255681476487, 11.4328388869625 ], [ 77.195339611893957, 11.432845755422628 ] ] ] } },
{ "type": "Feature", "properties": { "latest_scene_id": "S1D_IW_GRDH_1SDV_20260915T003957_20260915T004022_004581_008881_7A96", "acquisition_datetime": "2026-09-15 00:39:57Z", "area_m2": 1875.0, "classification": "NRT_CANDIDATE_FLOOD_ANOMALY" }, "geometry": { "type": "Polygon", "coordinates": [ [ [ 77.145624956352137, 11.430954741768955 ], [ 77.145621555294568, 11.43050287348639 ], [ 77.146079601555527, 11.430499518014908 ], [ 77.146081302428726, 11.430725452090005 ], [ 77.145852279134999, 11.430727129949142 ], [ 77.145853979862906, 11.430953064054536 ], [ 77.145624956352137, 11.430954741768955 ] ] ] } },
{ "type": "Feature", "properties": { "latest_scene_id": "S1D_IW_GRDH_1SDV_20260915T003957_20260915T004022_004581_008881_7A96", "acquisition_datetime": "2026-09-15 00:39:57Z", "area_m2": 1250.0, "classification": "NRT_CANDIDATE_FLOOD_ANOMALY" }, "geometry": { "type": "Polygon", "coordinates": [ [ [ 77.181787747403391, 11.427750372373373 ], [ 77.181784290046096, 11.42729851483467 ], [ 77.182013305126219, 11.427296809399214 ], [ 77.18201676284572, 11.427748666868732 ], [ 77.181787747403391, 11.427750372373373 ] ] ] } },
{ "type": "Feature", "properties": { "latest_scene_id": "S1D_IW_GRDH_1SDV_20260915T003957_20260915T004022_004581_008881_7A96", "acquisition_datetime": "2026-09-15 00:39:57Z", "area_m2": 4375.0, "classification": "NRT_CANDIDATE_FLOOD_ANOMALY" }, "geometry": { "type": "Polygon", "coordinates": [ [ [ 77.141482161966195, 11.428273692802755 ], [ 77.141480465110135, 11.428047758006853 ], [ 77.141251443273731, 11.428049431883711 ], [ 77.1412463534637, 11.427371627371803 ], [ 77.141704396013949, 11.427368279643112 ], [ 77.141711183947919, 11.428272018713239 ], [ 77.141482161966195, 11.428273692802755 ] ] ] } },
{ "type": "Feature", "properties": { "latest_scene_id": "S1D_IW_GRDH_1SDV_20260915T003957_20260915T004022_004581_008881_7A96", "acquisition_datetime": "2026-09-15 00:39:57Z", "area_m2": 1250.0, "classification": "NRT_CANDIDATE_FLOOD_ANOMALY" }, "geometry": { "type": "Polygon", "coordinates": [ [ [ 77.183383935094326, 11.426834715965285 ], [ 77.183380475493493, 11.426382858881185 ], [ 77.18360948959392, 11.426381152333532 ], [ 77.183612949556931, 11.426833009348393 ], [ 77.183383935094326, 11.426834715965285 ] ] ] } },
{ "type": "Feature", "properties": { "latest_scene_id": "S1D_IW_GRDH_1SDV_20260915T003957_20260915T004022_004581_008881_7A96", "acquisition_datetime": "2026-09-15 00:39:57Z", "area_m2": 1250.0, "classification": "NRT_CANDIDATE_FLOOD_ANOMALY" }, "geometry": { "type": "Polygon", "coordinates": [ [ [ 77.379860757314901, 11.424852972901558 ], [ 77.379858872254488, 11.424627075389262 ], [ 77.380316834628772, 11.424623355723154 ], [ 77.380318720051108, 11.424849253159994 ], [ 77.379860757314901, 11.424852972901558 ] ] ] } },
{ "type": "Feature", "properties": { "latest_scene_id": "S1D_IW_GRDH_1SDV_20260915T003957_20260915T004022_004581_008881_7A96", "acquisition_datetime": "2026-09-15 00:39:57Z", "area_m2": 26875.0, "classification": "NRT_CANDIDATE_FLOOD_ANOMALY" }, "geometry": { "type": "Polygon", "coordinates": [ [ [ 77.378712081507075, 11.424410473725592 ], [ 77.378708313394498, 11.423958678304928 ], [ 77.378479332491807, 11.423960536864419 ], [ 77.378475564900057, 11.423508741353222 ], [ 77.378704545440883, 11.423506882869141 ], [ 77.37870077764623, 11.423055087418236 ], [ 77.378929757785443, 11.423053228831064 ], [ 77.378925989787916, 11.422601433440457 ], [ 77.37984190849987, 11.422593997608454 ], [ 77.379843793202454, 11.422819895154776 ], [ 77.380530732361706, 11.422814316293362 ], [ 77.380534502971699, 11.423266111148282 ], [ 77.380763482973776, 11.423264251095333 ], [ 77.380769139729878, 11.423941943236146 ], [ 77.380082197975938, 11.423947523199073 ], [ 77.380080312893611, 11.423721625709382 ], [ 77.379622351887363, 11.423725344716626 ], [ 77.379620467206678, 11.423499447147702 ], [ 77.37893352594196, 11.423505024206552 ], [ 77.378939178474809, 11.424182717241427 ], [ 77.379168159478965, 11.424180858287189 ], [ 77.379170043917014, 11.424406755920208 ], [ 77.378712081507075, 11.424410473725592 ] ] ] } },
{ "type": "Feature", "properties": { "latest_scene_id": "S1D_IW_GRDH_1SDV_20260915T003957_20260915T004022_004581_008881_7A96", "acquisition_datetime": "2026-09-15 00:39:57Z", "area_m2": 1250.0, "classification": "NRT_CANDIDATE_FLOOD_ANOMALY" }, "geometry": { "type": "Polygon", "coordinates": [ [ [ 77.144199846333024, 11.424186772376995 ], [ 77.14419644959959, 11.423734903462821 ], [ 77.144425467529672, 11.423733227908865 ], [ 77.144428864625226, 11.424185096755043 ], [ 77.144199846333024, 11.424186772376995 ] ] ] } },
{ "type": "Feature", "properties": { "latest_scene_id": "S1D_IW_GRDH_1SDV_20260915T003957_20260915T004022_004581_008881_7A96", "acquisition_datetime": "2026-09-15 00:39:57Z", "area_m2": 2500.0, "classification": "NRT_CANDIDATE_FLOOD_ANOMALY" }, "geometry": { "type": "Polygon", "coordinates": [ [ [ 77.149004116485557, 11.423473745569881 ], [ 77.14900071236309, 11.423021878062839 ], [ 77.149458745594345, 11.423018519478394 ], [ 77.149462150440996, 11.423470386849129 ], [ 77.149004116485557, 11.423473745569881 ] ] ] } }
]
}
