{
"type": "FeatureCollection",
"name": "response_zones",
"crs": { "type": "name", "properties": { "name": "urn:ogc:def:crs:OGC:1.3:CRS84" } },
"features": [
{ "type": "Feature", "properties": { "zone_id": "ZONE_01", "locality": "Bhavanisagar", "sector_name": "Bhavanisagar Dam Toe Reach (Ch. 0–7.5 km)", "classification": "NON_OVERLAPPING_OPERATIONAL_RESPONSE_SECTORS", "chainage_start_km": 0.0, "chainage_end_km": 7.5, "n_faces": 1125, "face_area_km2": 11.25, "max_hazard_code": 6, "max_hazard_class": "H6", "earliest_arrival_hr": 0.0, "population_worldpop": 4601.4, "population_ghsl": 9405.7, "building_count": 5050, "h5_h6_buildings": 4797, "road_length_km": 19.8, "critical_facility_count": 1, "priority_rank": 1 }, "geometry": { "type": "Polygon", "coordinates": [ [ [ 77.109781540544887, 11.471886321264037 ], [ 77.109920170073394, 11.494294257620579 ], [ 77.111620591984732, 11.496521187013046 ], [ 77.11488391201982, 11.496383750555069 ], [ 77.118146608958824, 11.493274043299385 ], [ 77.121038492114593, 11.496542414468445 ], [ 77.130765049670089, 11.494769860394449 ], [ 77.132957408535134, 11.497359186268003 ], [ 77.138786403944394, 11.496162774842725 ], [ 77.140963208378537, 11.499018390359531 ], [ 77.149630315240685, 11.500955449106772 ], [ 77.151637487038059, 11.49974868309978 ], [ 77.152833908987674, 11.496418293817241 ], [ 77.161905295245248, 11.491069931267226 ], [ 77.161920276044384, 11.481111215451179 ], [ 77.154748967545785, 11.468601039214487 ], [ 77.150320132358701, 11.469407384736732 ], [ 77.143596752060674, 11.465765374406386 ], [ 77.135903581982333, 11.467949469968625 ], [ 77.132656498531617, 11.473075794352949 ], [ 77.133482771918864, 11.475890776598838 ], [ 77.137991946500279, 11.478469324066157 ], [ 77.135451218181359, 11.479172861820766 ], [ 77.126617950294317, 11.472536212807979 ], [ 77.121937445585104, 11.472326421968626 ], [ 77.116922508226722, 11.467884278254678 ], [ 77.111172177177011, 11.469033117006967 ], [ 77.109781540544887, 11.471886321264037 ] ] ] } },
{ "type": "Feature", "properties": { "zone_id": "ZONE_02", "locality": "Sathyamangalam", "sector_name": "Sathyamangalam Urban & Peri-Urban Corridor (Ch. 7.5–17.5 km)", "classification": "NON_OVERLAPPING_OPERATIONAL_RESPONSE_SECTORS", "chainage_start_km": 7.5, "chainage_end_km": 17.5, "n_faces": 2074, "face_area_km2": 20.74, "max_hazard_code": 6, "max_hazard_class": "H6", "earliest_arrival_hr": 2.0, "population_worldpop": 8856.2, "population_ghsl": 11387.7, "building_count": 6140, "h5_h6_buildings": 5466, "road_length_km": 59.235, "critical_facility_count": 0, "priority_rank": 2 }, "geometry": { "type": "Polygon", "coordinates": [ [ [ 77.15014310358184, 11.467641539485705 ], [ 77.157482814036484, 11.483053669895629 ], [ 77.156629592063538, 11.492782765543486 ], [ 77.157650545926018, 11.494871094217647 ], [ 77.165817735309503, 11.494722281877488 ], [ 77.167764297242698, 11.499314878283977 ], [ 77.174262970715475, 11.499018065870505 ], [ 77.179097213761452, 11.505216234370947 ], [ 77.18641118296128, 11.503085828136514 ], [ 77.187836512080125, 11.50052264346799 ], [ 77.190500339922707, 11.500538403721054 ], [ 77.187915469041528, 11.502865728743755 ], [ 77.189278917253915, 11.50760200248444 ], [ 77.192497222880704, 11.509686502574748 ], [ 77.198156610270203, 11.507876259875907 ], [ 77.200641944178827, 11.5139374019491 ], [ 77.204135561000157, 11.513660406593424 ], [ 77.20614859244904, 11.510293675645411 ], [ 77.211207577204064, 11.510128543137064 ], [ 77.212923420541983, 11.507648102875002 ], [ 77.217362133101787, 11.510285105356351 ], [ 77.221043970739458, 11.510167391572384 ], [ 77.2308529483185, 11.504260913679959 ], [ 77.234360665339238, 11.499560828162183 ], [ 77.234415778107461, 11.49502465474016 ], [ 77.231125669073677, 11.49050197726622 ], [ 77.226459173857762, 11.488653431537925 ], [ 77.221079460638421, 11.483581412956058 ], [ 77.217948814547682, 11.483285100515635 ], [ 77.215758133992978, 11.476528719991915 ], [ 77.211598170941272, 11.476220096768987 ], [ 77.205395503154861, 11.479318474797639 ], [ 77.204339072605165, 11.484199954293306 ], [ 77.199055058786797, 11.479229548832503 ], [ 77.193168800834059, 11.478049957102213 ], [ 77.196354119202411, 11.475917272653158 ], [ 77.196330818069598, 11.472904848540075 ], [ 77.190350441270098, 11.469033534802941 ], [ 77.18911152632576, 11.466788478107157 ], [ 77.185590776824185, 11.466365566283807 ], [ 77.183116476387198, 11.463871513052439 ], [ 77.179623396387925, 11.464148148625993 ], [ 77.177511094150972, 11.46748054360201 ], [ 77.174199378157468, 11.464051780986813 ], [ 77.171188118779881, 11.463870778469136 ], [ 77.168361727364754, 11.469197655872023 ], [ 77.16689056627375, 11.466817408256878 ], [ 77.160618139566509, 11.464788275250145 ], [ 77.152222964965475, 11.465754034705453 ], [ 77.15014310358184, 11.467641539485705 ] ], [ [ 77.192474277131538, 11.478044429832122 ], [ 77.192632968067272, 11.478106080698675 ], [ 77.192346906294105, 11.478181694444771 ], [ 77.192474277131538, 11.478044429832122 ] ] ] } },
{ "type": "Feature", "properties": { "zone_id": "ZONE_03", "locality": "Kodiveri", "sector_name": "Ariyappampalayam-Kodiveri Agricultural Reach (Ch. 17.5–26.5 km)", "classification": "NON_OVERLAPPING_OPERATIONAL_RESPONSE_SECTORS", "chainage_start_km": 17.5, "chainage_end_km": 26.5, "n_faces": 1918, "face_area_km2": 19.18, "max_hazard_code": 6, "max_hazard_class": "H6", "earliest_arrival_hr": 4.167, "population_worldpop": 11220.5, "population_ghsl": 47728.8, "building_count": 8681, "h5_h6_buildings": 7442, "road_length_km": 83.02, "critical_facility_count": 15, "priority_rank": 3 }, "geometry": { "type": "Polygon", "coordinates": [ [ [ 77.216371212550868, 11.509130847798817 ], [ 77.219414570851285, 11.514447984384978 ], [ 77.223694346894149, 11.514872222069071 ], [ 77.226037674627037, 11.520879251398117 ], [ 77.229256344045481, 11.522963264965213 ], [ 77.233529019495009, 11.522473548047788 ], [ 77.236090695237905, 11.518082483758089 ], [ 77.240766780394139, 11.520111485949384 ], [ 77.243416175082714, 11.518034494060965 ], [ 77.243860339401323, 11.515621089284497 ], [ 77.24674102101504, 11.517289560134389 ], [ 77.250824722019075, 11.51732263073365 ], [ 77.258341535886458, 11.512790206099575 ], [ 77.263524342336879, 11.511552665998304 ], [ 77.263619082888937, 11.506056522325023 ], [ 77.258968388739262, 11.503303946480802 ], [ 77.260053048676752, 11.498317152127873 ], [ 77.262656381899347, 11.49784795547486 ], [ 77.263859982597566, 11.495584365578582 ], [ 77.265332059931225, 11.497963940834662 ], [ 77.26834356012715, 11.498143891872791 ], [ 77.272996644318383, 11.493971541121804 ], [ 77.272768469356421, 11.489958942826833 ], [ 77.268632907100567, 11.48298274041932 ], [ 77.265570412342313, 11.481267379925534 ], [ 77.265546136394946, 11.478619406957549 ], [ 77.276430056543063, 11.478199196264216 ], [ 77.278344515895128, 11.475324128677 ], [ 77.275491435547423, 11.471708971488741 ], [ 77.270967393234343, 11.469102624358571 ], [ 77.266760985271617, 11.45790694742686 ], [ 77.259533777398573, 11.450888859283083 ], [ 77.25525628942124, 11.450623468414554 ], [ 77.253783354342346, 11.448085279921965 ], [ 77.250117394816456, 11.447845467391893 ], [ 77.247143743237118, 11.452451588725976 ], [ 77.247766378467588, 11.455954831678616 ], [ 77.24218893789525, 11.45419343200016 ], [ 77.238813471295003, 11.456708431203408 ], [ 77.233958124811934, 11.456063916594802 ], [ 77.23195168420915, 11.457271131944168 ], [ 77.232003712803575, 11.463898215390108 ], [ 77.237053987883186, 11.465968253701174 ], [ 77.238466562509686, 11.470174888268936 ], [ 77.241645507609832, 11.472431961944968 ], [ 77.239076789905127, 11.475106785673463 ], [ 77.239327789072675, 11.480784851862332 ], [ 77.24560575064983, 11.483969258556053 ], [ 77.245673993876991, 11.48682163848208 ], [ 77.247268574471718, 11.488310208556962 ], [ 77.245043824350091, 11.491520965377447 ], [ 77.243013175928226, 11.490336294069923 ], [ 77.236423625704134, 11.49098928811835 ], [ 77.235449462836883, 11.494900012156599 ], [ 77.231177203564883, 11.49538968008002 ], [ 77.227365128258086, 11.500501087925249 ], [ 77.217104373879351, 11.506679201652444 ], [ 77.216371212550868, 11.509130847798817 ] ], [ [ 77.263897599414406, 11.495132215071965 ], [ 77.263815147345568, 11.495132855741222 ], [ 77.263844396133564, 11.4948808709294 ], [ 77.263897599414406, 11.495132215071965 ] ] ] } },
{ "type": "Feature", "properties": { "zone_id": "ZONE_04", "locality": "Gobichettipalayam", "sector_name": "Gobichettipalayam Approach Reach (Ch. 26.5–35.5 km)", "classification": "NON_OVERLAPPING_OPERATIONAL_RESPONSE_SECTORS", "chainage_start_km": 26.5, "chainage_end_km": 35.5, "n_faces": 2143, "face_area_km2": 21.43, "max_hazard_code": 6, "max_hazard_class": "H6", "earliest_arrival_hr": 6.0, "population_worldpop": 7094.0, "population_ghsl": 14381.5, "building_count": 4742, "h5_h6_buildings": 3896, "road_length_km": 59.021, "critical_facility_count": 6, "priority_rank": 4 }, "geometry": { "type": "Polygon", "coordinates": [ [ [ 77.25623742372305, 11.453620428404014 ], [ 77.256837268338117, 11.455787606381202 ], [ 77.26360594548558, 11.462367545307707 ], [ 77.267226840252576, 11.4721712309185 ], [ 77.274827121746313, 11.47730798780953 ], [ 77.280387469274075, 11.475476377201895 ], [ 77.281283862377066, 11.482679849297853 ], [ 77.283806775715632, 11.486185264150894 ], [ 77.288658980326787, 11.486147216550588 ], [ 77.292167026264579, 11.482555466351286 ], [ 77.292988343901996, 11.48552550796861 ], [ 77.296777948655162, 11.487193440141288 ], [ 77.294062419051158, 11.489660184531376 ], [ 77.296221967716917, 11.49397050081849 ], [ 77.306149023670457, 11.493437654867289 ], [ 77.308379748545221, 11.495818594951473 ], [ 77.310863544447855, 11.496105968499656 ], [ 77.313594718752597, 11.492406298911716 ], [ 77.318337384313395, 11.491240030251463 ], [ 77.317709083880175, 11.474828033131891 ], [ 77.319549344256046, 11.470746829470587 ], [ 77.317688511719922, 11.468206308080315 ], [ 77.317323214446546, 11.462257030805814 ], [ 77.313174881325963, 11.460973565885556 ], [ 77.309418946127849, 11.464292302390412 ], [ 77.305734249047461, 11.461819336828057 ], [ 77.309242632056197, 11.457156459028237 ], [ 77.308983026462798, 11.450575072209244 ], [ 77.306231490287175, 11.44781321057677 ], [ 77.303621480851803, 11.447384804075821 ], [ 77.302291018228999, 11.442285295864584 ], [ 77.297709178278382, 11.442053279440827 ], [ 77.293679265424018, 11.443840205391307 ], [ 77.292650382422792, 11.4408488527515 ], [ 77.289069985401397, 11.440261485180161 ], [ 77.289949698625477, 11.435736082100092 ], [ 77.288710274417468, 11.433491563494032 ], [ 77.280498522448994, 11.433111776565442 ], [ 77.277400705598311, 11.435006551918422 ], [ 77.273307833908802, 11.431463942961274 ], [ 77.263650741914219, 11.430975191587244 ], [ 77.262789127103517, 11.435417849814234 ], [ 77.267077109309867, 11.43846947532157 ], [ 77.268099211462243, 11.441616785185659 ], [ 77.271692271450121, 11.442423066443839 ], [ 77.271701262871801, 11.444915390386036 ], [ 77.268958614439441, 11.44563137986728 ], [ 77.266459974065498, 11.443161661545343 ], [ 77.260317256489259, 11.443516253685081 ], [ 77.25623742372305, 11.453620428404014 ] ], [ [ 77.296777948655162, 11.487193440141288 ], [ 77.299083697169891, 11.485920027946014 ], [ 77.299477255546023, 11.486095672503192 ], [ 77.2983289272034, 11.487257514850592 ], [ 77.296777948655162, 11.487193440141288 ] ] ] } },
{ "type": "Feature", "properties": { "zone_id": "ZONE_05", "locality": "Kalingarayanpalayam", "sector_name": "Gobichettipalayam-Kavindapadi Northern Floodplain (Ch. 35.5–44.5 km)", "classification": "NON_OVERLAPPING_OPERATIONAL_RESPONSE_SECTORS", "chainage_start_km": 35.5, "chainage_end_km": 44.5, "n_faces": 1629, "face_area_km2": 16.29, "max_hazard_code": 6, "max_hazard_class": "H6", "earliest_arrival_hr": 8.0, "population_worldpop": 5691.3, "population_ghsl": 753.2, "building_count": 376, "h5_h6_buildings": 248, "road_length_km": 5.623, "critical_facility_count": 3, "priority_rank": 5 }, "geometry": { "type": "Polygon", "coordinates": [ [ [ 77.313203520402624, 11.473960092679048 ], [ 77.314324795826181, 11.489649029523729 ], [ 77.31788687909328, 11.491544802163242 ], [ 77.319839886678523, 11.495432300940374 ], [ 77.323797844148942, 11.495696019792577 ], [ 77.329328660622437, 11.490183303150356 ], [ 77.341699918196881, 11.490450761580256 ], [ 77.343136553593837, 11.497367390907153 ], [ 77.347918391233378, 11.499424347978625 ], [ 77.354727614048926, 11.498272402951415 ], [ 77.358665526731585, 11.495384392392715 ], [ 77.361540966289112, 11.498103492648312 ], [ 77.364552331424463, 11.498282435895485 ], [ 77.366369551842652, 11.496460395801963 ], [ 77.366295071795804, 11.492955155150948 ], [ 77.375303460858049, 11.491529258156611 ], [ 77.380977126580106, 11.477747192553487 ], [ 77.379698944477383, 11.471695726211001 ], [ 77.375409510851753, 11.468646093392064 ], [ 77.374142061941598, 11.464511755550648 ], [ 77.371836234503832, 11.4624001716059 ], [ 77.364743292527947, 11.46139974678103 ], [ 77.361415656783805, 11.464096299527586 ], [ 77.358282152282243, 11.464567754110393 ], [ 77.357151654552908, 11.469167197965534 ], [ 77.359838303005262, 11.472962126895968 ], [ 77.355295632472703, 11.473875182004756 ], [ 77.349903120257551, 11.468903101641125 ], [ 77.343643222095267, 11.46972702000491 ], [ 77.3389870965499, 11.467891463102625 ], [ 77.335071188318707, 11.464297354140758 ], [ 77.334418397434675, 11.46077535946055 ], [ 77.330708390944181, 11.458019501726628 ], [ 77.326640713527652, 11.458245226724713 ], [ 77.324964681033208, 11.460763247273215 ], [ 77.321203089979562, 11.462490890268009 ], [ 77.319661110582445, 11.468846495291091 ], [ 77.315956499785315, 11.468679675477876 ], [ 77.313203520402624, 11.473960092679048 ] ] ] } },
{ "type": "Feature", "properties": { "zone_id": "ZONE_06", "locality": "Bhavani", "sector_name": "Lower Bhavani Canal Confluence Reach (Ch. 44.5+ km)", "classification": "NON_OVERLAPPING_OPERATIONAL_RESPONSE_SECTORS", "chainage_start_km": 44.5, "chainage_end_km": 51.73, "n_faces": 1240, "face_area_km2": 12.4, "max_hazard_code": 6, "max_hazard_class": "H6", "earliest_arrival_hr": 9.5, "population_worldpop": 4964.7, "population_ghsl": 843.7, "building_count": 663, "h5_h6_buildings": 623, "road_length_km": 17.12, "critical_facility_count": 15, "priority_rank": 6 }, "geometry": { "type": "Polygon", "coordinates": [ [ [ 77.371947694225241, 11.487043379335246 ], [ 77.37205029633212, 11.490088626102255 ], [ 77.373642976035242, 11.491793306739222 ], [ 77.37798067304459, 11.491912211468762 ], [ 77.381549775025206, 11.489818255917237 ], [ 77.38349855293238, 11.494310054941243 ], [ 77.388726771137328, 11.493412213621468 ], [ 77.390031190299752, 11.498103717385202 ], [ 77.394010537310521, 11.499810054995379 ], [ 77.392209938984109, 11.504498800491413 ], [ 77.393935462426697, 11.507892813811754 ], [ 77.401679262674264, 11.50892594685922 ], [ 77.404135490700597, 11.506207821865429 ], [ 77.406425571727524, 11.506148238113992 ], [ 77.41069678003602, 11.509651336303442 ], [ 77.417908861634388, 11.509708226470947 ], [ 77.422258450834676, 11.50709496921773 ], [ 77.422022896723462, 11.493034552762111 ], [ 77.414978107286998, 11.489634064859878 ], [ 77.412767887068583, 11.485829896668822 ], [ 77.414020914865858, 11.483535332566458 ], [ 77.412856067381341, 11.478893049669445 ], [ 77.410302819140242, 11.477240679570853 ], [ 77.410852844180354, 11.47234371162892 ], [ 77.406452280495074, 11.469256501726452 ], [ 77.401295111173852, 11.469192979581033 ], [ 77.401909142777882, 11.465937404390232 ], [ 77.400248793734136, 11.463975373458631 ], [ 77.391748397482488, 11.465852388111212 ], [ 77.390061339228239, 11.468170687276267 ], [ 77.389005040018901, 11.460861976249916 ], [ 77.386071205007497, 11.46028365140339 ], [ 77.382777733914239, 11.46181647904033 ], [ 77.381576486511776, 11.464836257143762 ], [ 77.375624041344466, 11.46835481004506 ], [ 77.376409150448978, 11.476396330906999 ], [ 77.371947694225241, 11.487043379335246 ] ], [ [ 77.391758891152136, 11.489514899621501 ], [ 77.393005431003814, 11.488911657189375 ], [ 77.390142806217852, 11.491772730595709 ], [ 77.391758891152136, 11.489514899621501 ] ] ] } }
]
}
